{"type":"FeatureCollection","features":[{"type":"Feature","id":7,"geometry":{"type":"Point","coordinates":[23.808189700000071,38.087080300000025]},"properties":{"OBJECTID":7,"amenity":"hospital","name":"Κλινική Γαλήνη","name_en":null}},{"type":"Feature","id":27,"geometry":{"type":"Point","coordinates":[23.769252000000051,37.992064900000059]},"properties":{"OBJECTID":27,"amenity":"hospital","name":"Γενικό Νομαρχιακό Νοσοκομείο Αθηνών Κοργιαλένιο Μπενάκειο Ελληνικού Ερυθρού Σταυρού","name_en":null}},{"type":"Feature","id":28,"geometry":{"type":"Point","coordinates":[23.769643300000041,37.990627000000075]},"properties":{"OBJECTID":28,"amenity":"hospital","name":"Ερρίκος Ντυνάν","name_en":null}},{"type":"Feature","id":29,"geometry":{"type":"Point","coordinates":[23.778578700000025,37.991831400000081]},"properties":{"OBJECTID":29,"amenity":"hospital","name":"401 Γενικό Στρατιωτικό Νοσοκομείο Αθηνών","name_en":"401 General Military Hospital of Athens"}},{"type":"Feature","id":30,"geometry":{"type":"Point","coordinates":[23.768961700000034,37.98538700000006]},"properties":{"OBJECTID":30,"amenity":"hospital","name":"Νοσοκομείο Παίδων","name_en":null}},{"type":"Feature","id":41,"geometry":{"type":"Point","coordinates":[23.966778700000077,37.813576900000044]},"properties":{"OBJECTID":41,"amenity":"hospital","name":"Κέντρο Υγείας Κερατέας","name_en":null}},{"type":"Feature","id":68,"geometry":{"type":"Point","coordinates":[23.431403800000055,37.753175800000065]},"properties":{"OBJECTID":68,"amenity":"hospital","name":null,"name_en":null}},{"type":"Feature","id":102,"geometry":{"type":"Point","coordinates":[23.697433500000045,37.942613400000027]},"properties":{"OBJECTID":102,"amenity":"hospital","name":"Ωνάσειο Καρδιοχειρουργικό Κέντρο","name_en":"Onassis Cardiac Surgery Center"}},{"type":"Feature","id":117,"geometry":{"type":"Point","coordinates":[23.751350700000046,37.979472500000043]},"properties":{"OBJECTID":117,"amenity":"hospital","name":"ΝΙΜΤΣ - Νοσηλευτικό Ίδρυμα Μετοχικού Ταμείου Στρατού 417","name_en":"NIMTS - 417 Army Equity Fund Hospital"}},{"type":"Feature","id":122,"geometry":{"type":"Point","coordinates":[23.66283530000004,37.972013200000049]},"properties":{"OBJECTID":122,"amenity":"hospital","name":"Γενικό Νοσοκομείο Νίκαιας \"Αγ. Παντελεήμων\"","name_en":null}},{"type":"Feature","id":342,"geometry":{"type":"Point","coordinates":[23.828779100000077,38.045979000000045]},"properties":{"OBJECTID":342,"amenity":"hospital","name":"Σισμανόγλειο Γενικό Νοσοκομείο","name_en":null}},{"type":"Feature","id":572,"geometry":{"type":"Point","coordinates":[23.967936700000052,38.029202500000054]},"properties":{"OBJECTID":572,"amenity":"hospital","name":null,"name_en":null}},{"type":"Feature","id":610,"geometry":{"type":"Point","coordinates":[23.351293600000076,37.998457300000041]},"properties":{"OBJECTID":610,"amenity":"hospital","name":"Κέντρο Υγείας Μεγάρων","name_en":null}},{"type":"Feature","id":635,"geometry":{"type":"Point","coordinates":[23.747779300000047,37.977760100000069]},"properties":{"OBJECTID":635,"amenity":"hospital","name":"Γενικό Νοσοκομείο Αθηνών \"Ευαγγελισμός\"","name_en":"Evangelismos Hospital"}},{"type":"Feature","id":642,"geometry":{"type":"Point","coordinates":[23.752031800000054,37.981727100000057]},"properties":{"OBJECTID":642,"amenity":"hospital","name":"Ναυτικό Νοσοκομείο Αθηνών","name_en":"Naval Hostpital of Athens"}},{"type":"Feature","id":646,"geometry":{"type":"Point","coordinates":[23.755279500000029,37.980130700000075]},"properties":{"OBJECTID":646,"amenity":"hospital","name":"Γενικό Νοσοκομείο Αθηνών \"Αλεξάνδρα\"","name_en":"Alexandra Hospital"}},{"type":"Feature","id":647,"geometry":{"type":"Point","coordinates":[23.754803800000047,37.979504600000041]},"properties":{"OBJECTID":647,"amenity":"hospital","name":"Αρεταίειο Νοσοκομείο","name_en":"Areteio Hospital"}},{"type":"Feature","id":649,"geometry":{"type":"Point","coordinates":[23.752306700000076,37.973479500000053]},"properties":{"OBJECTID":649,"amenity":"hospital","name":"Νοσοκομείο Αφροδισίων & Δερματικών Νόσων «Ανδρέας Συγγρός»","name_en":"Andreas Syngros Hospital"}},{"type":"Feature","id":653,"geometry":{"type":"Point","coordinates":[23.755897900000036,37.984956700000055]},"properties":{"OBJECTID":653,"amenity":"hospital","name":"Περιφερειακό Γενικό Νοσοκομείο - Μαιευτήριο \"Έλενα Βενιζέλου\"","name_en":"General and Maternity Hospital \"Helena Venizelou\""}},{"type":"Feature","id":657,"geometry":{"type":"Point","coordinates":[23.759758800000043,37.983692200000064]},"properties":{"OBJECTID":657,"amenity":"hospital","name":"Γενικό Νοσοκομείο Αθηνών \"Ιπποκράτειο\"","name_en":"Hippocratio Hospital"}},{"type":"Feature","id":676,"geometry":{"type":"Point","coordinates":[23.755388900000071,37.989987600000063]},"properties":{"OBJECTID":676,"amenity":"hospital","name":"Γενικό Νοσοκομείο Αθηνών \"Η Ελπίς\"","name_en":null}},{"type":"Feature","id":694,"geometry":{"type":"Point","coordinates":[23.532612700000072,38.07172550000007]},"properties":{"OBJECTID":694,"amenity":"hospital","name":"Γενικό Νοσοκομείο Ελευσίνας «Θριάσιο»","name_en":"Thriassio General Hospital"}},{"type":"Feature","id":756,"geometry":{"type":"Point","coordinates":[23.758458400000052,37.986366000000032]},"properties":{"OBJECTID":756,"amenity":"hospital","name":"Ευρωκλινική Αθηνών","name_en":null}},{"type":"Feature","id":759,"geometry":{"type":"Point","coordinates":[23.64590110000006,37.93416620000005]},"properties":{"OBJECTID":759,"amenity":"hospital","name":"Τζάνειο Γενικό Νοσοκομείο Πειραιά","name_en":"Tzanio General Hospital"}},{"type":"Feature","id":774,"geometry":{"type":"Point","coordinates":[23.669891500000062,37.945151600000031]},"properties":{"OBJECTID":774,"amenity":"hospital","name":"Metropolitan Hospital","name_en":null}},{"type":"Feature","id":775,"geometry":{"type":"Point","coordinates":[23.670479500000056,37.945085800000072]},"properties":{"OBJECTID":775,"amenity":"hospital","name":"Metropolitan Hospital","name_en":null}},{"type":"Feature","id":803,"geometry":{"type":"Point","coordinates":[23.765225600000065,37.984035300000073]},"properties":{"OBJECTID":803,"amenity":"hospital","name":"Γενικό Νοσοκομείο Αθηνών \"Λαϊκό\"","name_en":null}},{"type":"Feature","id":805,"geometry":{"type":"Point","coordinates":[23.793662700000027,38.035377400000073]},"properties":{"OBJECTID":805,"amenity":"hospital","name":null,"name_en":null}},{"type":"Feature","id":828,"geometry":{"type":"Point","coordinates":[23.757285800000034,37.848823000000039]},"properties":{"OBJECTID":828,"amenity":"hospital","name":"Ασκληπιείο Βούλας","name_en":"Asklepieio Voulas"}},{"type":"Feature","id":903,"geometry":{"type":"Point","coordinates":[23.737422000000038,38.072122700000079]},"properties":{"OBJECTID":903,"amenity":"hospital","name":"Κλινική Άγιος Γεράσιμος","name_en":null}},{"type":"Feature","id":921,"geometry":{"type":"Point","coordinates":[23.754748000000063,37.88038350000005]},"properties":{"OBJECTID":921,"amenity":"hospital","name":"Athens Eye Hospital","name_en":null}},{"type":"Feature","id":1094,"geometry":{"type":"Point","coordinates":[23.643939500000045,37.929628300000047]},"properties":{"OBJECTID":1094,"amenity":"hospital","name":"Γενικό Αντικαρκινικό Νοσοκομείο Πειραιά Μεταξά","name_en":"Metaxa General Hospital"}},{"type":"Feature","id":1190,"geometry":{"type":"Point","coordinates":[23.783818800000063,37.996783600000072]},"properties":{"OBJECTID":1190,"amenity":"hospital","name":"Γενικό Νοσοκομείο Αθηνών \"Γιώργος Γεννηματάς\"","name_en":"General Hospital of Athens \"Giorgos Gennimatas\""}},{"type":"Feature","id":1201,"geometry":{"type":"Point","coordinates":[23.758007600000042,38.037891000000059]},"properties":{"OBJECTID":1201,"amenity":"hospital","name":"Κωνσταντοπούλειο Συγκρότημα - Γενικό Νοσοκομείο Νέας Ιωνίας «Η Αγία Όλγα»","name_en":null}},{"type":"Feature","id":1408,"geometry":{"type":"Point","coordinates":[23.805641800000046,38.043204500000058]},"properties":{"OBJECTID":1408,"amenity":"hospital","name":"Ιατρικό Κέντρο Αθηνών","name_en":"Athens Medical Center"}},{"type":"Feature","id":1440,"geometry":{"type":"Point","coordinates":[23.755268300000068,37.988221900000042]},"properties":{"OBJECTID":1440,"amenity":"hospital","name":"Αντικαρκινικό - Ογκολογικό Νοσοκομείο Αθηνών \"Αγιος Σάββας\"","name_en":null}},{"type":"Feature","id":1544,"geometry":{"type":"Point","coordinates":[23.77080490000003,38.079788600000029]},"properties":{"OBJECTID":1544,"amenity":"hospital","name":"Νομαρχιακό Γενικό Ογκολογικό Νοσοκομείο Κηφισιάς, Άγιοι Ανάργυροι","name_en":null}},{"type":"Feature","id":1795,"geometry":{"type":"Point","coordinates":[23.758321000000024,38.038982100000055]},"properties":{"OBJECTID":1795,"amenity":"hospital","name":"Ψυχιατρικό τμήμα Νοσοκομείου Αγίας Όλγας","name_en":null}},{"type":"Feature","id":1938,"geometry":{"type":"Point","coordinates":[23.756469500000037,37.984194700000046]},"properties":{"OBJECTID":1938,"amenity":"hospital","name":"Παθολογικό Νοσοκομείο Αθηνών - Σπηλιοπούλειο \"Η Αγία Ελένη\"","name_en":null}},{"type":"Feature","id":1943,"geometry":{"type":"Point","coordinates":[23.754162400000041,37.979061400000035]},"properties":{"OBJECTID":1943,"amenity":"hospital","name":"Αιγινήτειο Νοσοκομείο","name_en":"Eginitio Hospital"}},{"type":"Feature","id":1944,"geometry":{"type":"Point","coordinates":[23.87348860000003,38.060698100000025]},"properties":{"OBJECTID":1944,"amenity":"hospital","name":"414 ΣΤΡΑΤΙΩΤΙΚΟ ΝΟΣΟΚΟΜΕΙΟ ΕΙΔΙΚΩΝ ΝΟΣΗΜΑΤΩΝ","name_en":null}},{"type":"Feature","id":1950,"geometry":{"type":"Point","coordinates":[23.807366400000035,38.065916600000037]},"properties":{"OBJECTID":1950,"amenity":"hospital","name":"Γενικό Νοσοκομείο Αττικής \"ΚΑΤ\"","name_en":null}},{"type":"Feature","id":2058,"geometry":{"type":"Point","coordinates":[23.705512900000031,37.948520200000075]},"properties":{"OBJECTID":2058,"amenity":"hospital","name":"Νοσοκομείο Παίδων \"Παναγιώτη και Αγλαΐας Κυριακού\" - Παράρτημα Καλλιθέας","name_en":"\"Aglaia Kyriakou\" Children’s Hospital - Kallithea Branch"}},{"type":"Feature","id":2091,"geometry":{"type":"Point","coordinates":[23.667147800000066,38.017110400000035]},"properties":{"OBJECTID":2091,"amenity":"hospital","name":"Πανεπιστημιακό Γενικό Νοσοκομείο \"Αττικόν\"","name_en":"University Hospital \"Attikon\""}},{"type":"Feature","id":2130,"geometry":{"type":"Point","coordinates":[23.78350000000006,37.993798000000027]},"properties":{"OBJECTID":2130,"amenity":"hospital","name":"Γενικό Νοσοκομείο Νοσημάτων Θώρακος \"Η Σωτηρία\"","name_en":null}},{"type":"Feature","id":2143,"geometry":{"type":"Point","coordinates":[23.789122000000077,38.029015700000059]},"properties":{"OBJECTID":2143,"amenity":"hospital","name":"Μητέρα","name_en":null}},{"type":"Feature","id":2144,"geometry":{"type":"Point","coordinates":[23.790202900000054,38.028662900000029]},"properties":{"OBJECTID":2144,"amenity":"hospital","name":"Υγεία","name_en":null}},{"type":"Feature","id":2296,"geometry":{"type":"Point","coordinates":[23.789264800000069,38.01893460000008]},"properties":{"OBJECTID":2296,"amenity":"hospital","name":"ΨΥΧΙΑΤΡΙΚΗ ΚΛΙΝΙΚΗ ΣΑΜΕΛΛΑ Δ. Α.Ε. - ΤΟ ΑΣΚΛΗΠΙΕΙΟΝ","name_en":null}},{"type":"Feature","id":2576,"geometry":{"type":"Point","coordinates":[23.808826100000033,38.064716800000042]},"properties":{"OBJECTID":2576,"amenity":"hospital","name":"Βιοιατρική--EUROMEDICA","name_en":null}},{"type":"Feature","id":2604,"geometry":{"type":"Point","coordinates":[23.875586600000076,38.050622300000043]},"properties":{"OBJECTID":2604,"amenity":"hospital","name":"Παίδων Πεντέλης","name_en":"Penteli Children Hospital"}},{"type":"Feature","id":2612,"geometry":{"type":"Point","coordinates":[23.751328700000045,37.988796900000068]},"properties":{"OBJECTID":2612,"amenity":"hospital","name":"Κέντρο Υγείας Αλεξάνδρας","name_en":null}},{"type":"Feature","id":3118,"geometry":{"type":"Point","coordinates":[23.841403800000023,38.055284500000027]},"properties":{"OBJECTID":3118,"amenity":"hospital","name":"Αμαλία Φλέμινγκ Πτέρυγα Μπόμπολα","name_en":null}},{"type":"Feature","id":3162,"geometry":{"type":"Point","coordinates":[23.873699600000066,38.060734500000081]},"properties":{"OBJECTID":3162,"amenity":"hospital","name":"414 Στρατιωτικό Νοσοκομείο Ειδικών Νοσημάτων","name_en":null}},{"type":"Feature","id":3230,"geometry":{"type":"Point","coordinates":[23.726826200000062,37.983285200000068]},"properties":{"OBJECTID":3230,"amenity":"hospital","name":"Πολυκλινική Αθηνών","name_en":null}},{"type":"Feature","id":3288,"geometry":{"type":"Point","coordinates":[23.76382760000007,37.987092800000028]},"properties":{"OBJECTID":3288,"amenity":"hospital","name":"Γενικό Νοσοκομείο Αθηνών \"Λαϊκό\" - Παράρτημα Σεβαστουπόλεως","name_en":null}},{"type":"Feature","id":3321,"geometry":{"type":"Point","coordinates":[23.741386200000022,37.990749900000026]},"properties":{"OBJECTID":3321,"amenity":"hospital","name":"Άγιος Σάββας - Κέντρο Ημερήσιας Νοσηλείας «Νίκος Κούρκουλος»","name_en":null}},{"type":"Feature","id":3395,"geometry":{"type":"Point","coordinates":[23.754854300000034,37.978523100000075]},"properties":{"OBJECTID":3395,"amenity":"hospital","name":"Ευγενίδειο Θεραπευτήριο","name_en":null}},{"type":"Feature","id":3398,"geometry":{"type":"Point","coordinates":[23.75839650000006,37.983036300000037]},"properties":{"OBJECTID":3398,"amenity":"hospital","name":"Παράρτημα Ιπποκρατείου Νοσοκομείου Αθηνών","name_en":null}},{"type":"Feature","id":3606,"geometry":{"type":"Point","coordinates":[23.66947730000004,37.94505550000008]},"properties":{"OBJECTID":3606,"amenity":"hospital","name":"Metropolitan Hospital","name_en":null}},{"type":"Feature","id":3632,"geometry":{"type":"Point","coordinates":[23.713792200000057,37.943509400000039]},"properties":{"OBJECTID":3632,"amenity":"hospital","name":"we.physio","name_en":null}},{"type":"Feature","id":4089,"geometry":{"type":"Point","coordinates":[23.731582200000048,38.014261300000044]},"properties":{"OBJECTID":4089,"amenity":"hospital","name":"Παμμακάριστος","name_en":null}},{"type":"Feature","id":4918,"geometry":{"type":"Point","coordinates":[23.699743500000068,37.925174700000071]},"properties":{"OBJECTID":4918,"amenity":"hospital","name":"Ιατρικό Παλαιού Φαλήρου","name_en":null}},{"type":"Feature","id":5322,"geometry":{"type":"Point","coordinates":[23.717738300000065,38.049583400000074]},"properties":{"OBJECTID":5322,"amenity":"hospital","name":"Εθνικό Κέντρο Αποκατάστασης","name_en":null}},{"type":"Feature","id":5429,"geometry":{"type":"Point","coordinates":[23.479105900000036,37.967994600000054]},"properties":{"OBJECTID":5429,"amenity":"hospital","name":"Κέντρο Υγείας Σαλαμίνας","name_en":null}},{"type":"Feature","id":5630,"geometry":{"type":"Point","coordinates":[23.765146000000072,37.994793900000047]},"properties":{"OBJECTID":5630,"amenity":"hospital","name":"Βιοκλινική Αθήνας","name_en":null}},{"type":"Feature","id":5649,"geometry":{"type":"Point","coordinates":[22.965068000000031,36.277153600000076]},"properties":{"OBJECTID":5649,"amenity":"hospital","name":"Γενικό Νοσοκομείο Κυθήρων \"Τριφύλλειο\"","name_en":"General Hospital of Kythira"}},{"type":"Feature","id":5755,"geometry":{"type":"Point","coordinates":[23.755990000000054,37.964612100000068]},"properties":{"OBJECTID":5755,"amenity":"hospital","name":"Γενική Κλινική ΑΘΗΝΑΙΟΝ Euromedica","name_en":null}},{"type":"Feature","id":5831,"geometry":{"type":"Point","coordinates":[23.78037850000004,37.98971030000007]},"properties":{"OBJECTID":5831,"amenity":"hospital","name":"251 Γενικό Νοσοκομείο Αεροπορίας","name_en":null}},{"type":"Feature","id":6268,"geometry":{"type":"Point","coordinates":[23.838173700000027,38.042493800000045]},"properties":{"OBJECTID":6268,"amenity":"hospital","name":"Ψυχιατρικό Θεραπευτήριο «Αθηνά»","name_en":null}},{"type":"Feature","id":6495,"geometry":{"type":"Point","coordinates":[23.662690800000064,38.000241200000062]},"properties":{"OBJECTID":6495,"amenity":"hospital","name":"Δρομοκαΐτειο","name_en":null}},{"type":"Feature","id":7447,"geometry":{"type":"Point","coordinates":[23.834978300000046,38.054340900000057]},"properties":{"OBJECTID":7447,"amenity":"hospital","name":"Αμαλία Φλέμινγκ","name_en":"Amalia Fleming Prefecture General Hospital"}},{"type":"Feature","id":7999,"geometry":{"type":"Point","coordinates":[23.746903200000077,37.88568900000007]},"properties":{"OBJECTID":7999,"amenity":"hospital","name":"Mediterraneo Hospital","name_en":null}},{"type":"Feature","id":8875,"geometry":{"type":"Point","coordinates":[23.67670570000007,37.991240000000062]},"properties":{"OBJECTID":8875,"amenity":"hospital","name":"Κλινική Αγία Ειρήνη","name_en":"West Clinic Egaleo"}},{"type":"Feature","id":8876,"geometry":{"type":"Point","coordinates":[23.675090500000067,37.989923500000032]},"properties":{"OBJECTID":8876,"amenity":"hospital","name":"ΚΛΙΝΙΚΗ ΤΙΜΙΟΣ ΣΤΑΥΡΟΣ","name_en":null}},{"type":"Feature","id":8957,"geometry":{"type":"Point","coordinates":[23.798663000000033,38.00614500000006]},"properties":{"OBJECTID":8957,"amenity":"hospital","name":"Metropolitan General","name_en":null}},{"type":"Feature","id":8990,"geometry":{"type":"Point","coordinates":[23.769664100000057,37.996523100000047]},"properties":{"OBJECTID":8990,"amenity":"hospital","name":"Ιατρικό Αθηνών Κλινική Ψυχικού","name_en":"Hospital of Psychiko"}},{"type":"Feature","id":8994,"geometry":{"type":"Point","coordinates":[23.810087400000043,38.087350900000047]},"properties":{"OBJECTID":8994,"amenity":"hospital","name":"Κλινική Σινούρη","name_en":null}},{"type":"Feature","id":9214,"geometry":{"type":"Point","coordinates":[23.774450800000068,38.063171300000079]},"properties":{"OBJECTID":9214,"amenity":"hospital","name":"Νευροψυχιατρική Κλινική \"Παναγιά η Γρηγορούσα\"","name_en":null}},{"type":"Feature","id":9773,"geometry":{"type":"Point","coordinates":[23.465348300000073,37.348826700000075]},"properties":{"OBJECTID":9773,"amenity":"hospital","name":"Κουλούρειο Νοσοκομείο Ύδρας Παναγία η Φανερωμένη - Hospital","name_en":null}},{"type":"Feature","id":9841,"geometry":{"type":"Point","coordinates":[23.70098390000004,38.005359400000032]},"properties":{"OBJECTID":9841,"amenity":"hospital","name":"Ιατρικό Αθηνών Κλινική Περιστερίου","name_en":"General Hospital of Peristeri"}},{"type":"Feature","id":10962,"geometry":{"type":"Point","coordinates":[23.859149000000059,38.120955500000036]},"properties":{"OBJECTID":10962,"amenity":"hospital","name":"Γεώργιος Χρυσοχοϊδης","name_en":null}},{"type":"Feature","id":12753,"geometry":{"type":"Point","coordinates":[23.791482400000064,38.022412600000052]},"properties":{"OBJECTID":12753,"amenity":"hospital","name":"Γένεσις Αθηνών","name_en":null}},{"type":"Feature","id":15369,"geometry":{"type":"Point","coordinates":[23.756269200000077,37.981031400000063]},"properties":{"OBJECTID":15369,"amenity":"hospital","name":"Γεν. Νοσ. \"Αλεξάνδρα\" (Εξωτερικά Ιατρεία)","name_en":null}},{"type":"Feature","id":17105,"geometry":{"type":"Point","coordinates":[23.747974700000043,37.935238000000027]},"properties":{"OBJECTID":17105,"amenity":"hospital","name":null,"name_en":null}},{"type":"Feature","id":17106,"geometry":{"type":"Point","coordinates":[23.752822900000069,37.930915000000027]},"properties":{"OBJECTID":17106,"amenity":"hospital","name":null,"name_en":null}},{"type":"Feature","id":20825,"geometry":{"type":"Point","coordinates":[23.864732100000026,38.115385100000026]},"properties":{"OBJECTID":20825,"amenity":"hospital","name":null,"name_en":null}},{"type":"Feature","id":21808,"geometry":{"type":"Point","coordinates":[23.479082100000028,37.967849700000045]},"properties":{"OBJECTID":21808,"amenity":"hospital","name":"Κέντρο Υγείας Σαλαμίνας","name_en":null}},{"type":"Feature","id":22894,"geometry":{"type":"Point","coordinates":[23.802920900000061,38.094255200000077]},"properties":{"OBJECTID":22894,"amenity":"hospital","name":"Δαβανέλος Κωνσταντίνος","name_en":null}},{"type":"Feature","id":23988,"geometry":{"type":"Point","coordinates":[23.648000400000058,37.934533000000044]},"properties":{"OBJECTID":23988,"amenity":"hospital","name":"Ναυτικό Νοσοκομείο Πειραιά","name_en":null}},{"type":"Feature","id":24131,"geometry":{"type":"Point","coordinates":[23.769913000000031,37.985826400000064]},"properties":{"OBJECTID":24131,"amenity":"hospital","name":"Ογκολογική Μονάδα Παίδων «ΕΛΠΙΔΑ»","name_en":null}},{"type":"Feature","id":24866,"geometry":{"type":"Point","coordinates":[23.693829700000038,38.036560100000031]},"properties":{"OBJECTID":24866,"amenity":"hospital","name":"Skintopia Dermatology Center - Κριτσωτάκη Ελευθερία","name_en":null}},{"type":"Feature","id":26749,"geometry":{"type":"Point","coordinates":[23.745742800000073,37.85188590000007]},"properties":{"OBJECTID":26749,"amenity":"hospital","name":"ΠΙΚΠΑ Βούλας","name_en":null}},{"type":"Feature","id":34107,"geometry":{"type":"Point","coordinates":[23.762873600000034,37.985650700000065]},"properties":{"OBJECTID":34107,"amenity":"hospital","name":null,"name_en":null}}]}