{"type":"FeatureCollection","features":[{"type":"Feature","id":445,"geometry":{"type":"Point","coordinates":[23.738144700000078,38.040382300000033]},"properties":{"OBJECTID":445,"amenity":"police","name":"Α.Τ. Νέας Φιλαδέλφειας","name_en":null}},{"type":"Feature","id":651,"geometry":{"type":"Point","coordinates":[23.755034800000033,37.970930600000031]},"properties":{"OBJECTID":651,"amenity":"police","name":"Διεύθυνση Αστυνομικών Επιχειρήσεων Αττικής","name_en":null}},{"type":"Feature","id":801,"geometry":{"type":"Point","coordinates":[23.75143010000005,37.86317710000003]},"properties":{"OBJECTID":801,"amenity":"police","name":null,"name_en":null}},{"type":"Feature","id":833,"geometry":{"type":"Point","coordinates":[23.750162500000044,38.257432900000026]},"properties":{"OBJECTID":833,"amenity":"police","name":null,"name_en":null}},{"type":"Feature","id":883,"geometry":{"type":"Point","coordinates":[23.748012300000028,38.088298300000076]},"properties":{"OBJECTID":883,"amenity":"police","name":"Α.Τ. Αχαρνών","name_en":null}},{"type":"Feature","id":930,"geometry":{"type":"Point","coordinates":[23.741910000000075,37.888533500000051]},"properties":{"OBJECTID":930,"amenity":"police","name":null,"name_en":null}},{"type":"Feature","id":1019,"geometry":{"type":"Point","coordinates":[24.015596500000072,37.886368200000049]},"properties":{"OBJECTID":1019,"amenity":"police","name":"Λιμεναρχείο Πόρτο Ράφτη","name_en":null}},{"type":"Feature","id":1106,"geometry":{"type":"Point","coordinates":[23.835647900000026,38.057870500000035]},"properties":{"OBJECTID":1106,"amenity":"police","name":"Α.Τ. Μελισσίων","name_en":null}},{"type":"Feature","id":1637,"geometry":{"type":"Point","coordinates":[23.505047700000034,38.075006900000062]},"properties":{"OBJECTID":1637,"amenity":"police","name":null,"name_en":null}},{"type":"Feature","id":1829,"geometry":{"type":"Point","coordinates":[23.856630000000052,38.137132100000031]},"properties":{"OBJECTID":1829,"amenity":"police","name":"Αστυνομικό Τμήμα Αγίου Στεφάνου","name_en":null}},{"type":"Feature","id":1904,"geometry":{"type":"Point","coordinates":[23.756191100000024,37.987951600000031]},"properties":{"OBJECTID":1904,"amenity":"police","name":"Γενική Αστυνομική Διεύθυνση Αττικής","name_en":"General Police Directorate of Attica"}},{"type":"Feature","id":1952,"geometry":{"type":"Point","coordinates":[23.767169000000024,38.108121700000027]},"properties":{"OBJECTID":1952,"amenity":"police","name":"Ασφάλεια Ολυμπιακού Χωριού","name_en":"Olympic Village's Police Department"}},{"type":"Feature","id":1976,"geometry":{"type":"Point","coordinates":[23.695595400000059,37.999587400000053]},"properties":{"OBJECTID":1976,"amenity":"police","name":"Α Τμήμα Τροχαίας Δυτικής Αττικής","name_en":null}},{"type":"Feature","id":2101,"geometry":{"type":"Point","coordinates":[23.687763500000074,37.977248000000031]},"properties":{"OBJECTID":2101,"amenity":"police","name":"Διεύθυνση Αλλοδαπών Αττικής","name_en":"Aliens Division of Attica"}},{"type":"Feature","id":2140,"geometry":{"type":"Point","coordinates":[23.79061020000006,38.029196400000046]},"properties":{"OBJECTID":2140,"amenity":"police","name":"Διεύθυνση Εσωτερικών Υποθέσεων","name_en":null}},{"type":"Feature","id":2504,"geometry":{"type":"Point","coordinates":[23.773734000000047,37.978207000000054]},"properties":{"OBJECTID":2504,"amenity":"police","name":"ΛΑ Αστυνομικό Τμήμα Ζωγράφου","name_en":"Zografou Police Department"}},{"type":"Feature","id":2821,"geometry":{"type":"Point","coordinates":[23.804128200000036,38.020089200000029]},"properties":{"OBJECTID":2821,"amenity":"police","name":"Αστυνομικό Τμήμα Χαλανδρίου","name_en":null}},{"type":"Feature","id":3146,"geometry":{"type":"Point","coordinates":[23.789142600000048,38.031829600000037]},"properties":{"OBJECTID":3146,"amenity":"police","name":"Αστυνομικό Τμήμα Αμαρουσίου","name_en":null}},{"type":"Feature","id":3163,"geometry":{"type":"Point","coordinates":[23.869122800000071,38.054388900000049]},"properties":{"OBJECTID":3163,"amenity":"police","name":"Αστυνομικό Τμήμα Πεντέλης","name_en":null}},{"type":"Feature","id":3216,"geometry":{"type":"Point","coordinates":[23.654986600000029,37.948788600000057]},"properties":{"OBJECTID":3216,"amenity":"police","name":"Τμήμα Τροχαίας Πειραιά","name_en":null}},{"type":"Feature","id":3330,"geometry":{"type":"Point","coordinates":[23.727803300000062,37.985813600000029]},"properties":{"OBJECTID":3330,"amenity":"police","name":"Αστυνομικό Τμήμα Ομονοίας","name_en":null}},{"type":"Feature","id":3421,"geometry":{"type":"Point","coordinates":[23.720364200000063,37.987752200000045]},"properties":{"OBJECTID":3421,"amenity":"police","name":"Διεύθυνση Τροχαίας Αθηνών","name_en":null}},{"type":"Feature","id":3481,"geometry":{"type":"Point","coordinates":[23.643479100000036,37.953682700000059]},"properties":{"OBJECTID":3481,"amenity":"police","name":"Σκοπιά Όρχου","name_en":null}},{"type":"Feature","id":3495,"geometry":{"type":"Point","coordinates":[23.859225900000069,38.008057000000065]},"properties":{"OBJECTID":3495,"amenity":"police","name":null,"name_en":null}},{"type":"Feature","id":3506,"geometry":{"type":"Point","coordinates":[23.680125300000043,37.986084100000028]},"properties":{"OBJECTID":3506,"amenity":"police","name":null,"name_en":null}},{"type":"Feature","id":3656,"geometry":{"type":"Point","coordinates":[23.734335600000065,38.001249200000075]},"properties":{"OBJECTID":3656,"amenity":"police","name":"Αστυνομικό Τμήμα Κυψέλης","name_en":null}},{"type":"Feature","id":3913,"geometry":{"type":"Point","coordinates":[23.754270400000053,38.014259100000061]},"properties":{"OBJECTID":3913,"amenity":"police","name":"ΑΤ Γαλατσίου","name_en":null}},{"type":"Feature","id":4036,"geometry":{"type":"Point","coordinates":[23.739135100000055,38.01710810000003]},"properties":{"OBJECTID":4036,"amenity":"police","name":"Αστυνομικό Τμήμα Πατησίων","name_en":null}},{"type":"Feature","id":4228,"geometry":{"type":"Point","coordinates":[23.741969900000072,37.972160200000076]},"properties":{"OBJECTID":4228,"amenity":"police","name":"Αστυνομικό Τμήμα Συντάγματος","name_en":null}},{"type":"Feature","id":4362,"geometry":{"type":"Point","coordinates":[24.057030600000076,37.715328700000043]},"properties":{"OBJECTID":4362,"amenity":"police","name":"Αστυνομία Λαυρίου","name_en":null}},{"type":"Feature","id":4855,"geometry":{"type":"Point","coordinates":[23.717574600000034,38.000257800000043]},"properties":{"OBJECTID":4855,"amenity":"police","name":"Αστυνομικό Τμήμα Κολωνού","name_en":"Police Department at Kolonos"}},{"type":"Feature","id":4917,"geometry":{"type":"Point","coordinates":[23.700302900000054,37.920785400000057]},"properties":{"OBJECTID":4917,"amenity":"police","name":"Αστυνομικό Τμήμα Παλαιού Φαλήρου","name_en":null}},{"type":"Feature","id":4936,"geometry":{"type":"Point","coordinates":[23.749539600000048,38.056951600000048]},"properties":{"OBJECTID":4936,"amenity":"police","name":"3o Τμήμα Τροχαίας ΒορειοΑνατολικής Αττικής","name_en":null}},{"type":"Feature","id":5006,"geometry":{"type":"Point","coordinates":[23.633165700000063,37.950542800000051]},"properties":{"OBJECTID":5006,"amenity":"police","name":"Αστυνομικό Τμήμα Κερατσινίου-Δραπετσώνας","name_en":null}},{"type":"Feature","id":5314,"geometry":{"type":"Point","coordinates":[23.813172500000064,38.074702700000046]},"properties":{"OBJECTID":5314,"amenity":"police","name":"Αστυνομικό Τμήμα Κηφησιάς","name_en":null}},{"type":"Feature","id":5406,"geometry":{"type":"Point","coordinates":[23.828273100000047,38.036258800000041]},"properties":{"OBJECTID":5406,"amenity":"police","name":"Αστυνομικό Τμήμα Βριλησσίων","name_en":"Vrilissia Police Station"}},{"type":"Feature","id":5433,"geometry":{"type":"Point","coordinates":[23.490753600000062,37.96636680000006]},"properties":{"OBJECTID":5433,"amenity":"police","name":"Αστυνομικό Τμήμα Σαλαμίνας","name_en":null}},{"type":"Feature","id":5445,"geometry":{"type":"Point","coordinates":[23.753355300000067,38.03224460000007]},"properties":{"OBJECTID":5445,"amenity":"police","name":"Αστ/κό Τμήμα Ν.Ιωνίας - Τμήμα Ασφαλείας Ν. Ιωνίας","name_en":null}},{"type":"Feature","id":5852,"geometry":{"type":"Point","coordinates":[23.796408100000065,38.157507800000076]},"properties":{"OBJECTID":5852,"amenity":"police","name":"Αστυνομικός Σταθμός φρουράς Τατοϊου","name_en":null}},{"type":"Feature","id":6151,"geometry":{"type":"Point","coordinates":[23.821484500000054,38.016515600000048]},"properties":{"OBJECTID":6151,"amenity":"police","name":"Αστυνομικό Τμήμα Αγίας Παρασκευής","name_en":null}},{"type":"Feature","id":6157,"geometry":{"type":"Point","coordinates":[23.759908400000029,37.958175600000061]},"properties":{"OBJECTID":6157,"amenity":"police","name":"Αστυνομικό Τμήμα Βύρωνα","name_en":null}},{"type":"Feature","id":6162,"geometry":{"type":"Point","coordinates":[23.746393100000034,38.039672600000074]},"properties":{"OBJECTID":6162,"amenity":"police","name":null,"name_en":null}},{"type":"Feature","id":6458,"geometry":{"type":"Point","coordinates":[23.705575600000031,37.946342800000025]},"properties":{"OBJECTID":6458,"amenity":"police","name":"Αστυνομικό Τμήμα Νέας Σμύρνης","name_en":null}},{"type":"Feature","id":6483,"geometry":{"type":"Point","coordinates":[23.975138000000072,38.087586300000055]},"properties":{"OBJECTID":6483,"amenity":"police","name":"ΑΤ Νέας Μάκρης","name_en":null}},{"type":"Feature","id":6927,"geometry":{"type":"Point","coordinates":[23.774508000000026,38.323836500000027]},"properties":{"OBJECTID":6927,"amenity":"police","name":"Αστυνομικό Τμήμα Ωρωπού","name_en":null}},{"type":"Feature","id":7014,"geometry":{"type":"Point","coordinates":[23.466815800000063,37.352077500000064]},"properties":{"OBJECTID":7014,"amenity":"police","name":null,"name_en":null}},{"type":"Feature","id":7030,"geometry":{"type":"Point","coordinates":[23.796486600000037,38.092447100000072]},"properties":{"OBJECTID":7030,"amenity":"police","name":null,"name_en":null}},{"type":"Feature","id":7443,"geometry":{"type":"Point","coordinates":[23.748106800000073,37.970772500000066]},"properties":{"OBJECTID":7443,"amenity":"police","name":null,"name_en":null}},{"type":"Feature","id":7627,"geometry":{"type":"Point","coordinates":[23.618705700000078,37.968490900000063]},"properties":{"OBJECTID":7627,"amenity":"police","name":"Τ. Α. Κερατσινίου","name_en":null}},{"type":"Feature","id":7698,"geometry":{"type":"Point","coordinates":[23.930659900000023,37.919778800000074]},"properties":{"OBJECTID":7698,"amenity":"police","name":null,"name_en":null}},{"type":"Feature","id":7699,"geometry":{"type":"Point","coordinates":[23.930935800000043,37.919495400000073]},"properties":{"OBJECTID":7699,"amenity":"police","name":null,"name_en":null}},{"type":"Feature","id":7965,"geometry":{"type":"Point","coordinates":[23.734783300000061,37.947525700000028]},"properties":{"OBJECTID":7965,"amenity":"police","name":"Αστυνομικό Τμήμα Δάφνης - Υμηττού","name_en":null}},{"type":"Feature","id":8072,"geometry":{"type":"Point","coordinates":[23.725349200000039,37.99615760000006]},"properties":{"OBJECTID":8072,"amenity":"police","name":"Αστυνομικό Τμήμα Αγίου Παντελεήμονα","name_en":"Police Department at Aghios Panteleimonas"}},{"type":"Feature","id":8086,"geometry":{"type":"Point","coordinates":[23.344032600000048,37.996382600000061]},"properties":{"OBJECTID":8086,"amenity":"police","name":"ΑΣΤΥΝΟΜΙΚΟ ΤΜΗΜΑ ΜΕΓΑΡΩΝ","name_en":null}},{"type":"Feature","id":8109,"geometry":{"type":"Point","coordinates":[24.01114640000003,37.933679500000039]},"properties":{"OBJECTID":8109,"amenity":"police","name":"ΑΤ Αρτέμιδος","name_en":null}},{"type":"Feature","id":8143,"geometry":{"type":"Point","coordinates":[23.739510900000028,37.985253900000032]},"properties":{"OBJECTID":8143,"amenity":"police","name":"Αστυνομικό Τμήμα Εξαρχείων","name_en":null}},{"type":"Feature","id":8319,"geometry":{"type":"Point","coordinates":[23.455122700000061,37.500529000000029]},"properties":{"OBJECTID":8319,"amenity":"police","name":null,"name_en":null}},{"type":"Feature","id":8356,"geometry":{"type":"Point","coordinates":[23.710673000000043,38.02435150000008]},"properties":{"OBJECTID":8356,"amenity":"police","name":"ΑΤ Ιλίου","name_en":null}},{"type":"Feature","id":8390,"geometry":{"type":"Point","coordinates":[23.909700400000077,37.746989100000064]},"properties":{"OBJECTID":8390,"amenity":"police","name":"Αστυνομικό Τμήμα Σαρωνίδας","name_en":"Saronida Police Department"}},{"type":"Feature","id":8606,"geometry":{"type":"Point","coordinates":[23.768914500000051,38.053394100000048]},"properties":{"OBJECTID":8606,"amenity":"police","name":"Αστυνομικό Τμήμα Ηρακλείου","name_en":null}},{"type":"Feature","id":8911,"geometry":{"type":"Point","coordinates":[23.763535400000023,37.986892900000043]},"properties":{"OBJECTID":8911,"amenity":"police","name":"Αστυνομικό Τμήμα Αμπελοκήπων","name_en":"Ampelokipi Police Station"}},{"type":"Feature","id":8956,"geometry":{"type":"Point","coordinates":[23.749433700000054,38.056837600000051]},"properties":{"OBJECTID":8956,"amenity":"police","name":"Τμήμα Τροχαίας Νέας Ιωνίας","name_en":null}},{"type":"Feature","id":9084,"geometry":{"type":"Point","coordinates":[23.595864900000038,38.065637400000071]},"properties":{"OBJECTID":9084,"amenity":"police","name":"Αστυνομικό Τμήμα Ασπροπύργου","name_en":null}},{"type":"Feature","id":9096,"geometry":{"type":"Point","coordinates":[23.540691500000037,38.047117100000037]},"properties":{"OBJECTID":9096,"amenity":"police","name":"Αστυνομια Ελευσινας","name_en":null}},{"type":"Feature","id":9205,"geometry":{"type":"Point","coordinates":[23.865017800000032,38.283393500000045]},"properties":{"OBJECTID":9205,"amenity":"police","name":"Αστυνομικό Τμήμα Καλάμου","name_en":null}},{"type":"Feature","id":9454,"geometry":{"type":"Point","coordinates":[23.702669200000059,38.24857060000005]},"properties":{"OBJECTID":9454,"amenity":"police","name":"Αστυνομικό Τμήμα Αυλώνα","name_en":null}},{"type":"Feature","id":9470,"geometry":{"type":"Point","coordinates":[23.647779200000059,37.943592400000057]},"properties":{"OBJECTID":9470,"amenity":"police","name":"Αστυνομικό Τμήμα Δημοτικού Θεάτρου","name_en":null}},{"type":"Feature","id":9608,"geometry":{"type":"Point","coordinates":[23.876519700000074,38.217488100000025]},"properties":{"OBJECTID":9608,"amenity":"police","name":"Τμήμα Καπανδριτίου","name_en":null}},{"type":"Feature","id":9933,"geometry":{"type":"Point","coordinates":[23.154956100000049,37.26805070000006]},"properties":{"OBJECTID":9933,"amenity":"police","name":"Αστυνομικό Τμήμα Σπετσών","name_en":null}},{"type":"Feature","id":10029,"geometry":{"type":"Point","coordinates":[23.467609100000061,37.349890600000037]},"properties":{"OBJECTID":10029,"amenity":"police","name":"Αστυνομικό Τμήμα","name_en":"Police Station"}},{"type":"Feature","id":10030,"geometry":{"type":"Point","coordinates":[23.466838600000074,37.352031600000032]},"properties":{"OBJECTID":10030,"amenity":"police","name":"Λιμεναρχείο - Port Police Station","name_en":null}},{"type":"Feature","id":10939,"geometry":{"type":"Point","coordinates":[23.704784200000063,37.960841100000039]},"properties":{"OBJECTID":10939,"amenity":"police","name":"Αστυνομικό Τμήμα Καλλιθέας","name_en":null}},{"type":"Feature","id":11562,"geometry":{"type":"Point","coordinates":[23.967388100000051,37.811866800000075]},"properties":{"OBJECTID":11562,"amenity":"police","name":"Τροχαία Κερατέας","name_en":null}},{"type":"Feature","id":12036,"geometry":{"type":"Point","coordinates":[23.640649400000029,37.970079500000054]},"properties":{"OBJECTID":12036,"amenity":"police","name":"Αστυνομικό Τμήμα Νίκαιας","name_en":null}},{"type":"Feature","id":12044,"geometry":{"type":"Point","coordinates":[23.75505140000007,37.968069100000037]},"properties":{"OBJECTID":12044,"amenity":"police","name":"Αστυνομικό Τμήμα Καισαριανής","name_en":"Kaisariani Police Department"}},{"type":"Feature","id":13259,"geometry":{"type":"Point","coordinates":[24.010633400000074,37.884438500000044]},"properties":{"OBJECTID":13259,"amenity":"police","name":"Αστυνομικό τμήμα Πόρτο Ράφτη","name_en":null}},{"type":"Feature","id":13316,"geometry":{"type":"Point","coordinates":[23.768960600000071,38.00734280000006]},"properties":{"OBJECTID":13316,"amenity":"police","name":"Αστυνομικό Τμήμα Ψυχικού","name_en":null}},{"type":"Feature","id":15506,"geometry":{"type":"Point","coordinates":[23.876746100000048,37.909852700000044]},"properties":{"OBJECTID":15506,"amenity":"police","name":"Αστυνομικό Τμήμα Κορωπίου","name_en":null}},{"type":"Feature","id":15918,"geometry":{"type":"Point","coordinates":[23.755239200000062,37.915034000000048]},"properties":{"OBJECTID":15918,"amenity":"police","name":"Αστυνομικό Τμήμα Αργυρούπολης","name_en":null}},{"type":"Feature","id":16180,"geometry":{"type":"Point","coordinates":[23.667001500000026,38.012586800000065]},"properties":{"OBJECTID":16180,"amenity":"police","name":"Αστυνομικό Τμήμα Χαϊδαρίου","name_en":null}},{"type":"Feature","id":16537,"geometry":{"type":"Point","coordinates":[23.796230200000025,37.998217700000055]},"properties":{"OBJECTID":16537,"amenity":"police","name":"ΑΤ Χολαργού","name_en":"Cholargos police station"}},{"type":"Feature","id":16979,"geometry":{"type":"Point","coordinates":[23.698919000000046,37.993611600000065]},"properties":{"OBJECTID":16979,"amenity":"police","name":"Εγκληματολογικό ΕΛΑΣ","name_en":null}},{"type":"Feature","id":17069,"geometry":{"type":"Point","coordinates":[23.887812500000052,37.957664400000056]},"properties":{"OBJECTID":17069,"amenity":"police","name":"Τροχαία Αττικής Οδού","name_en":null}},{"type":"Feature","id":17291,"geometry":{"type":"Point","coordinates":[23.74341910000004,37.939364500000067]},"properties":{"OBJECTID":17291,"amenity":"police","name":"Αστυνομικό Τμήμα Ηλιούπολης","name_en":"Ilioupoli Police Station"}},{"type":"Feature","id":17301,"geometry":{"type":"Point","coordinates":[23.698067900000069,38.082495700000038]},"properties":{"OBJECTID":17301,"amenity":"police","name":"ΑΝΩ ΛΙΟΣΙΩΝ","name_en":null}},{"type":"Feature","id":17803,"geometry":{"type":"Point","coordinates":[23.686820800000078,37.960502100000042]},"properties":{"OBJECTID":17803,"amenity":"police","name":"Αστυνομικό Τμήμα Μοσχάτου-Ταύρου","name_en":null}},{"type":"Feature","id":17832,"geometry":{"type":"Point","coordinates":[23.850673500000028,37.984384100000057]},"properties":{"OBJECTID":17832,"amenity":"police","name":"Τμήμα Τροχαίας Αγίας Παρασκευής","name_en":null}},{"type":"Feature","id":18394,"geometry":{"type":"Point","coordinates":[23.983827800000029,37.806536400000027]},"properties":{"OBJECTID":18394,"amenity":"police","name":"Αστυνομικό τμήμα Κερατέας","name_en":null}},{"type":"Feature","id":18787,"geometry":{"type":"Point","coordinates":[23.730958600000065,37.979931600000043]},"properties":{"OBJECTID":18787,"amenity":"police","name":"Τουριστική Αστυνομία Αθήνας","name_en":"Tourist Police of Athens"}},{"type":"Feature","id":19248,"geometry":{"type":"Point","coordinates":[23.719145800000035,38.028900100000044]},"properties":{"OBJECTID":19248,"amenity":"police","name":"Αστυνομικό Τμήμα Αγίων Αναργύρων","name_en":null}},{"type":"Feature","id":19661,"geometry":{"type":"Point","coordinates":[23.57049660000007,37.963727200000051]},"properties":{"OBJECTID":19661,"amenity":"police","name":"Αστυνομικό Τμήμα Περάματος","name_en":null}},{"type":"Feature","id":22205,"geometry":{"type":"Point","coordinates":[23.751843400000041,38.041980600000045]},"properties":{"OBJECTID":22205,"amenity":"police","name":"Α.Τ. Νέας Ιωνίας","name_en":null}},{"type":"Feature","id":23165,"geometry":{"type":"Point","coordinates":[23.728790200000049,37.91815100000008]},"properties":{"OBJECTID":23165,"amenity":"police","name":"Αστυνομικό Τμήμα Αλίμου","name_en":"Alimos Police Station"}},{"type":"Feature","id":27144,"geometry":{"type":"Point","coordinates":[23.340759900000023,37.987749600000029]},"properties":{"OBJECTID":27144,"amenity":"police","name":null,"name_en":null}},{"type":"Feature","id":27374,"geometry":{"type":"Point","coordinates":[22.989540100000056,36.147676000000047]},"properties":{"OBJECTID":27374,"amenity":"police","name":null,"name_en":null}},{"type":"Feature","id":28459,"geometry":{"type":"Point","coordinates":[23.647331300000076,37.978379800000027]},"properties":{"OBJECTID":28459,"amenity":"police","name":"Αστυνομικό Τμήμα Κορυδαλλού","name_en":null}},{"type":"Feature","id":29143,"geometry":{"type":"Point","coordinates":[23.722397200000046,37.96075090000005]},"properties":{"OBJECTID":29143,"amenity":"police","name":"ΑΤ Ακροπόλεως","name_en":null}},{"type":"Feature","id":30214,"geometry":{"type":"Point","coordinates":[23.728971000000058,37.924799000000064]},"properties":{"OBJECTID":30214,"amenity":"police","name":"Αστυνομικό Τμήμα Αγίου Δημητρίου","name_en":"Agios Dimitrios Police Station"}},{"type":"Feature","id":31198,"geometry":{"type":"Point","coordinates":[23.684366300000079,38.02581900000007]},"properties":{"OBJECTID":31198,"amenity":"police","name":"Β' Αστυνομικό Τμήμα Περιστερίου - Τμήμα Αλλοδαπών Δυτικής Αττικής","name_en":null}}]}