{"type":"FeatureCollection","features":[{"type":"Feature","id":1,"geometry":{"type":"Point","coordinates":[23.784606000000053,37.978890600000057]},"properties":{"OBJECTID":1,"amenity":"university","name":"Σχολή Μηχανολόγων Μηχανικών","name_en":"Mechanical Engineering Faculty"}},{"type":"Feature","id":8,"geometry":{"type":"Point","coordinates":[23.705281900000045,37.983992700000044]},"properties":{"OBJECTID":8,"amenity":"university","name":"Γεωπονικό Πανεπιστήμιο Αθηνών","name_en":"Agricultural University of Athens"}},{"type":"Feature","id":31,"geometry":{"type":"Point","coordinates":[23.774133200000051,37.970038700000032]},"properties":{"OBJECTID":31,"amenity":"university","name":"Εθνικό και Καποδιστριακό Πανεπιστήμιο Αθηνών","name_en":"National and Kapodistrian University of Athens"}},{"type":"Feature","id":32,"geometry":{"type":"Point","coordinates":[23.652859000000035,37.941632900000059]},"properties":{"OBJECTID":32,"amenity":"university","name":"Πανεπιστήμιο Πειραιώς","name_en":"University of Piraeus"}},{"type":"Feature","id":33,"geometry":{"type":"Point","coordinates":[23.782093600000053,37.977972400000056]},"properties":{"OBJECTID":33,"amenity":"university","name":"Εθνικό Μετσόβιο Πολυτεχνείο - Πολυτεχνειούπολη","name_en":"National Technical University of Athens - Campus"}},{"type":"Feature","id":37,"geometry":{"type":"Point","coordinates":[23.708205600000042,37.961237800000049]},"properties":{"OBJECTID":37,"amenity":"university","name":"Χαροκόπειο Πανεπιστήμιο","name_en":"Harokopio University"}},{"type":"Feature","id":78,"geometry":{"type":"Point","coordinates":[23.734108200000037,37.980096200000048]},"properties":{"OBJECTID":78,"amenity":"university","name":"Ακαδημία Αθηνών","name_en":"Academy of Athens"}},{"type":"Feature","id":100,"geometry":{"type":"Point","coordinates":[23.719003100000066,37.959736700000065]},"properties":{"OBJECTID":100,"amenity":"university","name":"Πάντειο Πανεπιστήμιο","name_en":null}},{"type":"Feature","id":105,"geometry":{"type":"Point","coordinates":[23.730990500000075,37.988257400000066]},"properties":{"OBJECTID":105,"amenity":"university","name":"Ανωτάτη Σχολή Καλών Τεχνών Αθήνας","name_en":"Athens School of Fine Arts"}},{"type":"Feature","id":106,"geometry":{"type":"Point","coordinates":[23.730809300000033,37.987673200000074]},"properties":{"OBJECTID":106,"amenity":"university","name":"Πρυτανεία αρχιτεκτονικής","name_en":null}},{"type":"Feature","id":107,"geometry":{"type":"Point","coordinates":[23.732293300000038,37.987453600000038]},"properties":{"OBJECTID":107,"amenity":"university","name":"Κτήριο Γκίνη","name_en":null}},{"type":"Feature","id":108,"geometry":{"type":"Point","coordinates":[23.731818900000064,37.987823500000047]},"properties":{"OBJECTID":108,"amenity":"university","name":"Εθνικό Μετσόβιο Πολυτεχνείο","name_en":"National Technical University of Athens"}},{"type":"Feature","id":210,"geometry":{"type":"Point","coordinates":[23.784921800000063,37.978863300000057]},"properties":{"OBJECTID":210,"amenity":"university","name":"Εργαστήριο Αυτομάτου Ελέγχου","name_en":"Control Systems Lab"}},{"type":"Feature","id":212,"geometry":{"type":"Point","coordinates":[23.782784800000059,37.97697450000004]},"properties":{"OBJECTID":212,"amenity":"university","name":"Κτήριο Φυσικής (ΣΕΜΦΕ)","name_en":"Physics building"}},{"type":"Feature","id":217,"geometry":{"type":"Point","coordinates":[23.784783400000038,37.979890800000078]},"properties":{"OBJECTID":217,"amenity":"university","name":"Εργαστήριο Ατμοκινητήρων & Λεβήτων","name_en":"Laboratory of Steam Boilers & Thermal Plants"}},{"type":"Feature","id":330,"geometry":{"type":"Point","coordinates":[23.784875000000056,37.978546400000027]},"properties":{"OBJECTID":330,"amenity":"university","name":"Σχολή Ναυπηγών Μηχανολόγων Μηχανικών","name_en":"Naval Architecture and Marine Engineering Faculty"}},{"type":"Feature","id":375,"geometry":{"type":"Point","coordinates":[23.780105200000037,37.975223300000039]},"properties":{"OBJECTID":375,"amenity":"university","name":"Σχολή Αγρονόμων & Τοπογράφων Μηχανικών - Μηχανικών Γεωπληροφορικής","name_en":"School of Rural, Surveying and Geoinformatics Engineering"}},{"type":"Feature","id":526,"geometry":{"type":"Point","coordinates":[23.783350300000052,37.978309400000057]},"properties":{"OBJECTID":526,"amenity":"university","name":"Κέντρο Υπολογιστών","name_en":"Computer Center"}},{"type":"Feature","id":527,"geometry":{"type":"Point","coordinates":[23.783134400000051,37.979115200000024]},"properties":{"OBJECTID":527,"amenity":"university","name":"Νέα κτήρια Σχολής Ηλεκτρολόγων Μηχανικών & Μηχανικών Υπολογιστών","name_en":"Electrical and Computier Engineering Faculty"}},{"type":"Feature","id":766,"geometry":{"type":"Point","coordinates":[23.672393400000033,37.978417300000046]},"properties":{"OBJECTID":766,"amenity":"university","name":"Πανεπιστήμιο Δυτικής Αττικής - Πανεπιστημιούπολη 2","name_en":"University of West Attica - Campus 2"}},{"type":"Feature","id":804,"geometry":{"type":"Point","coordinates":[23.766513800000041,37.984551400000043]},"properties":{"OBJECTID":804,"amenity":"university","name":"Ιατρική Σχολή","name_en":null}},{"type":"Feature","id":979,"geometry":{"type":"Point","coordinates":[23.689241100000061,37.96250340000006]},"properties":{"OBJECTID":979,"amenity":"university","name":"Ανωτάτη Σχολή Καλών Τεχνών","name_en":"Athens School of Fine Arts"}},{"type":"Feature","id":1004,"geometry":{"type":"Point","coordinates":[23.73426500000005,37.978356700000063]},"properties":{"OBJECTID":1004,"amenity":"university","name":"Aegean College","name_en":null}},{"type":"Feature","id":1292,"geometry":{"type":"Point","coordinates":[23.678686600000049,37.975629200000071]},"properties":{"OBJECTID":1292,"amenity":"university","name":null,"name_en":null}},{"type":"Feature","id":2131,"geometry":{"type":"Point","coordinates":[23.732461800000067,37.99418060000005]},"properties":{"OBJECTID":2131,"amenity":"university","name":"Οικονομικό Πανεπιστήμιο Αθηνών","name_en":"Athens University of Economics and Business"}},{"type":"Feature","id":2363,"geometry":{"type":"Point","coordinates":[23.739855100000057,37.951171800000054]},"properties":{"OBJECTID":2363,"amenity":"university","name":"Γυμναστική Ακαδημία","name_en":null}},{"type":"Feature","id":2417,"geometry":{"type":"Point","coordinates":[23.675719400000048,38.00287220000007]},"properties":{"OBJECTID":2417,"amenity":"university","name":"Πανεπιστήμιο Δυτικής Αττικής - Πανεπιστημιούπολη 1","name_en":"University of West Attica - Campus 1"}},{"type":"Feature","id":3328,"geometry":{"type":"Point","coordinates":[23.701151000000038,37.962327000000073]},"properties":{"OBJECTID":3328,"amenity":"university","name":"Χαροκόπειο Πανεπιστήμιο - Τμήμα Πληροφορικής και Τηλεματικής","name_en":"Harokopio University - Department of Informatics and Telematics"}},{"type":"Feature","id":3787,"geometry":{"type":"Point","coordinates":[23.766820400000029,37.982814000000076]},"properties":{"OBJECTID":3787,"amenity":"university","name":"Τμήμα Νοσηλευτικής Πανεπιστημίου Αθηνών","name_en":null}},{"type":"Feature","id":3817,"geometry":{"type":"Point","coordinates":[23.736200900000028,37.995991300000071]},"properties":{"OBJECTID":3817,"amenity":"university","name":"Οικονομικό Πανεπιστήμιο Αθηνών","name_en":null}},{"type":"Feature","id":5018,"geometry":{"type":"Point","coordinates":[23.732943000000034,37.987618200000043]},"properties":{"OBJECTID":5018,"amenity":"university","name":"Κτήριο Μπουμπουλίνας","name_en":null}},{"type":"Feature","id":5019,"geometry":{"type":"Point","coordinates":[23.732661800000074,37.988009400000067]},"properties":{"OBJECTID":5019,"amenity":"university","name":"Κτήριο Τοσίτσα","name_en":null}},{"type":"Feature","id":5439,"geometry":{"type":"Point","coordinates":[23.759220000000028,37.986549000000025]},"properties":{"OBJECTID":5439,"amenity":"university","name":"Σχολή Δημόσιας Υγείας","name_en":null}},{"type":"Feature","id":6098,"geometry":{"type":"Point","coordinates":[23.73402770000007,37.980891400000075]},"properties":{"OBJECTID":6098,"amenity":"university","name":"Εθνικόν και Καποδιστριακόν Πανεπιστήμιον Αθηνών","name_en":null}},{"type":"Feature","id":8777,"geometry":{"type":"Point","coordinates":[23.735952900000029,37.980889500000046]},"properties":{"OBJECTID":8777,"amenity":"university","name":"Νομική Σχολή & Σχολή Οικονομικών και Πολιτικών Επιστημών","name_en":"Law School & School of Economics and Political Sciences"}},{"type":"Feature","id":19463,"geometry":{"type":"Point","coordinates":[23.649873300000024,37.941688100000079]},"properties":{"OBJECTID":19463,"amenity":"university","name":"Univercity of Piraeus","name_en":null}},{"type":"Feature","id":20455,"geometry":{"type":"Point","coordinates":[23.783368600000074,37.976730500000031]},"properties":{"OBJECTID":20455,"amenity":"university","name":"PC Lab - Eργαστήριo Προσωπικών Υπολογιστών","name_en":null}},{"type":"Feature","id":20456,"geometry":{"type":"Point","coordinates":[23.783148600000061,37.976371100000051]},"properties":{"OBJECTID":20456,"amenity":"university","name":"Τομέας Μαθηματικών (ΣΕΜΦΕ)","name_en":null}},{"type":"Feature","id":20457,"geometry":{"type":"Point","coordinates":[23.783323000000053,37.976373200000069]},"properties":{"OBJECTID":20457,"amenity":"university","name":"Τομέας Α.Κ.Ε.Δ. (ΣΕΜΦΕ)","name_en":null}},{"type":"Feature","id":20458,"geometry":{"type":"Point","coordinates":[23.783639500000049,37.976524700000027]},"properties":{"OBJECTID":20458,"amenity":"university","name":"Αμφιθέατρο 2","name_en":null}},{"type":"Feature","id":20459,"geometry":{"type":"Point","coordinates":[23.783819700000038,37.976380200000051]},"properties":{"OBJECTID":20459,"amenity":"university","name":"Αμφιθέατρο 1","name_en":null}},{"type":"Feature","id":20539,"geometry":{"type":"Point","coordinates":[23.765989200000035,37.984972300000038]},"properties":{"OBJECTID":20539,"amenity":"university","name":"Αμφιθέατρο Μικροβιολογίας","name_en":null}},{"type":"Feature","id":20540,"geometry":{"type":"Point","coordinates":[23.766708000000051,37.984515600000066]},"properties":{"OBJECTID":20540,"amenity":"university","name":"Αίθουσα ανατομών","name_en":null}},{"type":"Feature","id":20541,"geometry":{"type":"Point","coordinates":[23.765981200000056,37.984686900000042]},"properties":{"OBJECTID":20541,"amenity":"university","name":"Παθολογική Ανατομική / Μικροβιολογία","name_en":null}},{"type":"Feature","id":20542,"geometry":{"type":"Point","coordinates":[23.766909200000043,37.984471300000052]},"properties":{"OBJECTID":20542,"amenity":"university","name":"Ιατροδικαστική / Τοξικολογία","name_en":null}},{"type":"Feature","id":20543,"geometry":{"type":"Point","coordinates":[23.767021900000032,37.984240800000066]},"properties":{"OBJECTID":20543,"amenity":"university","name":"Αμφιθέατρο Ανατομικής","name_en":null}},{"type":"Feature","id":22392,"geometry":{"type":"Point","coordinates":[23.733944500000064,37.976949900000079]},"properties":{"OBJECTID":22392,"amenity":"university","name":"Διδασκαλείο Ξένων Γλωσσών ΕΚΠΑ (2ο κτήριο)","name_en":null}},{"type":"Feature","id":23544,"geometry":{"type":"Point","coordinates":[23.72999180000005,37.980451400000049]},"properties":{"OBJECTID":23544,"amenity":"university","name":"Σχολή Οικονομικών & Πολιτικών Επιστημών - ΕΚΠΑ","name_en":"School of Economics and Political Sciences - UoA"}},{"type":"Feature","id":26080,"geometry":{"type":"Point","coordinates":[23.730700100000035,37.984045600000059]},"properties":{"OBJECTID":26080,"amenity":"university","name":"Τμήμα Πολιτικής Επιστήμης και Δημόσιας Διοίκησης","name_en":null}},{"type":"Feature","id":26700,"geometry":{"type":"Point","coordinates":[23.732573000000059,37.995479400000079]},"properties":{"OBJECTID":26700,"amenity":"university","name":"Mediterranean college","name_en":null}},{"type":"Feature","id":29555,"geometry":{"type":"Point","coordinates":[23.642359400000032,37.939076600000078]},"properties":{"OBJECTID":29555,"amenity":"university","name":"Mediterranian maritime academy","name_en":null}},{"type":"Feature","id":32238,"geometry":{"type":"Point","coordinates":[23.71569960000005,37.982304400000032]},"properties":{"OBJECTID":32238,"amenity":"university","name":"Σχολή Ξεναγών","name_en":null}},{"type":"Feature","id":33766,"geometry":{"type":"Point","coordinates":[23.735174700000073,37.983709700000077]},"properties":{"OBJECTID":33766,"amenity":"university","name":"Τμήμα Εκπαίδευσης και Αγωγής στην Προσχολική Ηλικία","name_en":"Department of Early Childhood Education"}},{"type":"Feature","id":33767,"geometry":{"type":"Point","coordinates":[23.735335600000042,37.983503600000063]},"properties":{"OBJECTID":33767,"amenity":"university","name":"Παιδαγωγικό Τμήμα Δημοτικής Εκπαίδευσης","name_en":"Department of Pedagogy and Primary Education"}}]}