{"type":"FeatureCollection","features":[{"type":"Feature","id":1,"geometry":{"type":"Point","coordinates":[23.792385061000061,38.058635141000025]},"properties":{"OBJECTID":1,"GNAME":"ΠΕΥΚΗ","ENAME":"PEFKI","STOP":4,"PHASE":"E"}},{"type":"Feature","id":2,"geometry":{"type":"Point","coordinates":[23.782446376000053,38.068818170000043]},"properties":{"OBJECTID":2,"GNAME":"ΛΥΚΟΒΡΥΣΗ","ENAME":"LYKOVRYSI","STOP":4,"PHASE":"E"}},{"type":"Feature","id":3,"geometry":{"type":"Point","coordinates":[23.780947424000033,38.079013506000024]},"properties":{"OBJECTID":3,"GNAME":"ΕΘΝΙΚΗ ΟΔΟΣ","ENAME":"ETHNIKI ODOS","STOP":4,"PHASE":"E"}},{"type":"Feature","id":4,"geometry":{"type":"Point","coordinates":[23.757673847000035,38.032050997000056]},"properties":{"OBJECTID":4,"GNAME":"ΝΕΑ ΙΩΝΙΑ","ENAME":"NEA IONIA","STOP":4,"PHASE":"D"}},{"type":"Feature","id":5,"geometry":{"type":"Point","coordinates":[23.744421739000074,38.032773902000031]},"properties":{"OBJECTID":5,"GNAME":"ΠΕΡΙΣΣΟΣ","ENAME":"PERISSOS","STOP":4,"PHASE":"D"}},{"type":"Feature","id":6,"geometry":{"type":"Point","coordinates":[23.749156884000058,37.968722210000067]},"properties":{"OBJECTID":6,"GNAME":"ΠΑΓΚΡΑΤΙ","ENAME":"PAGRATI","STOP":4,"PHASE":"C"}},{"type":"Feature","id":7,"geometry":{"type":"Point","coordinates":[23.752724215000057,37.959674087000053]},"properties":{"OBJECTID":7,"GNAME":"ΒΥΡΩΝΑΣ","ENAME":"VYRONAS","STOP":4,"PHASE":"C"}},{"type":"Feature","id":8,"geometry":{"type":"Point","coordinates":[23.755004565000036,37.94630044400003]},"properties":{"OBJECTID":8,"GNAME":"ΑΝΩ ΗΛΙΟΥΠΟΛΗ","ENAME":"ANO ILIOUPOLI","STOP":4,"PHASE":"C"}},{"type":"Feature","id":9,"geometry":{"type":"Point","coordinates":[23.785990725000033,38.017237467000029]},"properties":{"OBJECTID":9,"GNAME":"ΦΙΛΟΘΕΗ","ENAME":"FILOTHEI","STOP":4,"PHASE":"B"}},{"type":"Feature","id":10,"geometry":{"type":"Point","coordinates":[23.775862299000039,38.004789928000037]},"properties":{"OBJECTID":10,"GNAME":"ΦΑΡΟΣ","ENAME":"FAROS","STOP":4,"PHASE":"B"}},{"type":"Feature","id":11,"geometry":{"type":"Point","coordinates":[23.790034312000046,38.028402635000077]},"properties":{"OBJECTID":11,"GNAME":"ΣΙΔΕΡΑ","ENAME":"SIDERA","STOP":4,"PHASE":"B"}},{"type":"Feature","id":12,"geometry":{"type":"Point","coordinates":[23.794969474000027,38.034814968000035]},"properties":{"OBJECTID":12,"GNAME":"ΟΛΥΜΠΙΑΚΟ ΣΤΑΔΙ","ENAME":"OLYMPIAKO STADIO","STOP":4,"PHASE":"B"}},{"type":"Feature","id":13,"geometry":{"type":"Point","coordinates":[23.803610579000065,38.041161510000052]},"properties":{"OBJECTID":13,"GNAME":"ΠΑΡΑΔΕΙΣΟΣ","ENAME":"PARADISSOS","STOP":4,"PHASE":"B"}},{"type":"Feature","id":14,"geometry":{"type":"Point","coordinates":[23.805539492000037,38.049242357000026]},"properties":{"OBJECTID":14,"GNAME":"ΟΤΕ","ENAME":"OTE","STOP":4,"PHASE":"B"}},{"type":"Feature","id":15,"geometry":{"type":"Point","coordinates":[23.805032996000023,38.056134505000045]},"properties":{"OBJECTID":15,"GNAME":"ΜΑΡΟΥΣΙ","ENAME":"MAROUSSI","STOP":4,"PHASE":"B"}},{"type":"Feature","id":17,"geometry":{"type":"Point","coordinates":[23.768735913000057,37.973186841000029]},"properties":{"OBJECTID":17,"GNAME":"ΙΛΙΣΙΑ","ENAME":"ILISSIA","STOP":4,"PHASE":"A"}},{"type":"Feature","id":18,"geometry":{"type":"Point","coordinates":[23.76483522500007,37.968873404000078]},"properties":{"OBJECTID":18,"GNAME":"ΠΑΝΕΠΙΣΤΗΜΙΟΥΠΟ","ENAME":"PANEPISTIMIOUPOLI","STOP":4,"PHASE":"A"}},{"type":"Feature","id":19,"geometry":{"type":"Point","coordinates":[23.771275153000033,37.977473929000041]},"properties":{"OBJECTID":19,"GNAME":"ΖΩΓΡΑΦΟΥ","ENAME":"ZOGRAFOU","STOP":4,"PHASE":"A"}},{"type":"Feature","id":20,"geometry":{"type":"Point","coordinates":[23.769965660000025,37.982151551000072]},"properties":{"OBJECTID":20,"GNAME":"ΓΟΥΔΗ","ENAME":"GOUDI","STOP":4,"PHASE":"A"}},{"type":"Feature","id":21,"geometry":{"type":"Point","coordinates":[23.754863169000032,37.969166360000031]},"properties":{"OBJECTID":21,"GNAME":"ΚΑΙΣΑΡΙΑΝΗ","ENAME":"KESSARIANI","STOP":4,"PHASE":"A"}},{"type":"Feature","id":22,"geometry":{"type":"Point","coordinates":[23.746537925000041,37.975347799000076]},"properties":{"OBJECTID":22,"GNAME":"ΕΥΑΓΓΕΛΙΣΜΟΣ","ENAME":"EVANGELISMOS","STOP":4,"PHASE":"A"}},{"type":"Feature","id":23,"geometry":{"type":"Point","coordinates":[23.745476862000032,38.008888726000066]},"properties":{"OBJECTID":23,"GNAME":"ΕΛΙΚΩΝΟΣ","ENAME":"ELIKONOS","STOP":4,"PHASE":"A"}},{"type":"Feature","id":24,"geometry":{"type":"Point","coordinates":[23.741685124000071,38.002462622000053]},"properties":{"OBJECTID":24,"GNAME":"ΚΥΨΕΛΗ","ENAME":"KYPSELI","STOP":4,"PHASE":"A"}},{"type":"Feature","id":25,"geometry":{"type":"Point","coordinates":[23.753206612000042,38.012866121000059]},"properties":{"OBJECTID":25,"GNAME":"ΓΑΛΑΤΣΙ","ENAME":"GALATSI","STOP":4,"PHASE":"A"}},{"type":"Feature","id":26,"geometry":{"type":"Point","coordinates":[23.755938933000039,38.01916063300007]},"properties":{"OBJECTID":26,"GNAME":"ΑΛΣΟΣ ΒΕΪΚΟΥ","ENAME":"ALSOS VEIKOU","STOP":4,"PHASE":"A"}},{"type":"Feature","id":27,"geometry":{"type":"Point","coordinates":[23.741049715000031,37.995898219000026]},"properties":{"OBJECTID":27,"GNAME":"ΔΙΚΑΣΤΗΡΙΑ","ENAME":"DIKASTIRIA","STOP":4,"PHASE":"A"}},{"type":"Feature","id":28,"geometry":{"type":"Point","coordinates":[23.740323185000022,37.990351420000025]},"properties":{"OBJECTID":28,"GNAME":"ΑΛΕΞΑΝΔΡΑΣ","ENAME":"ALEXANDRAS","STOP":4,"PHASE":"A"}},{"type":"Feature","id":29,"geometry":{"type":"Point","coordinates":[23.73486616100007,37.98661244200008]},"properties":{"OBJECTID":29,"GNAME":"ΕΞΑΡΧΕΙΑ","ENAME":"EXARHIA","STOP":4,"PHASE":"A"}},{"type":"Feature","id":30,"geometry":{"type":"Point","coordinates":[23.734933287000047,37.980774359000065]},"properties":{"OBJECTID":30,"GNAME":"ΑΚΑΔΗΜΙΑ","ENAME":"AKADEMIA","STOP":4,"PHASE":"A"}},{"type":"Feature","id":31,"geometry":{"type":"Point","coordinates":[23.740934759000027,37.976934162000077]},"properties":{"OBJECTID":31,"GNAME":"ΚΟΛΩΝΑΚΙ","ENAME":"KOLONAKI","STOP":4,"PHASE":"A"}},{"type":"Feature","id":32,"geometry":{"type":"Point","coordinates":[23.776781257000039,37.993703149000055]},"properties":{"OBJECTID":32,"GNAME":"ΚΑΤΕΧΑΚΗ","ENAME":"KATEXAKI","STOP":4,"PHASE":"B"}}]}