{"type":"FeatureCollection","features":[{"type":"Feature","id":0,"geometry":{"type":"Point","coordinates":[23.754197099999999,37.860154899999998]},"properties":{"FID":0,"name_en":"Platia Esperidon","name":"Πλατεία Εσπερίδων","operator":"ΣΤΑΣΥ"}},{"type":"Feature","id":1,"geometry":{"type":"Point","coordinates":[23.738380299999999,37.867734200000001]},"properties":{"FID":1,"name_en":"Paralia Glyfadas","name":"Παραλία Γλυφάδας","operator":"ΣΤΑΣΥ"}},{"type":"Feature","id":2,"geometry":{"type":"Point","coordinates":[23.727085299999999,37.956995499999998]},"properties":{"FID":2,"name_en":" ","name":"Νέος Κόσμος","operator":"ΣΤΑΣΥ"}},{"type":"Feature","id":3,"geometry":{"type":"Point","coordinates":[23.7317897,37.966675500000001]},"properties":{"FID":3,"name_en":"Vouliagmenis","name":"Βουλιαγμένης","operator":"ΣΤΑΣΥ"}},{"type":"Feature","id":4,"geometry":{"type":"Point","coordinates":[23.7317325,37.966719699999999]},"properties":{"FID":4,"name_en":"Vouliagmenis","name":"Βουλιαγμένης","operator":"ΣΤΑΣΥ"}},{"type":"Feature","id":5,"geometry":{"type":"Point","coordinates":[23.723529299999999,37.960432900000001]},"properties":{"FID":5,"name_en":"Kasomouli","name":"Κασομούλη","operator":"ΣΤΑΣΥ"}},{"type":"Feature","id":6,"geometry":{"type":"Point","coordinates":[23.6503944,37.9413445]},"properties":{"FID":6,"name_en":"Plateia Deligianni","name":"Πλατεία Δεληγιάννη","operator":"ΣΤΑΣΥ"}},{"type":"Feature","id":7,"geometry":{"type":"Point","coordinates":[23.653245600000002,37.944618699999999]},"properties":{"FID":7,"name_en":"Evangelistria","name":"Ευαγγελίστρια","operator":"ΣΤΑΣΥ"}},{"type":"Feature","id":8,"geometry":{"type":"Point","coordinates":[23.6475793,37.947468800000003]},"properties":{"FID":8,"name_en":"Plateia Ippodameias","name":"Πλατεία Ιπποδαμείας","operator":"ΣΤΑΣΥ"}},{"type":"Feature","id":9,"geometry":{"type":"Point","coordinates":[23.663806999999998,37.943863399999998]},"properties":{"FID":9,"name_en":"Peace and Friendship Stadium","name":"Στάδιο Ειρήνης και Φιλίας","operator":"ΣΤΑΣΥ"}},{"type":"Feature","id":10,"geometry":{"type":"Point","coordinates":[23.663794599999999,37.943748800000002]},"properties":{"FID":10,"name_en":"Peace and Friendship Stadium","name":"Στάδιο Ειρήνης και Φιλίας","operator":"ΣΤΑΣΥ"}},{"type":"Feature","id":11,"geometry":{"type":"Point","coordinates":[23.663802499999999,37.943820700000003]},"properties":{"FID":11,"name_en":"Peace and Friendship Stadium","name":"Στάδιο Ειρήνης και Φιλίας","operator":"ΣΤΑΣΥ"}},{"type":"Feature","id":12,"geometry":{"type":"Point","coordinates":[23.663815799999998,37.943923099999999]},"properties":{"FID":12,"name_en":"Peace and Friendship Stadium","name":"Στάδιο Ειρήνης και Φιλίας","operator":"ΣΤΑΣΥ"}},{"type":"Feature","id":13,"geometry":{"type":"Point","coordinates":[23.684016700000001,37.942713300000001]},"properties":{"FID":13,"name_en":"Kallithea","name":"Καλλιθέα","operator":"ΣΤΑΣΥ"}},{"type":"Feature","id":14,"geometry":{"type":"Point","coordinates":[23.684035000000002,37.942746200000002]},"properties":{"FID":14,"name_en":"Kallithea","name":"Καλλιθέα","operator":"ΣΤΑΣΥ"}},{"type":"Feature","id":15,"geometry":{"type":"Point","coordinates":[23.677963399999999,37.944259099999996]},"properties":{"FID":15,"name_en":"Moschato","name":"Μοσχάτο","operator":"ΣΤΑΣΥ"}},{"type":"Feature","id":16,"geometry":{"type":"Point","coordinates":[23.727638599999999,37.964789699999997]},"properties":{"FID":16,"name_en":"Fix","name":"Φίξ","operator":"ΣΤΑΣΥ"}},{"type":"Feature","id":17,"geometry":{"type":"Point","coordinates":[23.6685509,37.9446084]},"properties":{"FID":17,"name_en":"Neo Faliro","name":"Νέο Φάληρο","operator":"ΣΤΑΣΥ"}},{"type":"Feature","id":18,"geometry":{"type":"Point","coordinates":[23.664838100000001,37.944422699999997]},"properties":{"FID":18,"name_en":"Gipedo Karaiskaki","name":"Γήπεδο Καραϊσκάκη","operator":"ΣΤΑΣΥ"}},{"type":"Feature","id":19,"geometry":{"type":"Point","coordinates":[23.668552800000001,37.944572600000001]},"properties":{"FID":19,"name_en":"Neo Faliro","name":"Νέο Φάληρο","operator":"ΣΤΑΣΥ"}},{"type":"Feature","id":20,"geometry":{"type":"Point","coordinates":[23.713869800000001,37.942687599999999]},"properties":{"FID":20,"name_en":"Alexander the Great","name":"Μεγάλου Αλεξάνδρου","operator":"ΣΤΑΣΥ"}},{"type":"Feature","id":21,"geometry":{"type":"Point","coordinates":[23.712131100000001,37.937134399999998]},"properties":{"FID":21,"name_en":"Medeas - Mykalis","name":"Μηδείας - Μυκάλης","operator":"ΣΤΑΣΥ"}},{"type":"Feature","id":22,"geometry":{"type":"Point","coordinates":[23.713025999999999,37.940214599999997]},"properties":{"FID":22,"name_en":"Aghia Paraskevi","name":"Αγία Παρασκευή","operator":"ΣΤΑΣΥ"}},{"type":"Feature","id":23,"geometry":{"type":"Point","coordinates":[23.7363994,37.969306099999997]},"properties":{"FID":23,"name_en":"Zappeion","name":"Ζάππειο","operator":"ΣΤΑΣΥ"}},{"type":"Feature","id":24,"geometry":{"type":"Point","coordinates":[23.715124700000001,37.946719700000003]},"properties":{"FID":24,"name_en":" ","name":"Αγίας Φωτεινής-Πλατεία","operator":"ΣΤΑΣΥ"}},{"type":"Feature","id":25,"geometry":{"type":"Point","coordinates":[23.709866399999999,37.930105699999999]},"properties":{"FID":25,"name_en":"Achilleos","name":"Αχιλλέως","operator":"ΣΤΑΣΥ"}},{"type":"Feature","id":26,"geometry":{"type":"Point","coordinates":[23.7099534,37.9300906]},"properties":{"FID":26,"name_en":"Achilleos","name":"Αχιλλέως","operator":"ΣΤΑΣΥ"}},{"type":"Feature","id":27,"geometry":{"type":"Point","coordinates":[23.710848500000001,37.933304200000002]},"properties":{"FID":27,"name_en":"Evangeliki Scholi","name":"Ευαγγελική Σχολή","operator":"ΣΤΑΣΥ"}},{"type":"Feature","id":28,"geometry":{"type":"Point","coordinates":[23.712055200000002,37.937150600000002]},"properties":{"FID":28,"name_en":"Medeas - Mykalis","name":"Μηδείας - Μυκάλης","operator":"ΣΤΑΣΥ"}},{"type":"Feature","id":29,"geometry":{"type":"Point","coordinates":[23.688435399999999,37.927847200000002]},"properties":{"FID":29,"name_en":"Parko Flisvou","name":"Πάρκο Φλοίσβου","operator":"ΣΤΑΣΥ"}},{"type":"Feature","id":30,"geometry":{"type":"Point","coordinates":[23.720218500000001,37.897593000000001]},"properties":{"FID":30,"name_en":"Elliniko","name":"Ελληνικό","operator":"ΣΤΑΣΥ"}},{"type":"Feature","id":31,"geometry":{"type":"Point","coordinates":[23.7201746,37.897587299999998]},"properties":{"FID":31,"name_en":"Elliniko","name":"Ελληνικό","operator":"ΣΤΑΣΥ"}},{"type":"Feature","id":32,"geometry":{"type":"Point","coordinates":[23.713793200000001,37.942701399999997]},"properties":{"FID":32,"name_en":"Alexander the Great","name":"Μεγάλου Αλεξάνδρου","operator":"ΣΤΑΣΥ"}},{"type":"Feature","id":33,"geometry":{"type":"Point","coordinates":[23.7353381,37.974434700000003]},"properties":{"FID":33,"name_en":"Syntagma","name":"Σύνταγμα","operator":"ΣΤΑΣΥ"}},{"type":"Feature","id":34,"geometry":{"type":"Point","coordinates":[23.735409799999999,37.974424599999999]},"properties":{"FID":34,"name_en":"Syntagma","name":"Σύνταγμα","operator":"ΣΤΑΣΥ"}},{"type":"Feature","id":35,"geometry":{"type":"Point","coordinates":[23.645195600000001,37.944940299999999]},"properties":{"FID":35,"name_en":"Agia Triada","name":"Αγία Τριάδα","operator":"ΣΤΑΣΥ"}},{"type":"Feature","id":36,"geometry":{"type":"Point","coordinates":[23.687273099999999,37.931381600000002]},"properties":{"FID":36,"name_en":"Trocadero","name":"Τροκαντερό","operator":"ΣΤΑΣΥ"}},{"type":"Feature","id":37,"geometry":{"type":"Point","coordinates":[23.706026000000001,37.928331300000004]},"properties":{"FID":37,"name_en":"Amfitheas","name":"Αμφιθέας","operator":"ΣΤΑΣΥ"}},{"type":"Feature","id":38,"geometry":{"type":"Point","coordinates":[23.747509000000001,37.863467200000002]},"properties":{"FID":38,"name_en":"Platia Vaso Katraki","name":"Πλατεία Βάσω Κατράκη","operator":"ΣΤΑΣΥ"}},{"type":"Feature","id":39,"geometry":{"type":"Point","coordinates":[23.735189399999999,37.871467199999998]},"properties":{"FID":39,"name_en":"Platia Vergoti","name":"Πλατεία Βεργωτή","operator":"ΣΤΑΣΥ"}},{"type":"Feature","id":40,"geometry":{"type":"Point","coordinates":[23.6872264,37.931394099999999]},"properties":{"FID":40,"name_en":"Trocadero","name":"Τροκαντερό","operator":"ΣΤΑΣΥ"}},{"type":"Feature","id":41,"geometry":{"type":"Point","coordinates":[23.688456899999998,37.9278719]},"properties":{"FID":41,"name_en":"Parko Flisvou","name":"Πάρκο Φλοίσβου","operator":"ΣΤΑΣΥ"}},{"type":"Feature","id":42,"geometry":{"type":"Point","coordinates":[23.647501500000001,37.942636700000001]},"properties":{"FID":42,"name_en":"Dimarcheio","name":"Δημαρχείο","operator":"ΣΤΑΣΥ"}},{"type":"Feature","id":43,"geometry":{"type":"Point","coordinates":[23.677967200000001,37.944294800000002]},"properties":{"FID":43,"name_en":"Moschato","name":"Μοσχάτο","operator":"ΣΤΑΣΥ"}},{"type":"Feature","id":44,"geometry":{"type":"Point","coordinates":[23.710928500000001,37.933286099999997]},"properties":{"FID":44,"name_en":"Evangeliki Scholi","name":"Ευαγγελική Σχολή","operator":"ΣΤΑΣΥ"}},{"type":"Feature","id":45,"geometry":{"type":"Point","coordinates":[23.713102200000002,37.940199700000001]},"properties":{"FID":45,"name_en":"Aghia Paraskevi","name":"Αγία Παρασκευή","operator":"ΣΤΑΣΥ"}},{"type":"Feature","id":46,"geometry":{"type":"Point","coordinates":[23.715044500000001,37.946738799999999]},"properties":{"FID":46,"name_en":" ","name":"Αγίας Φωτεινής-Πλατεία","operator":"ΣΤΑΣΥ"}},{"type":"Feature","id":47,"geometry":{"type":"Point","coordinates":[23.737911700000002,37.968665000000001]},"properties":{"FID":47,"name_en":"Zappeion","name":"Ζάππειο","operator":"ΣΤΑΣΥ"}},{"type":"Feature","id":48,"geometry":{"type":"Point","coordinates":[23.6522544,37.948536300000001]},"properties":{"FID":48,"name_en":"34 Syntagmatos Pezikou","name":"34ου Συντάγματος Πεζικού","operator":"ΣΤΑΣΥ"}},{"type":"Feature","id":49,"geometry":{"type":"Point","coordinates":[23.656059899999999,37.947942300000001]},"properties":{"FID":49,"name_en":"Lambraki","name":"Λαμπράκη","operator":"ΣΤΑΣΥ"}},{"type":"Feature","id":50,"geometry":{"type":"Point","coordinates":[23.6560463,37.9478346]},"properties":{"FID":50,"name_en":"Androutsou","name":"Ανδρούτσου","operator":"ΣΤΑΣΥ"}},{"type":"Feature","id":51,"geometry":{"type":"Point","coordinates":[23.660042600000001,37.945916699999998]},"properties":{"FID":51,"name_en":"Mikras Asias","name":"Μικράς Ασίας","operator":"ΣΤΑΣΥ"}},{"type":"Feature","id":52,"geometry":{"type":"Point","coordinates":[23.727612199999999,37.964816399999997]},"properties":{"FID":52,"name_en":"Fix","name":"Φίξ","operator":"ΣΤΑΣΥ"}},{"type":"Feature","id":53,"geometry":{"type":"Point","coordinates":[23.693962299999999,37.933998199999998]},"properties":{"FID":53,"name_en":"Aghia Skepi","name":"Αγία Σκέπη","operator":"ΣΤΑΣΥ"}},{"type":"Feature","id":54,"geometry":{"type":"Point","coordinates":[23.688092600000001,37.9406836]},"properties":{"FID":54,"name_en":"Tzitzifies","name":"Τζιτζιφιές","operator":"ΣΤΑΣΥ"}},{"type":"Feature","id":55,"geometry":{"type":"Point","coordinates":[23.6939305,37.9340166]},"properties":{"FID":55,"name_en":"Aghia Skepi","name":"Αγία Σκέπη","operator":"ΣΤΑΣΥ"}},{"type":"Feature","id":56,"geometry":{"type":"Point","coordinates":[23.692345799999998,37.937401600000001]},"properties":{"FID":56,"name_en":"Delta Falirou","name":"Δέλτα Φαλήρου","operator":"ΣΤΑΣΥ"}},{"type":"Feature","id":57,"geometry":{"type":"Point","coordinates":[23.6923727,37.937464900000002]},"properties":{"FID":57,"name_en":"Delta Falirou","name":"Δέλτα Φαλήρου","operator":"ΣΤΑΣΥ"}},{"type":"Feature","id":58,"geometry":{"type":"Point","coordinates":[23.688130300000001,37.940717100000001]},"properties":{"FID":58,"name_en":"Tzitzifies","name":"Τζιτζιφιές","operator":"ΣΤΑΣΥ"}},{"type":"Feature","id":59,"geometry":{"type":"Point","coordinates":[23.699736099999999,37.922002200000001]},"properties":{"FID":59,"name_en":"Mousson","name":"Μουσών","operator":"ΣΤΑΣΥ"}},{"type":"Feature","id":60,"geometry":{"type":"Point","coordinates":[23.705473699999999,37.915934200000002]},"properties":{"FID":60,"name_en":"Pikrodafni","name":"Πικροδάφνη","operator":"ΣΤΑΣΥ"}},{"type":"Feature","id":61,"geometry":{"type":"Point","coordinates":[23.700681700000001,37.918730199999999]},"properties":{"FID":61,"name_en":"Edem","name":"Έδεμ","operator":"ΣΤΑΣΥ"}},{"type":"Feature","id":62,"geometry":{"type":"Point","coordinates":[23.696442699999999,37.921558599999997]},"properties":{"FID":62,"name_en":"Batis","name":"Μπάτης","operator":"ΣΤΑΣΥ"}},{"type":"Feature","id":63,"geometry":{"type":"Point","coordinates":[23.699814499999999,37.921972500000003]},"properties":{"FID":63,"name_en":"Mousson","name":"Μουσών","operator":"ΣΤΑΣΥ"}},{"type":"Feature","id":64,"geometry":{"type":"Point","coordinates":[23.717020600000001,37.906376899999998]},"properties":{"FID":64,"name_en":"Zefyros","name":"Ζέφυρος","operator":"ΣΤΑΣΥ"}},{"type":"Feature","id":65,"geometry":{"type":"Point","coordinates":[23.708758799999998,37.913001899999998]},"properties":{"FID":65,"name_en":"Marina Alimou","name":"Μαρίνα Αλίμου","operator":"ΣΤΑΣΥ"}},{"type":"Feature","id":66,"geometry":{"type":"Point","coordinates":[23.717057400000002,37.9063911]},"properties":{"FID":66,"name_en":"Zefyros","name":"Ζέφυρος","operator":"ΣΤΑΣΥ"}},{"type":"Feature","id":67,"geometry":{"type":"Point","coordinates":[23.712883699999999,37.909706499999999]},"properties":{"FID":67,"name_en":"Kalamaki","name":"Καλαμάκι","operator":"ΣΤΑΣΥ"}},{"type":"Feature","id":68,"geometry":{"type":"Point","coordinates":[23.7087188,37.912990700000002]},"properties":{"FID":68,"name_en":"Marina Alimou","name":"Μαρίνα Αλίμου","operator":"ΣΤΑΣΥ"}},{"type":"Feature","id":69,"geometry":{"type":"Point","coordinates":[23.7273818,37.9579004]},"properties":{"FID":69,"name_en":"Neos Kosmos","name":"Νέος Κόσμος","operator":"ΣΤΑΣΥ"}},{"type":"Feature","id":70,"geometry":{"type":"Point","coordinates":[23.7234816,37.9604298]},"properties":{"FID":70,"name_en":"Kasomouli","name":"Κασομούλη","operator":"ΣΤΑΣΥ"}},{"type":"Feature","id":71,"geometry":{"type":"Point","coordinates":[23.723877699999999,37.954671400000002]},"properties":{"FID":71,"name_en":"Baknana","name":"Μπακνανά","operator":"ΣΤΑΣΥ"}},{"type":"Feature","id":72,"geometry":{"type":"Point","coordinates":[23.723942300000001,37.954630299999998]},"properties":{"FID":72,"name_en":"Baknana","name":"Μπακνανά","operator":"ΣΤΑΣΥ"}},{"type":"Feature","id":73,"geometry":{"type":"Point","coordinates":[23.718961400000001,37.950104500000002]},"properties":{"FID":73,"name_en":"Aegeou","name":"Αιγαίου","operator":"ΣΤΑΣΥ"}},{"type":"Feature","id":74,"geometry":{"type":"Point","coordinates":[23.718904899999998,37.950146400000001]},"properties":{"FID":74,"name_en":"Aegeou","name":"Αιγαίου","operator":"ΣΤΑΣΥ"}},{"type":"Feature","id":75,"geometry":{"type":"Point","coordinates":[23.751443999999999,37.862770500000003]},"properties":{"FID":75,"name_en":"Agheiou Metaxa","name":"Άγγελου Μεταξά","operator":"ΣΤΑΣΥ"}},{"type":"Feature","id":76,"geometry":{"type":"Point","coordinates":[23.751404399999998,37.862714400000002]},"properties":{"FID":76,"name_en":"Agheiou Metaxa","name":"Άγγελου Μεταξά","operator":"ΣΤΑΣΥ"}},{"type":"Feature","id":77,"geometry":{"type":"Point","coordinates":[23.7542756,37.860181099999998]},"properties":{"FID":77,"name_en":"Platia Esperidon","name":"Πλατεία Εσπερίδων","operator":"ΣΤΑΣΥ"}},{"type":"Feature","id":78,"geometry":{"type":"Point","coordinates":[23.754311900000001,37.8560655]},"properties":{"FID":78,"name_en":"Kolymvitirio","name":"Κολυμβητήριο","operator":"ΣΤΑΣΥ"}},{"type":"Feature","id":79,"geometry":{"type":"Point","coordinates":[23.754238099999998,37.856090799999997]},"properties":{"FID":79,"name_en":"Kolymvitirio","name":"Κολυμβητήριο","operator":"ΣΤΑΣΥ"}},{"type":"Feature","id":80,"geometry":{"type":"Point","coordinates":[23.752590000000001,37.849664400000002]},"properties":{"FID":80,"name_en":"Asklipiio Voulas","name":"Ασκληπιείο Βούλας","operator":"ΣΤΑΣΥ"}},{"type":"Feature","id":81,"geometry":{"type":"Point","coordinates":[23.752667299999999,37.849678099999998]},"properties":{"FID":81,"name_en":"Asklipiio Voulas","name":"Ασκληπιείο Βούλας","operator":"ΣΤΑΣΥ"}},{"type":"Feature","id":82,"geometry":{"type":"Point","coordinates":[23.752551199999999,37.849659699999997]},"properties":{"FID":82,"name_en":"Asklipiio Voulas","name":"Ασκληπιείο Βούλας","operator":"ΣΤΑΣΥ"}},{"type":"Feature","id":83,"geometry":{"type":"Point","coordinates":[23.7524734,37.849645799999998]},"properties":{"FID":83,"name_en":"Asklipiio Voulas","name":"Ασκληπιείο Βούλας","operator":"ΣΤΑΣΥ"}},{"type":"Feature","id":84,"geometry":{"type":"Point","coordinates":[23.7128631,37.909677600000002]},"properties":{"FID":84,"name_en":"Kalamaki","name":"Καλαμάκι","operator":"ΣΤΑΣΥ"}},{"type":"Feature","id":85,"geometry":{"type":"Point","coordinates":[23.7195751,37.902227600000003]},"properties":{"FID":85,"name_en":"Loutra Alimou","name":"Λουτρά Αλίμου","operator":"ΣΤΑΣΥ"}},{"type":"Feature","id":86,"geometry":{"type":"Point","coordinates":[23.7195316,37.902228399999998]},"properties":{"FID":86,"name_en":"Loutra Alimou","name":"Λουτρά Αλίμου","operator":"ΣΤΑΣΥ"}},{"type":"Feature","id":87,"geometry":{"type":"Point","coordinates":[23.731901499999999,37.8758956]},"properties":{"FID":87,"name_en":"Kentro Istioploias","name":"Κέντρο Ιστιοπλοΐας","operator":"ΣΤΑΣΥ"}},{"type":"Feature","id":88,"geometry":{"type":"Point","coordinates":[23.7318572,37.8758816]},"properties":{"FID":88,"name_en":"Kentro Istioploias","name":"Κέντρο Ιστιοπλοΐας","operator":"ΣΤΑΣΥ"}},{"type":"Feature","id":89,"geometry":{"type":"Point","coordinates":[23.729483900000002,37.881168199999998]},"properties":{"FID":89,"name_en":"Ellinon Olymbionikon","name":"Ελλήνων Ολυμπιονικών","operator":"ΣΤΑΣΥ"}},{"type":"Feature","id":90,"geometry":{"type":"Point","coordinates":[23.729462900000001,37.881158800000001]},"properties":{"FID":90,"name_en":"Ellinon Olymbionikon","name":"Ελλήνων Ολυμπιονικών","operator":"ΣΤΑΣΥ"}},{"type":"Feature","id":91,"geometry":{"type":"Point","coordinates":[23.7269291,37.885049000000002]},"properties":{"FID":91,"name_en":"Aghios Alexandros","name":"Άγιος Αλέξανδρος","operator":"ΣΤΑΣΥ"}},{"type":"Feature","id":92,"geometry":{"type":"Point","coordinates":[23.726968800000002,37.885059900000002]},"properties":{"FID":92,"name_en":"Aghios Alexandros","name":"Άγιος Αλέξανδρος","operator":"ΣΤΑΣΥ"}},{"type":"Feature","id":93,"geometry":{"type":"Point","coordinates":[23.721208600000001,37.894300100000002]},"properties":{"FID":93,"name_en":"1st Aghiou Kosma","name":"1η Αγίου Κοσμά","operator":"ΣΤΑΣΥ"}},{"type":"Feature","id":94,"geometry":{"type":"Point","coordinates":[23.721166100000001,37.8942956]},"properties":{"FID":94,"name_en":"1st Aghiou Kosma","name":"1η Αγίου Κοσμά","operator":"ΣΤΑΣΥ"}},{"type":"Feature","id":95,"geometry":{"type":"Point","coordinates":[23.723237099999999,37.890795400000002]},"properties":{"FID":95,"name_en":"2nd Aghiou Kosma","name":"2η Αγίου Κοσμά","operator":"ΣΤΑΣΥ"}},{"type":"Feature","id":96,"geometry":{"type":"Point","coordinates":[23.7231968,37.890782100000003]},"properties":{"FID":96,"name_en":"2nd Aghiou Kosma","name":"2η Αγίου Κοσμά","operator":"ΣΤΑΣΥ"}},{"type":"Feature","id":97,"geometry":{"type":"Point","coordinates":[23.705533800000001,37.915980099999999]},"properties":{"FID":97,"name_en":"Pikrodafni","name":"Πικροδάφνη","operator":"ΣΤΑΣΥ"}},{"type":"Feature","id":98,"geometry":{"type":"Point","coordinates":[23.7475038,37.863493800000001]},"properties":{"FID":98,"name_en":"Platia Vaso Katraki","name":"Πλατεία Βάσω Κατράκη","operator":"ΣΤΑΣΥ"}},{"type":"Feature","id":99,"geometry":{"type":"Point","coordinates":[23.738398400000001,37.867769899999999]},"properties":{"FID":99,"name_en":"Paralia Glyfadas","name":"Παραλία Γλυφάδας","operator":"ΣΤΑΣΥ"}},{"type":"Feature","id":100,"geometry":{"type":"Point","coordinates":[23.7431856,37.864655300000003]},"properties":{"FID":100,"name_en":"Paleo Demarhio","name":"Παλαιό Δημαρχείο","operator":"ΣΤΑΣΥ"}},{"type":"Feature","id":101,"geometry":{"type":"Point","coordinates":[23.7432044,37.864679700000003]},"properties":{"FID":101,"name_en":"Paleo Demarhio","name":"Παλαιό Δημαρχείο","operator":"ΣΤΑΣΥ"}},{"type":"Feature","id":102,"geometry":{"type":"Point","coordinates":[23.7054124,37.915891999999999]},"properties":{"FID":102,"name_en":"Pikrodafni","name":"Πικροδάφνη","operator":"ΣΤΑΣΥ"}},{"type":"Feature","id":103,"geometry":{"type":"Point","coordinates":[23.705035500000001,37.928139999999999]},"properties":{"FID":103,"name_en":"Amfitheas","name":"Αμφιθέας","operator":"ΣΤΑΣΥ"}},{"type":"Feature","id":104,"geometry":{"type":"Point","coordinates":[23.7007245,37.9187406]},"properties":{"FID":104,"name_en":"Edem","name":"Έδεμ","operator":"ΣΤΑΣΥ"}},{"type":"Feature","id":105,"geometry":{"type":"Point","coordinates":[23.660918899999999,37.945035900000001]},"properties":{"FID":105,"name_en":"Omiridou Skylitsi","name":"Ομηρίδου Σκυλίτση","operator":"ΣΤΑΣΥ"}},{"type":"Feature","id":106,"geometry":{"type":"Point","coordinates":[23.735224299999999,37.871487799999997]},"properties":{"FID":106,"name_en":"Platia Vergoti","name":"Πλατεία Βεργωτή","operator":"ΣΤΑΣΥ"}},{"type":"Feature","id":107,"geometry":{"type":"Point","coordinates":[23.692709099999998,37.923563299999998]},"properties":{"FID":107,"name_en":"Flisvos","name":"Φλοίσβος","operator":"ΣΤΑΣΥ"}},{"type":"Feature","id":108,"geometry":{"type":"Point","coordinates":[23.692748000000002,37.923585500000002]},"properties":{"FID":108,"name_en":"Flisvos","name":"Φλοίσβος","operator":"ΣΤΑΣΥ"}},{"type":"Feature","id":109,"geometry":{"type":"Point","coordinates":[23.7018664,37.9252678]},"properties":{"FID":109,"name_en":"Panaghitsa","name":"Παναγίτσα","operator":"ΣΤΑΣΥ"}},{"type":"Feature","id":110,"geometry":{"type":"Point","coordinates":[23.7019427,37.925240199999998]},"properties":{"FID":110,"name_en":"Panaghitsa","name":"Παναγίτσα","operator":"ΣΤΑΣΥ"}},{"type":"Feature","id":111,"geometry":{"type":"Point","coordinates":[23.696420100000001,37.9215266]},"properties":{"FID":111,"name_en":"Batis","name":"Μπάτης","operator":"ΣΤΑΣΥ"}}]}