{"type":"FeatureCollection","features":[{"type":"Feature","id":1,"geometry":{"type":"Point","coordinates":[23.766056610000078,38.04628186900004]},"properties":{"OBJECTID":1,"GNAME":"ΗΡΑΚΛΕΙΟ","ENAME":"IRAKLIO","metroline":1}},{"type":"Feature","id":2,"geometry":{"type":"Point","coordinates":[23.783388124000055,38.043375282000056]},"properties":{"OBJECTID":2,"GNAME":"ΕΙΡΗΝΗ","ENAME":"IRINI","metroline":1}},{"type":"Feature","id":3,"geometry":{"type":"Point","coordinates":[23.792979990000049,38.045178386000032]},"properties":{"OBJECTID":3,"GNAME":"ΝΕΡΑΝΤΖΙΩΤΙΣΣΑ","ENAME":"NERANTZIOTISSA","metroline":1}},{"type":"Feature","id":4,"geometry":{"type":"Point","coordinates":[23.75478651700007,38.041514577000044]},"properties":{"OBJECTID":4,"GNAME":"ΝΕΑ ΙΩΝΙΑ","ENAME":"NEA IONIA","metroline":1}},{"type":"Feature","id":5,"geometry":{"type":"Point","coordinates":[23.75013421400007,38.037155982000058]},"properties":{"OBJECTID":5,"GNAME":"ΠΕΥΚΑΚΙΑ","ENAME":"PEFKAKIA","metroline":1}},{"type":"Feature","id":6,"geometry":{"type":"Point","coordinates":[23.744748892000075,38.032914987000026]},"properties":{"OBJECTID":6,"GNAME":"ΠΕΡΙΣΣΟΣ","ENAME":"PERISSOS","metroline":1}},{"type":"Feature","id":7,"geometry":{"type":"Point","coordinates":[23.735974012000042,38.023829472000045]},"properties":{"OBJECTID":7,"GNAME":"ΑΝΩ ΠΑΤΗΣΙΑ","ENAME":"ANO PATISSIA","metroline":1}},{"type":"Feature","id":8,"geometry":{"type":"Point","coordinates":[23.73164907000006,38.019913436000024]},"properties":{"OBJECTID":8,"GNAME":"ΑΓΙΟΣ ΕΛΕΥΘΕΡΙΟ","ENAME":"AGHIOS ELEFTHERIOS","metroline":1}},{"type":"Feature","id":9,"geometry":{"type":"Point","coordinates":[23.728623992000053,38.011924687000032]},"properties":{"OBJECTID":9,"GNAME":"ΚΑΤΩ ΠΑΤΗΣΙΑ","ENAME":"KATO PATISSIA","metroline":1}},{"type":"Feature","id":10,"geometry":{"type":"Point","coordinates":[23.703211271000043,37.96243361900008]},"properties":{"OBJECTID":10,"GNAME":"ΤΑΥΡΟΣ","ENAME":"TAVROS","metroline":1}},{"type":"Feature","id":11,"geometry":{"type":"Point","coordinates":[23.696990074000041,37.960452089000057]},"properties":{"OBJECTID":11,"GNAME":"ΚΑΛΛΙΘΕΑ","ENAME":"KALITHEA","metroline":1}},{"type":"Feature","id":12,"geometry":{"type":"Point","coordinates":[23.680362115000037,37.95527740700004]},"properties":{"OBJECTID":12,"GNAME":"ΜΟΣΧΑΤΟ","ENAME":"MOSCHATO","metroline":1}},{"type":"Feature","id":13,"geometry":{"type":"Point","coordinates":[23.665135880000037,37.945017805000077]},"properties":{"OBJECTID":13,"GNAME":"ΦΑΛΗΡΟ","ENAME":"FALIRO","metroline":1}},{"type":"Feature","id":14,"geometry":{"type":"Point","coordinates":[23.720119365000073,37.976855619000048]},"properties":{"OBJECTID":14,"GNAME":"ΘΗΣΕΙΟ","ENAME":"THISSIO","metroline":1}},{"type":"Feature","id":15,"geometry":{"type":"Point","coordinates":[23.725418692000062,37.976116087000037]},"properties":{"OBJECTID":15,"GNAME":"ΜΟΝΑΣΤΗΡΑΚΙ","ENAME":"MONASTIRAKI","metroline":1}},{"type":"Feature","id":16,"geometry":{"type":"Point","coordinates":[23.709054335000076,37.968492881000032]},"properties":{"OBJECTID":16,"GNAME":"ΠΕΤΡΑΛΩΝΑ","ENAME":"PETRALONA","metroline":1}},{"type":"Feature","id":17,"geometry":{"type":"Point","coordinates":[23.727934392000066,37.98423998700008]},"properties":{"OBJECTID":17,"GNAME":"ΟΜΟΝΟΙΑ","ENAME":"OMONIA","metroline":1}},{"type":"Feature","id":18,"geometry":{"type":"Point","coordinates":[23.730244971000047,37.993068529000027]},"properties":{"OBJECTID":18,"GNAME":"ΒΙΚΤΩΡΙΑ","ENAME":"VICTORIA","metroline":1}},{"type":"Feature","id":19,"geometry":{"type":"Point","coordinates":[23.804924567000057,38.05625677200004]},"properties":{"OBJECTID":19,"GNAME":"ΜΑΡΟΥΣΙ","ENAME":"MAROUSSI","metroline":1}},{"type":"Feature","id":20,"geometry":{"type":"Point","coordinates":[23.804096396000034,38.065998619000027]},"properties":{"OBJECTID":20,"GNAME":"ΚΑΤ","ENAME":"KAT","metroline":1}},{"type":"Feature","id":21,"geometry":{"type":"Point","coordinates":[23.895726792000062,37.913216687000045]},"properties":{"OBJECTID":21,"GNAME":"ΚΟΡΩΠΙ","ENAME":"KOROPI","metroline":3}},{"type":"Feature","id":22,"geometry":{"type":"Point","coordinates":[23.869678756000042,38.005732699000077]},"properties":{"OBJECTID":22,"GNAME":"ΠΑΛΛΗΝΗ","ENAME":"PALLINI","metroline":3}},{"type":"Feature","id":23,"geometry":{"type":"Point","coordinates":[23.870095130000038,37.984542347000058]},"properties":{"OBJECTID":23,"GNAME":"ΠΑΙΑΝΙΑ-ΚΑΝΤΖΑ","ENAME":"PEANIA-KANTZA","metroline":3}},{"type":"Feature","id":24,"geometry":{"type":"Point","coordinates":[23.72576508700007,37.976757518000056]},"properties":{"OBJECTID":24,"GNAME":"ΜΟΝΑΣΤΗΡΑΚΙ","ENAME":"MONASTIRAKI","metroline":3}},{"type":"Feature","id":25,"geometry":{"type":"Point","coordinates":[23.735571130000039,37.974873377000051]},"properties":{"OBJECTID":25,"GNAME":"ΣΥΝΤΑΓΜΑ","ENAME":"SYNTAGMA","metroline":3}},{"type":"Feature","id":26,"geometry":{"type":"Point","coordinates":[23.727647985000033,38.006923040000061]},"properties":{"OBJECTID":26,"GNAME":"ΑΓΙΟΣ ΝΙΚΟΛΑΟΣ","ENAME":"AGHIOS NIKOLAOS","metroline":1}},{"type":"Feature","id":27,"geometry":{"type":"Point","coordinates":[23.722822892000067,37.99952928700003]},"properties":{"OBJECTID":27,"GNAME":"ΑΤΤΙΚΗ","ENAME":"ATTIKI","metroline":1}},{"type":"Feature","id":28,"geometry":{"type":"Point","coordinates":[23.944733592000034,37.936881287000062]},"properties":{"OBJECTID":28,"GNAME":"ΑΕΡΟΔΡΟΜΙΟ","ENAME":"ATHENS INTERNATIONAL AIRPORT","metroline":3}},{"type":"Feature","id":29,"geometry":{"type":"Point","coordinates":[23.729555092000055,37.968858987000033]},"properties":{"OBJECTID":29,"GNAME":"ΑΚΡΟΠΟΛΗ","ENAME":"ACROPOLI","metroline":2}},{"type":"Feature","id":30,"geometry":{"type":"Point","coordinates":[23.726803792000055,37.96463658700003]},"properties":{"OBJECTID":30,"GNAME":"ΣΥΓΓΡΟΥ-ΦΙΞ","ENAME":"SYGROU-FIX","metroline":2}},{"type":"Feature","id":31,"geometry":{"type":"Point","coordinates":[23.727951611000037,37.958017166000047]},"properties":{"OBJECTID":31,"GNAME":"ΝΕΟΣ ΚΟΣΜΟΣ","ENAME":"NEOS KOSMOS","metroline":2}},{"type":"Feature","id":32,"geometry":{"type":"Point","coordinates":[23.734677192000049,37.956416087000036]},"properties":{"OBJECTID":32,"GNAME":"ΑΓΙΟΣ ΙΩΑΝΝΗΣ","ENAME":"AGHIOS IOANNIS","metroline":2}},{"type":"Feature","id":33,"geometry":{"type":"Point","coordinates":[23.733035992000055,37.980364687000076]},"properties":{"OBJECTID":33,"GNAME":"ΠΑΝΕΠΙΣΤΗΜΙΟ","ENAME":"PANEPISTIMIO","metroline":2}},{"type":"Feature","id":34,"geometry":{"type":"Point","coordinates":[23.727989192000052,37.984084787000029]},"properties":{"OBJECTID":34,"GNAME":"ΟΜΟΝΟΙΑ","ENAME":"OMONIA","metroline":2}},{"type":"Feature","id":35,"geometry":{"type":"Point","coordinates":[23.747109192000039,37.976110687000073]},"properties":{"OBJECTID":35,"GNAME":"ΕΥΑΓΓΕΛΙΣΜΟΣ","ENAME":"EVANGELISMOS","metroline":3}},{"type":"Feature","id":36,"geometry":{"type":"Point","coordinates":[23.753023392000046,37.979021087000035]},"properties":{"OBJECTID":36,"GNAME":"ΜΕΓΑΡΟ ΜΟΥΣΙΚΗΣ","ENAME":"MEGARO MOUSSIKIS","metroline":3}},{"type":"Feature","id":37,"geometry":{"type":"Point","coordinates":[23.757699492000029,37.987189387000058]},"properties":{"OBJECTID":37,"GNAME":"ΑΜΠΕΛΟΚΗΠΟΙ","ENAME":"AMBELOKIPI","metroline":3}},{"type":"Feature","id":38,"geometry":{"type":"Point","coordinates":[23.763572192000026,37.993226987000071]},"properties":{"OBJECTID":38,"GNAME":"ΠΑΝΟΡΜΟΥ","ENAME":"PANORMOU","metroline":3}},{"type":"Feature","id":39,"geometry":{"type":"Point","coordinates":[23.776734292000071,37.993761287000041]},"properties":{"OBJECTID":39,"GNAME":"ΚΑΤΕΧΑΚΗ","ENAME":"KATEHAKI","metroline":3}},{"type":"Feature","id":40,"geometry":{"type":"Point","coordinates":[23.693678710000029,37.987671464000073]},"properties":{"OBJECTID":40,"GNAME":"ΕΛΑΙΩΝΑΣ","ENAME":"ELEONAS","metroline":3}},{"type":"Feature","id":41,"geometry":{"type":"Point","coordinates":[23.711007809000023,37.978744428000027]},"properties":{"OBJECTID":41,"GNAME":"ΚΕΡΑΜΕΙΚΟΣ","ENAME":"KERAMIKOS","metroline":3}},{"type":"Feature","id":42,"geometry":{"type":"Point","coordinates":[23.681844292000051,37.991494687000056]},"properties":{"OBJECTID":42,"GNAME":"ΑΙΓΑΛΕΩ","ENAME":"EGALEO","metroline":3}},{"type":"Feature","id":43,"geometry":{"type":"Point","coordinates":[23.667301142000042,37.996902158000069]},"properties":{"OBJECTID":43,"GNAME":"ΑΓΙΑ ΜΑΡΙΝΑ","ENAME":"AGHIA MARINA","metroline":3}},{"type":"Feature","id":44,"geometry":{"type":"Point","coordinates":[23.643248692000043,37.948108387000048]},"properties":{"OBJECTID":44,"GNAME":"ΠΕΙΡΑΙΑΣ","ENAME":"PIRAEUS","metroline":1}},{"type":"Feature","id":45,"geometry":{"type":"Point","coordinates":[23.720700592000071,37.992286087000025]},"properties":{"OBJECTID":45,"GNAME":"ΣΤ.ΛΑΡΙΣΗΣ","ENAME":"ST.LARISSIS","metroline":2}},{"type":"Feature","id":46,"geometry":{"type":"Point","coordinates":[23.721362092000049,37.985844987000064]},"properties":{"OBJECTID":46,"GNAME":"ΜΕΤΑΞΟΥΡΓΕΙΟ","ENAME":"METAXOURGHIO","metroline":2}},{"type":"Feature","id":47,"geometry":{"type":"Point","coordinates":[23.722691792000035,37.99953358700003]},"properties":{"OBJECTID":47,"GNAME":"ΑΤΤΙΚΗ","ENAME":"ATTIKI","metroline":2}},{"type":"Feature","id":48,"geometry":{"type":"Point","coordinates":[23.714036092000072,38.002594587000033]},"properties":{"OBJECTID":48,"GNAME":"ΣΕΠΟΛΙΑ","ENAME":"SEPOLIA","metroline":2}},{"type":"Feature","id":49,"geometry":{"type":"Point","coordinates":[23.805765292000046,38.009112487000039]},"properties":{"OBJECTID":49,"GNAME":"ΝΟΜΙΣΜΑΤΟΚΟΠΕΙΟ","ENAME":"NOMISMATOKOPIO","metroline":3}},{"type":"Feature","id":50,"geometry":{"type":"Point","coordinates":[23.794694692000064,38.004921187000036]},"properties":{"OBJECTID":50,"GNAME":"ΧΟΛΑΡΓΟΣ","ENAME":"HOLARGOS","metroline":3}},{"type":"Feature","id":51,"geometry":{"type":"Point","coordinates":[23.81246819200004,38.017138887000044]},"properties":{"OBJECTID":51,"GNAME":"ΑΓΙΑ ΠΑΡΑΣΚΕΥΗ","ENAME":"AGHIA PARASKEVI","metroline":3}},{"type":"Feature","id":52,"geometry":{"type":"Point","coordinates":[23.784460792000061,37.999195487000065]},"properties":{"OBJECTID":52,"GNAME":"ΕΘΝΙΚΗ ΑΜΥΝΑ","ENAME":"ETHNIKI AMYNA","metroline":3}},{"type":"Feature","id":53,"geometry":{"type":"Point","coordinates":[23.820750292000071,38.021726887000057]},"properties":{"OBJECTID":53,"GNAME":"ΧΑΛΑΝΔΡΙ","ENAME":"HALANDRI","metroline":3}},{"type":"Feature","id":54,"geometry":{"type":"Point","coordinates":[23.832541892000052,38.024006487000065]},"properties":{"OBJECTID":54,"GNAME":"ΔΟΥΚ.ΠΛΑΚΕΝΤΙΑΣ","ENAME":"DOUK.PLAKENTIAS","metroline":3}},{"type":"Feature","id":55,"geometry":{"type":"Point","coordinates":[23.808219792000045,38.073395087000051]},"properties":{"OBJECTID":55,"GNAME":"ΚΗΦΙΣΙΑ","ENAME":"KIFISSIA","metroline":1}},{"type":"Feature","id":56,"geometry":{"type":"Point","coordinates":[23.74406263000003,37.918089362000046]},"properties":{"OBJECTID":56,"GNAME":"ΑΛΙΜΟΣ","ENAME":"ALIMOS","metroline":2}},{"type":"Feature","id":57,"geometry":{"type":"Point","coordinates":[23.745465298000056,37.903021090000038]},"properties":{"OBJECTID":57,"GNAME":"ΑΡΓΥΡΟΥΠΟΛΗ","ENAME":"ARGYROUPOLI","metroline":2}},{"type":"Feature","id":58,"geometry":{"type":"Point","coordinates":[23.744750401000033,37.929462448000038]},"properties":{"OBJECTID":58,"GNAME":"ΗΛΙΟΥΠΟΛΗ","ENAME":"ILIOUPOLI","metroline":2}},{"type":"Feature","id":59,"geometry":{"type":"Point","coordinates":[23.74709529200004,37.892585487000076]},"properties":{"OBJECTID":59,"GNAME":"ΕΛΛΗΝΙΚΟ","ENAME":"HELLINIKO","metroline":2}},{"type":"Feature","id":60,"geometry":{"type":"Point","coordinates":[23.695760492000034,38.012885587000028]},"properties":{"OBJECTID":60,"GNAME":"ΠΕΡΙΣΤΕΡΙ","ENAME":"PERISTERI","metroline":2}},{"type":"Feature","id":61,"geometry":{"type":"Point","coordinates":[23.690875492000032,38.017108887000063]},"properties":{"OBJECTID":61,"GNAME":"ΑΝΘΟΥΠΟΛΗ","ENAME":"ANTHOUPOLI","metroline":2}},{"type":"Feature","id":62,"geometry":{"type":"Point","coordinates":[23.73721099200003,37.949552887000038]},"properties":{"OBJECTID":62,"GNAME":"ΔΑΦΝΗ","ENAME":"DAFNI","metroline":2}},{"type":"Feature","id":63,"geometry":{"type":"Point","coordinates":[23.740568146000044,37.940342226000041]},"properties":{"OBJECTID":63,"GNAME":"ΑΓΙΟΣ ΔΗΜΗΤΡΙΟΣ","ENAME":"AGHIOS DIMITRIOS","metroline":2}},{"type":"Feature","id":64,"geometry":{"type":"Point","coordinates":[23.699715592000075,38.006093187000033]},"properties":{"OBJECTID":64,"GNAME":"ΑΓΙΟΣ ΑΝΤΩΝΙΟΣ","ENAME":"AGHIOS ANTONIOS","metroline":2}},{"type":"Feature","id":65,"geometry":{"type":"Point","coordinates":[23.735691247000034,37.975518773000033]},"properties":{"OBJECTID":65,"GNAME":"ΣΥΝΤΑΓΜΑ","ENAME":" SYNTAGMA","metroline":2}},{"type":"Feature","id":66,"geometry":{"type":"Point","coordinates":[23.659279579000042,37.989759182000057]},"properties":{"OBJECTID":66,"GNAME":"ΑΓΙΑ ΒΑΡΒΑΡΑ","ENAME":"AGIA VARVARA","metroline":3}},{"type":"Feature","id":67,"geometry":{"type":"Point","coordinates":[23.647578592000059,37.94288788700004]},"properties":{"OBJECTID":67,"GNAME":"ΔΗΜΟΤΙΚΟ ΘΕΑΤΡΟ","ENAME":"DHMOTIKO THEATRO","metroline":3}},{"type":"Feature","id":68,"geometry":{"type":"Point","coordinates":[23.642286815000034,37.948236939000026]},"properties":{"OBJECTID":68,"GNAME":"ΠΕΙΡΑΙΑΣ","ENAME":"PEIRAIAS","metroline":3}},{"type":"Feature","id":69,"geometry":{"type":"Point","coordinates":[23.639764585000023,37.959555379000051]},"properties":{"OBJECTID":69,"GNAME":"ΜΑΝΙΑΤΙΚΑ","ENAME":"MANIATIKA","metroline":3}},{"type":"Feature","id":70,"geometry":{"type":"Point","coordinates":[23.647330939000028,37.965773108000064]},"properties":{"OBJECTID":70,"GNAME":"ΝΙΚΑΙΑ","ENAME":"NIKAIA","metroline":3}},{"type":"Feature","id":71,"geometry":{"type":"Point","coordinates":[23.650392292000049,37.977059687000065]},"properties":{"OBJECTID":71,"GNAME":"ΚΟΡΥΔΑΛΛΟΣ","ENAME":"KORYDALLOS","metroline":3}}]}