{"type":"FeatureCollection","features":[{"type":"Feature","id":0,"geometry":{"type":"Point","coordinates":[23.551551100000001,38.047814500000001]},"properties":{"FID":0,"name_en":"Vamvakia"}},{"type":"Feature","id":1,"geometry":{"type":"Point","coordinates":[23.584791800000001,38.055573000000003]},"properties":{"FID":1,"name_en":"Aspropirgos"}},{"type":"Feature","id":2,"geometry":{"type":"Point","coordinates":[23.8592367,38.140275600000002]},"properties":{"FID":2,"name_en":" "}},{"type":"Feature","id":3,"geometry":{"type":"Point","coordinates":[23.6054475,38.038727899999998]},"properties":{"FID":3,"name_en":"ELPE Aspropirgou"}},{"type":"Feature","id":4,"geometry":{"type":"Point","coordinates":[23.803528100000001,38.042142499999997]},"properties":{"FID":4,"name_en":"Kifisias"}},{"type":"Feature","id":5,"geometry":{"type":"Point","coordinates":[23.732645399999999,38.054188000000003]},"properties":{"FID":5,"name_en":"Kato Acharnai"}},{"type":"Feature","id":6,"geometry":{"type":"Point","coordinates":[23.6043348,38.081019900000001]},"properties":{"FID":6,"name_en":"Aspropyrgos"}},{"type":"Feature","id":7,"geometry":{"type":"Point","coordinates":[23.695625199999999,38.250664200000003]},"properties":{"FID":7,"name_en":"Avlona"}},{"type":"Feature","id":8,"geometry":{"type":"Point","coordinates":[23.444518800000001,38.021374399999999]},"properties":{"FID":8,"name_en":"Neraki"}},{"type":"Feature","id":9,"geometry":{"type":"Point","coordinates":[23.538465800000001,38.045672400000001]},"properties":{"FID":9,"name_en":"Elefsina"}},{"type":"Feature","id":10,"geometry":{"type":"Point","coordinates":[23.771365599999999,38.057204499999997]},"properties":{"FID":10,"name_en":"Iraklio"}},{"type":"Feature","id":11,"geometry":{"type":"Point","coordinates":[23.643719999999998,37.949131100000002]},"properties":{"FID":11,"name_en":"Piraeus"}},{"type":"Feature","id":12,"geometry":{"type":"Point","coordinates":[23.668454000000001,37.962342100000001]},"properties":{"FID":12,"name_en":"Rentis"}},{"type":"Feature","id":13,"geometry":{"type":"Point","coordinates":[23.8958108,37.913011599999997]},"properties":{"FID":13,"name_en":"Koropi"}},{"type":"Feature","id":14,"geometry":{"type":"Point","coordinates":[23.703965199999999,37.973633]},"properties":{"FID":14,"name_en":"Rouf"}},{"type":"Feature","id":15,"geometry":{"type":"Point","coordinates":[23.737766300000001,38.065651299999999]},"properties":{"FID":15,"name_en":"Acharnes Railway Center"}},{"type":"Feature","id":16,"geometry":{"type":"Point","coordinates":[23.529549299999999,38.073644000000002]},"properties":{"FID":16,"name_en":"Magoula"}},{"type":"Feature","id":17,"geometry":{"type":"Point","coordinates":[23.718420399999999,38.021858100000003]},"properties":{"FID":17,"name_en":"Agii Anargyri"}},{"type":"Feature","id":18,"geometry":{"type":"Point","coordinates":[23.793182600000002,38.045099800000003]},"properties":{"FID":18,"name_en":"Neratziotissa"}},{"type":"Feature","id":19,"geometry":{"type":"Point","coordinates":[23.4218492,38.0070306]},"properties":{"FID":19,"name_en":"Nea Peramos"}},{"type":"Feature","id":20,"geometry":{"type":"Point","coordinates":[23.3435013,37.993730499999998]},"properties":{"FID":20,"name_en":"Megara"}},{"type":"Feature","id":21,"geometry":{"type":"Point","coordinates":[23.468848999999999,38.026389299999998]},"properties":{"FID":21,"name_en":"Loutropirgos"}},{"type":"Feature","id":22,"geometry":{"type":"Point","coordinates":[23.361068899999999,37.990953099999999]},"properties":{"FID":22,"name_en":"Megara"}},{"type":"Feature","id":23,"geometry":{"type":"Point","coordinates":[23.318325999999999,38.329600900000003]},"properties":{"FID":23,"name_en":"Thiva (Thebes)"}},{"type":"Feature","id":24,"geometry":{"type":"Point","coordinates":[23.383559300000002,38.367992399999999]},"properties":{"FID":24,"name_en":"Ypato"}},{"type":"Feature","id":25,"geometry":{"type":"Point","coordinates":[23.383581,38.36797]},"properties":{"FID":25,"name_en":"Ypato"}},{"type":"Feature","id":26,"geometry":{"type":"Point","coordinates":[23.7801051,38.099758199999997]},"properties":{"FID":26,"name_en":" "}},{"type":"Feature","id":27,"geometry":{"type":"Point","coordinates":[23.709847100000001,38.070765399999999]},"properties":{"FID":27,"name_en":"Ano Liosia"}},{"type":"Feature","id":28,"geometry":{"type":"Point","coordinates":[23.716838899999999,38.0698218]},"properties":{"FID":28,"name_en":"Zefiri"}},{"type":"Feature","id":29,"geometry":{"type":"Point","coordinates":[23.834269200000001,38.024612400000002]},"properties":{"FID":29,"name_en":"Doukissis Plakentias"}},{"type":"Feature","id":30,"geometry":{"type":"Point","coordinates":[23.727456,38.0397137]},"properties":{"FID":30,"name_en":"Pirgos Vasilisis"}},{"type":"Feature","id":31,"geometry":{"type":"Point","coordinates":[23.4995634,38.041246000000001]},"properties":{"FID":31,"name_en":"ELPE Elefsinas"}},{"type":"Feature","id":32,"geometry":{"type":"Point","coordinates":[23.471170399999998,38.372604500000001]},"properties":{"FID":32,"name_en":"Eleonas"}},{"type":"Feature","id":33,"geometry":{"type":"Point","coordinates":[23.471186200000002,38.372635299999999]},"properties":{"FID":33,"name_en":"Eleonas"}},{"type":"Feature","id":34,"geometry":{"type":"Point","coordinates":[23.869925299999998,37.984198599999999]},"properties":{"FID":34,"name_en":"Paiania-Kantza"}},{"type":"Feature","id":35,"geometry":{"type":"Point","coordinates":[23.693429800000001,37.968796500000003]},"properties":{"FID":35,"name_en":"Tavros"}},{"type":"Feature","id":36,"geometry":{"type":"Point","coordinates":[23.609682599999999,38.3221682]},"properties":{"FID":36,"name_en":"Inoi"}},{"type":"Feature","id":37,"geometry":{"type":"Point","coordinates":[23.844636900000001,38.187378199999998]},"properties":{"FID":37,"name_en":" "}},{"type":"Feature","id":38,"geometry":{"type":"Point","coordinates":[23.869604299999999,38.005761499999998]},"properties":{"FID":38,"name_en":"Pallini"}}]}