{"type":"FeatureCollection","features":[{"type":"Feature","id":0,"geometry":{"type":"LineString","coordinates":[[23.768004291064095,37.995328530594072],[23.766114769208123,37.991460198736867],[23.765977493297861,37.991221939588328],[23.764236417395519,37.989166501371777],[23.763797750255158,37.98864092813394],[23.763596452969733,37.988448261540853],[23.762469589900309,37.987520261260471],[23.762007404430371,37.987152593944813],[23.76171758957809,37.986835992146865],[23.761452374074548,37.986535044370761]]},"properties":{"FID":0,"Shape_Leng":1145.83385991}},{"type":"Feature","id":1,"geometry":{"type":"LineString","coordinates":[[23.762292766885924,37.987532364329503],[23.763090211954275,37.988193956572566],[23.763664192452215,37.988653742919887],[23.7642013391022,37.989268461958531],[23.765714548443135,37.991064266280411],[23.765953020943527,37.991476731027248],[23.76667080912955,37.992966314504706]]},"properties":{"FID":1,"Shape_Leng":722.79216911699996}},{"type":"Feature","id":2,"geometry":{"type":"LineString","coordinates":[[23.759175969037884,37.984221312493226],[23.75847126629472,37.983623804840256],[23.75825775551975,37.983469955642477],[23.757481818960116,37.983049676815071],[23.756865037192718,37.982736788408126],[23.756582914388122,37.982574805318201],[23.756441955305721,37.982462651309341],[23.75610764200124,37.982209471410407],[23.755866043887423,37.982004422428211],[23.755162004017979,37.981259878333297],[23.754030428230873,37.98003652688503],[23.752898210737424,37.979015413534015],[23.751926178924641,37.978209361346458],[23.751048573735286,37.977470918076015],[23.75044731296278,37.977105094282827],[23.749631033998288,37.976893619525725],[23.745860623889634,37.975976257604515],[23.743155632429538,37.975337564810701],[23.743032554103436,37.975318120241148],[23.742705434786128,37.975339776980327],[23.737653473097637,37.975993845398484]]},"properties":{"FID":2,"Shape_Leng":2266.9621799000001}},{"type":"Feature","id":3,"geometry":{"type":"LineString","coordinates":[[23.759715845740423,37.984447866022442],[23.75899347637527,37.983842207540043],[23.758550583453278,37.983448185345949],[23.757405833812403,37.982825796577224],[23.756958359009481,37.982601149322136],[23.756539357605153,37.982314237154817],[23.756191084649782,37.982008592660684],[23.755307529771564,37.981135335849984],[23.754335963502189,37.98011425780048],[23.753392578740559,37.979222758178217],[23.75213775425879,37.978142391081278],[23.751291599415861,37.977431481692669],[23.749601202278587,37.976292953701581]]},"properties":{"FID":3,"Shape_Leng":1274.8659485999999}},{"type":"Feature","id":4,"geometry":{"type":"LineString","coordinates":[[23.747004986199432,37.976109074705363],[23.743385835558659,37.975260912515473],[23.743099612881039,37.975192022520595],[23.742845320642182,37.975170692252398],[23.73763235217714,37.975870303063942]]},"properties":{"FID":4,"Shape_Leng":844.60753220699996}},{"type":"Feature","id":5,"geometry":{"type":"LineString","coordinates":[[23.735197299822595,37.980111848778748],[23.73389505800715,37.979361581599719]]},"properties":{"FID":5,"Shape_Leng":141.45402904599999}},{"type":"Feature","id":6,"geometry":{"type":"LineString","coordinates":[[23.735866190047656,37.976916252501354],[23.730266267151247,37.983524042574629],[23.730032834288593,37.983790492183402],[23.729893230671376,37.983870072467198],[23.72944477680123,37.983932962823239]]},"properties":{"FID":6,"Shape_Leng":973.90340705400001}},{"type":"Feature","id":7,"geometry":{"type":"LineString","coordinates":[[23.76727842461543,37.988350733072927],[23.766786342590493,37.988084586753388],[23.766495330138369,37.987919400427295],[23.765907852735197,37.987384518465063],[23.765555685461138,37.987076229028297],[23.765272416490877,37.986866391879325],[23.764902077643868,37.986692897443163],[23.7640390409491,37.986320377709447],[23.763531156339482,37.986118863178234],[23.763281747904312,37.986074470710463],[23.763023767076699,37.986109064449124],[23.761456008540986,37.986459218467211]]},"properties":{"FID":7,"Shape_Leng":605.08396289100006}},{"type":"Feature","id":8,"geometry":{"type":"LineString","coordinates":[[23.698952457357663,38.00658905448482],[23.704895874422693,38.001740399844273]]},"properties":{"FID":8,"Shape_Leng":749.45760585599999}},{"type":"Feature","id":9,"geometry":{"type":"LineString","coordinates":[[23.705070521771116,38.001842400727732],[23.699398963930381,38.006489159342635]]},"properties":{"FID":9,"Shape_Leng":716.76204892500004}},{"type":"Feature","id":10,"geometry":{"type":"LineString","coordinates":[[23.728547705476874,37.983543329792177],[23.734364949512642,37.976630056483387],[23.734391162923959,37.976568393755123],[23.734305649986023,37.976256162555472]]},"properties":{"FID":10,"Shape_Leng":964.27605454100001}},{"type":"Feature","id":11,"geometry":{"type":"LineString","coordinates":[[23.729404224934061,37.983945210846983],[23.730260895943299,37.987455648460539]]},"properties":{"FID":11,"Shape_Leng":396.69258442799998}},{"type":"Feature","id":12,"geometry":{"type":"LineString","coordinates":[[23.730288754308521,37.987601781794076],[23.733307783553748,37.999570342153518],[23.733407035725879,38.000208142959579],[23.733667471681667,38.001210636133877],[23.733867750208638,38.00199868273527],[23.734276715515932,38.003124739046072],[23.734584416336322,38.004170198793133],[23.734864673797791,38.005317393731403],[23.734970699348562,38.00596056511359],[23.735109349701801,38.006946707096681],[23.735198934204647,38.010279439786096]]},"properties":{"FID":12,"Shape_Leng":2558.8542169000002}},{"type":"Feature","id":13,"geometry":{"type":"LineString","coordinates":[[23.735131159775104,38.010295360617391],[23.735037218242475,38.006959685301865],[23.734755754317316,38.005252640654142],[23.734028237592817,38.00270669964803],[23.733788243186293,38.001965498724118],[23.733283373537223,38.000117449477379],[23.733179158551476,37.999681894255133],[23.730165991094399,37.987603273066789],[23.730156137013562,37.987470858008756],[23.729502602071808,37.984827755900483]]},"properties":{"FID":13,"Shape_Leng":2874.24963884}},{"type":"Feature","id":14,"geometry":{"type":"LineString","coordinates":[[23.742231040714678,38.002631970427956],[23.739089512143991,37.999706539100629],[23.738496049067454,37.999040857231279],[23.737910130357015,37.998160878334851],[23.736782416024173,37.997327903822693],[23.734040508373358,37.995409009799459]]},"properties":{"FID":14,"Shape_Leng":1083.52817132}},{"type":"Feature","id":15,"geometry":{"type":"LineString","coordinates":[[23.716662263319051,37.988846610071633],[23.713921376726272,37.992531821458194],[23.713060100674866,37.994052785800385],[23.712348096591914,37.995434310477236],[23.711899308437303,37.996073338634055],[23.710350949620697,37.997327717181932]]},"properties":{"FID":15,"Shape_Leng":1100.60535312}},{"type":"Feature","id":16,"geometry":{"type":"LineString","coordinates":[[23.716763213074067,37.988898651822488],[23.713999814929707,37.992635609385182],[23.713610340739894,37.993331592045649],[23.71317895040524,37.994093396408118],[23.71301676880444,37.9944838460478]]},"properties":{"FID":16,"Shape_Leng":703.09450581099998}},{"type":"Feature","id":17,"geometry":{"type":"LineString","coordinates":[[23.71301676880444,37.9944838460478],[23.712441231528835,37.995584342332911],[23.711974903889637,37.996143570616113],[23.710488266474464,37.997401927132735]]},"properties":{"FID":17,"Shape_Leng":397.62082675599999}},{"type":"Feature","id":18,"geometry":{"type":"LineString","coordinates":[[23.643737389446347,37.946103725021636],[23.646110492276918,37.947251349923143]]},"properties":{"FID":18,"Shape_Leng":244.312195683}},{"type":"Feature","id":19,"geometry":{"type":"LineString","coordinates":[[23.644614245671903,37.944381699353499],[23.646719177523426,37.946883816179088]]},"properties":{"FID":19,"Shape_Leng":333.58154439899999}},{"type":"Feature","id":20,"geometry":{"type":"LineString","coordinates":[[23.72663617614992,37.983563179192046],[23.726823906597836,37.984279381978602]]},"properties":{"FID":20,"Shape_Leng":81.157035870000001}},{"type":"Feature","id":21,"geometry":{"type":"LineString","coordinates":[[23.72498546698457,37.982688167793697],[23.726535838283176,37.98334633190882]]},"properties":{"FID":21,"Shape_Leng":154.49896870800001}},{"type":"Feature","id":22,"geometry":{"type":"LineString","coordinates":[[23.63243004561437,37.93855321856153],[23.632858791772744,37.938531410973425],[23.633180831086502,37.938418615648146],[23.634874630754179,37.937443563183031],[23.635839771649511,37.936958322891606],[23.6363885574401,37.936791248674346],[23.637423269848927,37.936857729936285],[23.63814943494242,37.936989558096691],[23.638476183553642,37.937093030129027],[23.638841045272947,37.937184563468513],[23.639255523617802,37.937246110429825],[23.639380699799798,37.937327866233929],[23.639433251193562,37.937475701952387],[23.639343933898822,37.937843108887336],[23.639254380029243,37.938258734953671],[23.639249410884062,37.938496807347136],[23.639377614260127,37.938738302738585],[23.640014469882932,37.939240538336868],[23.640249432479315,37.939440166290609],[23.640392920602082,37.939669651613414],[23.641263207838556,37.940690962552402],[23.64367900728859,37.943493576365036],[23.643743687936837,37.943644460670697],[23.643670673332174,37.943987997853242],[23.643536761573561,37.944628018140982]]},"properties":{"FID":22,"Shape_Leng":1617.3839964599999}},{"type":"Feature","id":23,"geometry":{"type":"LineString","coordinates":[[23.643864637531237,37.944161687685344],[23.643954158353093,37.943749072304669],[23.64395869114561,37.943598397560045],[23.643856841760623,37.943411235721079],[23.643092385976573,37.942525884265741],[23.640699994781627,37.939811483844082],[23.640455623803032,37.939510479744129],[23.640381282949193,37.939412732049398],[23.639531747876685,37.938783036467186],[23.639455729303801,37.938709971190953],[23.63937085327866,37.938535654777347],[23.639349635115714,37.938412146288087],[23.639605077018107,37.937355677969556]]},"properties":{"FID":23,"Shape_Leng":891.08995984399996}},{"type":"Feature","id":24,"geometry":{"type":"LineString","coordinates":[[23.639488630096675,37.93704490231697],[23.637484849879932,37.93671627279452],[23.636716638723044,37.936623490753355],[23.636019896499217,37.936699695082012],[23.633180960353648,37.938270096904489],[23.632868250642243,37.938404741583206],[23.632426743793403,37.938421445899273]]},"properties":{"FID":24,"Shape_Leng":684.31842157400001}},{"type":"Feature","id":25,"geometry":{"type":"LineString","coordinates":[[23.639981127201846,37.949439222319654],[23.641146657485521,37.949447491976841],[23.641658164192634,37.949430214827245],[23.642045476361027,37.949271287860931],[23.642302303168535,37.949041327187842],[23.642368652008621,37.948848459235592],[23.64235906249289,37.945919423776594],[23.642366332906537,37.945646322699886],[23.642432518725389,37.945486417863208],[23.643541457095054,37.944887027879702]]},"properties":{"FID":25,"Shape_Leng":733.88806726300004}},{"type":"Feature","id":26,"geometry":{"type":"LineString","coordinates":[[23.643407748288588,37.94480099302239],[23.642431319715758,37.945313664945004],[23.642253023347717,37.945415349974802],[23.642132863295235,37.94558279118872],[23.642172273688217,37.94706182787673],[23.642190948068812,37.948704387800781],[23.642163328843601,37.948906226808482],[23.641964268560379,37.949143708478381],[23.641640198098028,37.949260259029103],[23.640665894120239,37.949257287641494],[23.639977044429269,37.949252168040644]]},"properties":{"FID":26,"Shape_Leng":721.55534255299995}},{"type":"Feature","id":27,"geometry":{"type":"LineString","coordinates":[[23.731509224760238,37.985095407745348],[23.733967235691413,37.981990995562832]]},"properties":{"FID":27,"Shape_Leng":406.49256491599999}},{"type":"Feature","id":28,"geometry":{"type":"LineString","coordinates":[[23.735208257394419,37.983902999223865],[23.744936446322132,37.988878356826426]]},"properties":{"FID":28,"Shape_Leng":1017.11699678}},{"type":"Feature","id":29,"geometry":{"type":"LineString","coordinates":[[23.727816104329765,37.983611076057308],[23.727617062599755,37.982738796367173]]},"properties":{"FID":29,"Shape_Leng":98.347930240099998}},{"type":"Feature","id":30,"geometry":{"type":"LineString","coordinates":[[23.724658947016394,37.962890758213049],[23.731396337081517,37.968115674334207]]},"properties":{"FID":30,"Shape_Leng":828.43936129199994}},{"type":"Feature","id":31,"geometry":{"type":"LineString","coordinates":[[23.732342654708404,37.991515660528499],[23.735617228791227,37.990967406559612],[23.742493597913089,37.989838377089207],[23.757618024643889,37.987089561145019]]},"properties":{"FID":31,"Shape_Leng":2273.2466599099998}},{"type":"Feature","id":32,"geometry":{"type":"LineString","coordinates":[[23.76019429733811,37.986749024643935],[23.757747740511061,37.987222268665455],[23.749766208071001,37.988699193214828],[23.741868289831192,37.99010218159119],[23.732379840500631,37.991618754736415]]},"properties":{"FID":32,"Shape_Leng":2501.72063471}},{"type":"Feature","id":33,"geometry":{"type":"LineString","coordinates":[[23.747091875094473,37.988430947147613],[23.735100108766385,37.982541856650641]]},"properties":{"FID":33,"Shape_Leng":1239.3114426699999}},{"type":"Feature","id":34,"geometry":{"type":"LineString","coordinates":[[23.731866725923119,37.989857013396119],[23.732258203668916,37.991429447037092]]},"properties":{"FID":34,"Shape_Leng":177.82085316800001}},{"type":"Feature","id":35,"geometry":{"type":"LineString","coordinates":[[23.73841973373866,37.969047448583311],[23.738997086094312,37.96941641040938],[23.7404490179735,37.970079636689093],[23.742112588931363,37.971195374334336],[23.749287764424132,37.976083950005851]]},"properties":{"FID":35,"Shape_Leng":1235.3885413099999}},{"type":"Feature","id":36,"geometry":{"type":"LineString","coordinates":[[23.748681635162349,37.975889587438537],[23.744085150996771,37.972838250698182],[23.742972474464082,37.9720632538925],[23.741396410752404,37.970911979451763],[23.740339194044545,37.970240089451735],[23.739494832114598,37.969833542725034],[23.738844359254582,37.969542649248638],[23.738490932387883,37.969367065675534],[23.738194685516255,37.969170512754083]]},"properties":{"FID":36,"Shape_Leng":1187.5108348399999}},{"type":"Feature","id":37,"geometry":{"type":"LineString","coordinates":[[23.63243004561437,37.93855321856153],[23.631512776285703,37.938557221240735],[23.630199457902766,37.938649542161208]]},"properties":{"FID":37,"Shape_Leng":196.461289214}},{"type":"Feature","id":38,"geometry":{"type":"LineString","coordinates":[[23.630192330086221,37.938553078991703],[23.631322976992404,37.938463199891629],[23.632426743793403,37.938421445899273]]},"properties":{"FID":38,"Shape_Leng":196.952648654}},{"type":"Feature","id":39,"geometry":{"type":"LineString","coordinates":[[23.717914436283056,38.02047892709497],[23.717916404517631,38.022391948063564],[23.717891653663745,38.02399587823696],[23.717818700759739,38.026041157603288],[23.717700444120482,38.027146808536926]]},"properties":{"FID":39,"Shape_Leng":740.36953832500001}},{"type":"Feature","id":40,"geometry":{"type":"LineString","coordinates":[[23.717616763893382,38.027110442000485],[23.717742369856076,38.026149363091641],[23.717743618471246,38.025823882764676],[23.717772095652148,38.024359276384892],[23.717804173373207,38.022948925369519],[23.717821372115093,38.020493419906778]]},"properties":{"FID":40,"Shape_Leng":734.801794083}},{"type":"Feature","id":41,"geometry":{"type":"LineString","coordinates":[[23.74385529436022,37.968396019337256],[23.741756901504647,37.970573758251732],[23.741527825054447,37.970760109252893]]},"properties":{"FID":41,"Shape_Leng":332.748272633}},{"type":"Feature","id":42,"geometry":{"type":"LineString","coordinates":[[23.827040502835967,38.023247734062736],[23.826044974101883,38.023746545833013],[23.824660090332745,38.02455518558255],[23.823765560097307,38.025092506799034],[23.821231253534908,38.026869259821531],[23.820448661276913,38.027383110325502],[23.819759110791534,38.027882383020348]]},"properties":{"FID":42,"Shape_Leng":821.61396881400003}},{"type":"Feature","id":43,"geometry":{"type":"LineString","coordinates":[[23.67567840940627,37.944658308074374],[23.672555768915384,37.944833606130764],[23.669926402876708,37.944818902633301],[23.668151725305901,37.944828626463917]]},"properties":{"FID":43,"Shape_Leng":662.02591314899996}},{"type":"Feature","id":44,"geometry":{"type":"LineString","coordinates":[[23.729420010027557,37.990195166693866],[23.726895816180445,37.990561342639964]]},"properties":{"FID":44,"Shape_Leng":225.34193189600001}},{"type":"Feature","id":45,"geometry":{"type":"LineString","coordinates":[[23.64540516368017,37.945144885751716],[23.650854499060781,37.942203329278378]]},"properties":{"FID":45,"Shape_Leng":579.46515145700005}},{"type":"Feature","id":46,"geometry":{"type":"LineString","coordinates":[[23.633161772029691,37.935284636059201],[23.641163825187363,37.936515995914]]},"properties":{"FID":46,"Shape_Leng":716.33168363799996}},{"type":"Feature","id":47,"geometry":{"type":"LineString","coordinates":[[23.641322314444892,37.936554739793777],[23.641547655410136,37.9366778604752],[23.647750662528978,37.94382133921053]]},"properties":{"FID":47,"Shape_Leng":985.97452923699996}},{"type":"Feature","id":48,"geometry":{"type":"LineString","coordinates":[[23.6446099412255,37.940336452084075],[23.64233593955954,37.941562194824925]]},"properties":{"FID":48,"Shape_Leng":241.70603118700001}},{"type":"Feature","id":49,"geometry":{"type":"LineString","coordinates":[[23.678239988117021,37.992326609122692],[23.679372039186603,37.991981235536493],[23.682219097799535,37.991320286321347],[23.685405901070432,37.990509489790639]]},"properties":{"FID":49,"Shape_Leng":661.00031858499995}},{"type":"Feature","id":50,"geometry":{"type":"LineString","coordinates":[[23.685471909985999,37.990601773900828],[23.679464060016414,37.992056264915043],[23.678842472468698,37.992253477151095]]},"properties":{"FID":50,"Shape_Leng":610.47820942099997}},{"type":"Feature","id":51,"geometry":{"type":"LineString","coordinates":[[23.761332392821998,37.980228034557626],[23.760760040061189,37.980202598911006],[23.75872932488344,37.980182269370083],[23.758232562796486,37.979965489412734],[23.758011361655644,37.979881427565992],[23.756701504603011,37.979285385601486],[23.755929122468089,37.978960145493396],[23.755683933077055,37.978919181502668],[23.755289012267657,37.97882126859907],[23.754975777083612,37.978750494550773],[23.75432563755108,37.978554954504503],[23.754124789648671,37.978500594855717],[23.753631144226841,37.978378196986277],[23.752946812677539,37.978220335715804],[23.752470171033703,37.978108756687178],[23.75234756510666,37.978092316628981],[23.752238479358006,37.978108268931962],[23.752161146483743,37.978133129884043]]},"properties":{"FID":51,"Shape_Leng":855.95386597900006}},{"type":"Feature","id":52,"geometry":{"type":"LineString","coordinates":[[23.827886724497041,38.013951705342812],[23.827132115712239,38.013950598514299],[23.824726059580605,38.013842663679199],[23.821792425137865,38.013687957033106],[23.820689661741316,38.013636181538089],[23.820320376455218,38.013593868532752],[23.81908852322821,38.013248633212818],[23.816665351408322,38.01256887487115],[23.816013958291759,38.012404868055356],[23.815261299348151,38.012221994880115],[23.812986391370178,38.011700039113208],[23.811548540344578,38.011377108662721],[23.81078575108701,38.011202206478941],[23.810367233410101,38.011105341817306],[23.809472956179274,38.010847388264906],[23.809199658416642,38.010750754625263],[23.808848826477004,38.010600555152841],[23.807462538250057,38.009946335467433],[23.806568804855562,38.009490635630961],[23.806076373240121,38.009254692150066],[23.805266849364472,38.008887295910377],[23.804534898558046,38.008560102450311],[23.803880454525785,38.008297160759632],[23.803030256752677,38.007993808314978],[23.801785419959163,38.007518779741375],[23.801340092485702,38.007357710672601],[23.80085419291558,38.007215274949033],[23.80014201061752,38.007083140739688],[23.799578314585396,38.006988662814159],[23.799227279856073,38.006926608959418],[23.79866718964923,38.006749302022044],[23.797164214279249,38.006220844057367],[23.796241741759548,38.005893604153428],[23.795504008523633,38.005545803671595],[23.795224802002977,38.005386670128495],[23.792529116644584,38.003319524810287],[23.791807751089976,38.002796382351058],[23.791338940550144,38.002524180307596],[23.790980647909571,38.002352371465243],[23.790601216811172,38.002193048721622],[23.789515384094521,38.001823715535181],[23.787754814092036,38.001248584412757],[23.78747550812281,38.001135356585557],[23.786832832626501,38.000787673259396],[23.785463424746816,37.999975244316246],[23.785184261100351,37.999816086912588],[23.784831552542045,37.999548245781895],[23.784336775705643,37.99915071990263],[23.784015728762981,37.998882934354029],[23.783389408044052,37.998368264372345],[23.782757844889002,37.997845231447783],[23.78257576061397,37.997689420039265],[23.782083817116117,37.997341154176468],[23.781378567656144,37.996836513987091],[23.780952138814598,37.996530949557339],[23.780141123316728,37.996045142627352],[23.779440732189844,37.995617986821799]]},"properties":{"FID":52,"Shape_Leng":4838.7845736099998}},{"type":"Feature","id":53,"geometry":{"type":"LineString","coordinates":[[23.827944670232302,38.013853940068849],[23.827190062447439,38.013852833614564],[23.824784009421286,38.013744899970831],[23.821850378746472,38.013590194777137],[23.820747616771303,38.013538419828265],[23.820378331941384,38.013496107005345],[23.819146480074288,38.013150872290147],[23.816723310928765,38.012471115138183],[23.816071918545919,38.012307108642581],[23.815319260455333,38.012124235837426],[23.813044355079892,38.011602281189802],[23.811606505704646,38.011279351446959],[23.810843717319724,38.011104449638538],[23.810425200120886,38.011007585182846],[23.809530923871133,38.010749632069533],[23.809257626394196,38.010652998563749],[23.808906794800567,38.010502799262675],[23.807520507892626,38.009848580253198],[23.806626775321519,38.00939288085187],[23.806134344171742,38.009156937611046],[23.805324821077825,38.00878954176639],[23.804592870982159,38.008462348663592],[23.803938427608852,38.008199407292906],[23.8030882307221,38.007896055264744],[23.801843395201828,38.00742102730036],[23.801398068190863,38.007259958449737],[23.800912169151793,38.007117522964791],[23.800199987692871,38.006985389106653],[23.799636292332945,38.00689091145933],[23.799285258019665,38.006828857777776],[23.798725168414496,38.006651551115269],[23.797222194617238,38.006123093887162],[23.796299723060471,38.00579585443527],[23.795561990526299,38.005448054313355],[23.795282784249402,38.00528892090594],[23.792587100822967,38.003221776887784],[23.7918657358091,38.002698634777033],[23.791396925674462,38.002426432961322],[23.791038633372306,38.002254624293755],[23.790659202650225,38.002095301735636],[23.789573371079229,38.001725969081775],[23.787812802952992,38.001150838823307],[23.787533497263968,38.001037611132794],[23.786890822343182,38.000689928119399],[23.785521415632932,37.999877499841375],[23.785242252229981,37.999718342573431],[23.784889543926347,37.999450501612941],[23.78439476742987,37.999052975972049],[23.784073720699954,37.998785190577877],[23.783447400402203,37.998270520897705],[23.782815837668604,37.997747488277099],[23.782633753511078,37.997591676956105],[23.782141810388431,37.997243411331191],[23.781436561462066,37.996738771482768],[23.781010132942793,37.996433207259159],[23.78019911813352,37.995947400723075],[23.779498727595229,37.995520245257566]]},"properties":{"FID":53,"Shape_Leng":4838.7845736099998}}]}