{"type":"FeatureCollection","features":[{"type":"Feature","id":3,"geometry":{"type":"LineString","coordinates":[[23.793494200000055,38.045490100000052],[23.793454900000029,38.045517400000051],[23.792571200000054,38.044709200000057],[23.792604100000062,38.044682100000045],[23.793494200000055,38.045490100000052]]},"properties":{"OBJECTID":3,"length":246.30182001351625}},{"type":"Feature","id":4,"geometry":{"type":"LineString","coordinates":[[23.792487900000026,38.044769400000064],[23.79337060000006,38.045569600000078],[23.793343600000071,38.04558970000005],[23.793331600000045,38.045598600000062],[23.792468500000041,38.044814900000063],[23.792448000000036,38.04479630000003],[23.792459400000041,38.044788600000061],[23.792487900000026,38.044769400000064]]},"properties":{"OBJECTID":4,"length":245.26177063089628}},{"type":"Feature","id":5,"geometry":{"type":"LineString","coordinates":[[23.755457100000058,38.041594600000053],[23.754283500000042,38.04132020000003]]},"properties":{"OBJECTID":5,"length":107.43009563458502}},{"type":"Feature","id":6,"geometry":{"type":"LineString","coordinates":[[23.754255600000079,38.041415200000074],[23.755422400000043,38.041685200000074]]},"properties":{"OBJECTID":6,"length":106.71949548950516}},{"type":"Feature","id":7,"geometry":{"type":"LineString","coordinates":[[23.750476300000059,38.03749010000007],[23.75027730000005,38.037314400000071],[23.750072300000056,38.037151000000051],[23.749657500000069,38.036834800000065]]},"properties":{"OBJECTID":7,"length":102.30816839378943}},{"type":"Feature","id":8,"geometry":{"type":"LineString","coordinates":[[23.736591300000043,38.024138200000039],[23.735548300000062,38.023460900000032]]},"properties":{"OBJECTID":8,"length":118.48457933884384}},{"type":"Feature","id":9,"geometry":{"type":"LineString","coordinates":[[23.731444700000054,38.019427600000029],[23.731975200000022,38.020326300000079]]},"properties":{"OBJECTID":9,"length":110.09345365195401}},{"type":"Feature","id":10,"geometry":{"type":"LineString","coordinates":[[23.744478800000024,38.032421400000032],[23.744571700000051,38.032564800000046],[23.744691000000046,38.03272620000007],[23.74485020000003,38.032919100000072],[23.745140800000058,38.033223000000078]]},"properties":{"OBJECTID":10,"length":106.49985454133669}},{"type":"Feature","id":11,"geometry":{"type":"LineString","coordinates":[[23.735468700000069,38.023551200000043],[23.736498500000039,38.024215100000049]]},"properties":{"OBJECTID":11,"length":116.64567961092193}},{"type":"Feature","id":12,"geometry":{"type":"LineString","coordinates":[[23.749756400000024,38.036756900000057],[23.750178500000061,38.037077900000043],[23.750373800000034,38.037235500000065],[23.750575200000071,38.037429300000042]]},"properties":{"OBJECTID":12,"length":103.74528987306047}},{"type":"Feature","id":13,"geometry":{"type":"LineString","coordinates":[[23.731865500000026,38.020360500000038],[23.731347000000028,38.019466600000044]]},"properties":{"OBJECTID":13,"length":109.16729635504832}},{"type":"Feature","id":14,"geometry":{"type":"LineString","coordinates":[[23.745017800000028,38.033253400000035],[23.744841800000074,38.033072900000036],[23.744677800000034,38.032886800000028],[23.74451380000005,38.032681600000046],[23.744371500000057,38.032464100000027]]},"properties":{"OBJECTID":14,"length":104.60918928561966}},{"type":"Feature","id":15,"geometry":{"type":"LineString","coordinates":[[23.727787200000023,38.007425000000069],[23.72770040000006,38.00712580000004],[23.727623900000026,38.006925200000069],[23.727520800000036,38.006709500000056],[23.727389900000048,38.006479900000045]]},"properties":{"OBJECTID":15,"length":110.88613029707389}},{"type":"Feature","id":16,"geometry":{"type":"LineString","coordinates":[[23.722955100000036,38.000139800000056],[23.722935900000039,37.999956000000054],[23.722928100000047,37.999883900000043],[23.722890000000064,37.999521600000037],[23.722858500000029,37.999222100000054]]},"properties":{"OBJECTID":16,"length":102.21424447546724}},{"type":"Feature","id":17,"geometry":{"type":"LineString","coordinates":[[23.727470800000049,38.006454400000052],[23.727584100000058,38.006646900000078],[23.727688600000079,38.006835900000056],[23.727763700000025,38.00700640000008],[23.727821100000028,38.007188400000075],[23.727871100000073,38.007346100000063]]},"properties":{"OBJECTID":17,"length":105.37702162137774}},{"type":"Feature","id":18,"geometry":{"type":"LineString","coordinates":[[23.722719500000039,37.999066400000061],[23.722774600000037,37.999528700000042],[23.722818000000075,37.999893100000065]]},"properties":{"OBJECTID":18,"length":92.167727842565498}},{"type":"Feature","id":19,"geometry":{"type":"LineString","coordinates":[[23.808294100000069,38.073019600000066],[23.808232100000055,38.073717200000033],[23.808223400000031,38.07381520000007]]},"properties":{"OBJECTID":19,"length":88.527526964339188}},{"type":"Feature","id":20,"geometry":{"type":"LineString","coordinates":[[23.808223400000031,38.07381520000007],[23.808133800000064,38.073813600000051],[23.808192000000076,38.073010200000056],[23.808195500000068,38.072780500000079]]},"properties":{"OBJECTID":20,"length":122.68374464296564}},{"type":"Feature","id":21,"geometry":{"type":"LineString","coordinates":[[23.720741100000055,37.97669060000004],[23.720691500000044,37.976708600000052],[23.720667400000025,37.976717600000029],[23.720549000000062,37.976752200000078],[23.720350000000053,37.97680930000007],[23.719744200000036,37.976994200000036],[23.719598800000028,37.977040700000032]]},"properties":{"OBJECTID":21,"length":107.6449977279125}},{"type":"Feature","id":22,"geometry":{"type":"LineString","coordinates":[[23.720682500000066,37.976596700000073],[23.720620900000029,37.976618600000052],[23.720506100000023,37.976658100000066],[23.720436000000063,37.976681100000064],[23.720372000000054,37.976702000000046],[23.719691300000022,37.976909900000067],[23.719544600000063,37.976959900000054]]},"properties":{"OBJECTID":22,"length":107.81799526399354}},{"type":"Feature","id":29,"geometry":{"type":"LineString","coordinates":[[23.67979900000006,37.955135400000074],[23.679916900000023,37.955172700000048],[23.680992300000071,37.955513500000052]]},"properties":{"OBJECTID":29,"length":112.95941225146436}},{"type":"Feature","id":30,"geometry":{"type":"LineString","coordinates":[[23.679852200000028,37.955031200000064],[23.679970000000026,37.955068500000039],[23.681045400000073,37.955409300000042]]},"properties":{"OBJECTID":30,"length":112.95138874776384}},{"type":"Feature","id":31,"geometry":{"type":"LineString","coordinates":[[23.708915000000047,37.967978900000048],[23.709454400000027,37.968955700000038]]},"properties":{"OBJECTID":31,"length":118.32814743003136}},{"type":"Feature","id":32,"geometry":{"type":"LineString","coordinates":[[23.708793300000025,37.968020100000047],[23.709332900000049,37.968997400000035]]},"properties":{"OBJECTID":32,"length":118.38602821192566}},{"type":"Feature","id":138,"geometry":{"type":"LineString","coordinates":[[23.644211898000037,37.948157602000038],[23.64306459200003,37.94817378700003],[23.642973895000068,37.948175075000051],[23.642970557000069,37.947986270000058],[23.643103992000079,37.947984987000041],[23.643279992000032,37.947981887000026],[23.643310392000046,37.94798148700005],[23.643386692000036,37.947980287000064],[23.643563791000076,37.947977887000036],[23.644064592000063,37.947970687000065],[23.644215691000056,37.947968587000048],[23.644215730000042,37.947970252000061],[23.644214993000048,37.947998508000069],[23.643073992000041,37.948014688000058],[23.643060891000061,37.94801478800008],[23.64306139200005,37.948036388000048],[23.644216892000031,37.948019988000055],[23.644218292000062,37.94808378700003],[23.643062892000046,37.94810018700008],[23.643063391000055,37.948121687000025],[23.644218792000061,37.948105387000055],[23.64421997900007,37.94815690300004]]},"properties":{"OBJECTID":138,"length":666.32781083372697}},{"type":"Feature","id":139,"geometry":{"type":"LineString","coordinates":[[23.664753758000074,37.944676284000025],[23.66576966100007,37.945292205000044]]},"properties":{"OBJECTID":139,"length":112.46087338145337}},{"type":"Feature","id":140,"geometry":{"type":"LineString","coordinates":[[23.664699706000079,37.944720553000025],[23.665738039000075,37.945338315000072]]},"properties":{"OBJECTID":140,"length":114.15519843811956}},{"type":"Feature","id":141,"geometry":{"type":"LineString","coordinates":[[23.664654604000077,37.944770178000056],[23.66567948200003,37.945386125000027]]},"properties":{"OBJECTID":141,"length":113.08993237630426}},{"type":"Feature","id":142,"geometry":{"type":"LineString","coordinates":[[23.696388132000038,37.96016601000008],[23.696376192000059,37.960188887000072],[23.697581692000028,37.960580087000039],[23.697594792000075,37.96055498700008],[23.696389931000056,37.960163995000073]]},"properties":{"OBJECTID":142,"length":234.68595796023544}},{"type":"Feature","id":143,"geometry":{"type":"LineString","coordinates":[[23.696331287000078,37.960279938000042],[23.697535091000077,37.960670687000061],[23.697548192000056,37.960645587000045],[23.69634269200003,37.960254387000077],[23.696329591000051,37.96027938800006]]},"properties":{"OBJECTID":143,"length":234.84642541083997}},{"type":"Feature","id":144,"geometry":{"type":"LineString","coordinates":[[23.702825962000077,37.962178634000054],[23.702827192000029,37.962175887000058],[23.702925992000075,37.962202787000024],[23.703005092000069,37.962230587000079],[23.703114892000031,37.962271587000032],[23.703205191000052,37.96230588700007],[23.703363692000039,37.962374587000056],[23.703700491000063,37.962525687000038],[23.703796092000061,37.96257018700004],[23.703737892000049,37.962651888000039],[23.703441992000023,37.962520787000074],[23.703307691000077,37.962461487000041],[23.703145991000042,37.962388787000066],[23.703080992000025,37.962361687000055],[23.703014792000033,37.962333787000034],[23.702873992000036,37.962276387000031],[23.702792191000071,37.962244487000078],[23.702794392000044,37.962240187000077],[23.702824192000037,37.962182587000029],[23.702826210000069,37.962178079000068]]},"properties":{"OBJECTID":144,"length":209.21742912465871}},{"type":"Feature","id":145,"geometry":{"type":"LineString","coordinates":[[23.724976985000069,37.975821933000077],[23.725131392000037,37.975880887000073],[23.725281092000046,37.97595308800004],[23.725427292000063,37.976035087000071],[23.725551392000057,37.976105487000041],[23.725718392000033,37.976219487000037],[23.725851191000061,37.976315087000046],[23.725833892000026,37.976329988000032],[23.725701292000053,37.976234587000079],[23.725535491000073,37.976121387000035],[23.725412291000055,37.976051487000063],[23.725266992000059,37.975969987000042],[23.725119092000057,37.975898587000074],[23.724958591000075,37.975837287000047],[23.724969792000024,37.97581918700007],[23.724970044000031,37.975819283000078]]},"properties":{"OBJECTID":145,"length":194.09951204044}},{"type":"Feature","id":146,"geometry":{"type":"LineString","coordinates":[[23.724918788000025,37.975909853000076],[23.724920092000048,37.975907487000029],[23.725085291000028,37.97597238700007],[23.725231192000024,37.976040088000047],[23.725359591000029,37.976106387000073],[23.725438292000035,37.976152588000048],[23.725511892000043,37.976195788000041],[23.725624691000064,37.976267887000063],[23.725771092000059,37.976375288000042],[23.725755592000041,37.976388387000043],[23.725609792000057,37.976281487000051],[23.725497891000032,37.976209987000061],[23.725423892000038,37.97616658700008],[23.725346491000039,37.976121087000024],[23.725282692000064,37.976086887000065],[23.725219091000042,37.976055388000077],[23.725069992000044,37.975988787000063],[23.724909292000063,37.975927087000059],[23.724920092000048,37.975907487000029]]},"properties":{"OBJECTID":146,"length":186.87398633754032}},{"type":"Feature","id":147,"geometry":{"type":"LineString","coordinates":[[23.728069004000076,37.983907096000053],[23.728190950000055,37.984028712000054],[23.728219349000028,37.984057033000056],[23.728252091000058,37.984089687000051],[23.728275792000034,37.984214787000042],[23.728282492000062,37.984365087000072],[23.728225692000024,37.984510287000035],[23.728195692000043,37.984514187000059],[23.728227692000075,37.984370888000058],[23.728205592000052,37.984192587000052],[23.72818329100005,37.98410758700004],[23.728152648000048,37.984065077000025],[23.728131593000057,37.984035869000024],[23.728040492000048,37.983909487000062],[23.728067692000025,37.983905787000026]]},"properties":{"OBJECTID":147,"length":149.56393887683944}},{"type":"Feature","id":148,"geometry":{"type":"LineString","coordinates":[[23.727999945000079,37.98391790200003],[23.728003191000028,37.983917387000076],[23.728066193000075,37.984043755000073],[23.728081124000028,37.984073701000057],[23.728142092000041,37.984195987000078],[23.728156591000072,37.98437868700006],[23.728162591000057,37.984521287000064],[23.728092192000076,37.984532787000035],[23.728000791000056,37.984362687000043],[23.727954191000038,37.984194787000035],[23.727942691000067,37.984126287000038],[23.727942120000023,37.98409076300004],[23.727941610000073,37.984059039000044],[23.727939492000075,37.983927487000074],[23.728002986000035,37.983917420000068]]},"properties":{"OBJECTID":148,"length":151.03007109411402}},{"type":"Feature","id":149,"geometry":{"type":"LineString","coordinates":[[23.727901892000034,37.983935388000077],[23.727887791000057,37.984065868000073],[23.727884308000057,37.984098101000029],[23.727880592000076,37.984132487000068],[23.727895491000027,37.984223887000041],[23.727957992000029,37.984419987000024],[23.728052691000073,37.984539887000039],[23.728023892000067,37.984544787000061],[23.727897392000045,37.984407087000079],[23.727821892000065,37.984224987000061],[23.72784439000003,37.984103169000036],[23.727850402000058,37.984070613000029],[23.727874692000057,37.983939088000056],[23.727901892000034,37.983935388000077]]},"properties":{"OBJECTID":149,"length":147.5827871577639}},{"type":"Feature","id":150,"geometry":{"type":"LineString","coordinates":[[23.730227622000029,37.992644952000035],[23.730227292000052,37.992643687000054],[23.730193792000023,37.992649087000075],[23.730411792000041,37.993484988000034],[23.730445291000024,37.993479587000024],[23.730228865000072,37.992649718000052]]},"properties":{"OBJECTID":150,"length":194.94074415000182}},{"type":"Feature","id":151,"geometry":{"type":"LineString","coordinates":[[23.730117829000051,37.992661429000066],[23.73012119200007,37.992660887000056],[23.730339192000031,37.993496787000026],[23.730305692000059,37.993502187000047],[23.730087691000051,37.992666287000077],[23.73011179100007,37.992662403000054]]},"properties":{"OBJECTID":151,"length":194.93968596424287}},{"type":"Feature","id":152,"geometry":{"type":"LineString","coordinates":[[23.728570028000036,38.011159775000067],[23.728709528000024,38.012041875000079]]},"properties":{"OBJECTID":152,"length":98.673623944944922}},{"type":"Feature","id":153,"geometry":{"type":"LineString","coordinates":[[23.728460096000049,38.011166739000032],[23.728611221000051,38.012055530000055]]},"properties":{"OBJECTID":153,"length":99.541562989056104}},{"type":"Feature","id":154,"geometry":{"type":"LineString","coordinates":[[23.765498126000068,38.046501368000065],[23.76566440296957,38.046402808931568],[23.765833535105436,38.046309234142292],[23.766005373043896,38.046220726269901],[23.766179765031637,38.046137363477349],[23.766356557059815,38.046059219383899],[23.766535593000071,38.045986363000054]]},"properties":{"OBJECTID":154,"length":107.70320194026566}},{"type":"Feature","id":155,"geometry":{"type":"LineString","coordinates":[[23.766600471000061,38.046075335000069],[23.766338994719256,38.046190908463238],[23.766079631385765,38.046311148772844],[23.765822464285726,38.04643601731761],[23.765567576000024,38.046565474000033]]},"properties":{"OBJECTID":155,"length":105.76432335607996}},{"type":"Feature","id":156,"geometry":{"type":"LineString","coordinates":[[23.783743120000054,38.042944516000034],[23.783775891000062,38.042977288000031],[23.782800491000046,38.043582687000026],[23.782747592000078,38.043529787000068],[23.782855091000044,38.043458587000032],[23.782963692000067,38.04338838700005],[23.783073391000073,38.043319287000031],[23.783401291000075,38.043115787000033],[23.783482292000031,38.043068087000051],[23.783565292000048,38.043022587000053],[23.783650291000072,38.042979487000025],[23.783737191000057,38.042938587000037],[23.783739710000077,38.042941106000058]]},"properties":{"OBJECTID":156,"length":230.31212945854966}},{"type":"Feature","id":157,"geometry":{"type":"LineString","coordinates":[[23.783885062000024,38.04308635700005],[23.783939991000068,38.043141287000026],[23.783623391000049,38.043337787000041],[23.783455892000063,38.04344168700004],[23.783295492000036,38.043541287000039],[23.782964592000042,38.043746587000044],[23.782908692000035,38.04369078700006],[23.783884192000073,38.043085487000042]]},"properties":{"OBJECTID":157,"length":233.35183232742688}},{"type":"Feature","id":158,"geometry":{"type":"LineString","coordinates":[[23.783800628000051,38.043004024000027],[23.783861109000043,38.04306632600003],[23.782888709000076,38.043666895000058],[23.782828208000069,38.043611700000042]]},"properties":{"OBJECTID":158,"length":125.13015587571236}},{"type":"Feature","id":159,"geometry":{"type":"LineString","coordinates":[[23.804426991000071,38.055924087000051],[23.805266492000044,38.056323187000032],[23.805413391000059,38.056398487000024],[23.80555699100006,38.056478887000026],[23.805528791000029,38.056508787000041],[23.805385292000039,38.056427187000054],[23.805243092000069,38.056351087000053],[23.804402892000041,38.055953687000056],[23.804426991000071,38.055924087000051],[23.804428269000027,38.055924694000055]]},"properties":{"OBJECTID":159,"length":241.46670618523507}},{"type":"Feature","id":160,"geometry":{"type":"LineString","coordinates":[[23.80435643800007,38.056010885000035],[23.804359992000059,38.056006487000047],[23.805250391000072,38.05643488700008],[23.805479992000073,38.056560687000058],[23.805457991000026,38.056584187000055],[23.805232391000061,38.056460987000037],[23.804335992000063,38.056036187000075],[23.804359048000038,38.05600765500003]]},"properties":{"OBJECTID":160,"length":239.3594263247011}},{"type":"Feature","id":161,"geometry":{"type":"LineString","coordinates":[[23.804079314000035,38.065528241000038],[23.804136191000055,38.065743287000032],[23.804219092000039,38.066059087000042],[23.804287391000059,38.066310387000044],[23.804298192000033,38.06635658700003],[23.804256892000069,38.066363387000024],[23.804245992000062,38.066317387000026],[23.80417759200003,38.066066087000024],[23.804094492000047,38.065750087000026],[23.804036992000078,38.065532687000029],[23.804078692000076,38.065525887000035]]},"properties":{"OBJECTID":161,"length":195.57465672034058}},{"type":"Feature","id":162,"geometry":{"type":"LineString","coordinates":[[23.803944116000025,38.065554424000027],[23.803954591000036,38.06555258700007],[23.804014692000067,38.065765487000078],[23.804099791000056,38.066084887000045],[23.804169191000028,38.06633118700006],[23.804181491000065,38.06637648700007],[23.804141892000075,38.066382787000066],[23.804128791000039,38.066338187000042],[23.804059391000067,38.066091887000027],[23.80397079100004,38.065773187000048],[23.803910691000056,38.065560287000039],[23.803945287000033,38.065554219000035]]},"properties":{"OBJECTID":162,"length":194.71417762916687}}]}