{"type":"FeatureCollection","features":[{"type":"Feature","id":1,"geometry":{"type":"Point","coordinates":[23.143656200000066,38.617642300000057]},"properties":{"OBJECTID":1,"name":"Μετωπικά Διόδια Τραγάνας","name_en":null,"operator":null,"charge":"3,85\u20AC"}},{"type":"Feature","id":2,"geometry":{"type":"Point","coordinates":[23.886797200000046,37.938547400000061]},"properties":{"OBJECTID":2,"name":"ΚΟΡΩΠΙΟΥ ΔΥΤ.","name_en":null,"operator":"Νέα Αττική Οδός","charge":null}},{"type":"Feature","id":3,"geometry":{"type":"Point","coordinates":[23.495700700000043,38.042237300000068]},"properties":{"OBJECTID":3,"name":"Διόδια Ελευσίνας 2.40\u20AC","name_en":"Elefsina Toll Station","operator":"Ολυμπία Οδός","charge":null}},{"type":"Feature","id":4,"geometry":{"type":"Point","coordinates":[23.748553300000026,38.062902800000074]},"properties":{"OBJECTID":4,"name":"Διόδια ΜΕΤΑΜΟΡΦΩΣΗ ΔΥΤ.","name_en":null,"operator":"Νέα Αττική Οδός","charge":"2.80\u20AC"}},{"type":"Feature","id":5,"geometry":{"type":"Point","coordinates":[23.748593700000072,38.063165100000049]},"properties":{"OBJECTID":5,"name":"Διόδια ΜΕΤΑΜΟΡΦΩΣΗ ΔΥΤ. 2.80\u20AC","name_en":null,"operator":"Νέα Αττική Οδός","charge":"2.80\u20AC"}},{"type":"Feature","id":6,"geometry":{"type":"Point","coordinates":[23.854780600000026,38.202843500000029]},"properties":{"OBJECTID":6,"name":"Πλευρικά Διόδια Καπανδριτίου 2,25\u20AC","name_en":null,"operator":null,"charge":"2.25\u20AC"}},{"type":"Feature","id":7,"geometry":{"type":"Point","coordinates":[25.533511800000042,41.013445200000035]},"properties":{"OBJECTID":7,"name":"Μετωπικά Μέστης 2,20\u20AC","name_en":null,"operator":null,"charge":null}},{"type":"Feature","id":8,"geometry":{"type":"Point","coordinates":[22.808018100000027,37.835824900000034]},"properties":{"OBJECTID":8,"name":"Μετωπικά Διόδια Σπαθοβουνίου","name_en":"Toll station Spathovouni","operator":null,"charge":null}},{"type":"Feature","id":9,"geometry":{"type":"Point","coordinates":[22.768296500000076,39.388533100000075]},"properties":{"OBJECTID":9,"name":"Πλευρικά διόδια Βελεστίνου","name_en":null,"operator":"Αυτοκινητόδρομος Αιγαίου","charge":null}},{"type":"Feature","id":10,"geometry":{"type":"Point","coordinates":[22.502562700000055,39.804513100000065]},"properties":{"OBJECTID":10,"name":"Μετωπικά Διόδια Μακρυχωρίου","name_en":"Makrychori","operator":null,"charge":"2,50\u20AC"}},{"type":"Feature","id":11,"geometry":{"type":"Point","coordinates":[21.766103500000042,38.33387700000003]},"properties":{"OBJECTID":11,"name":null,"name_en":null,"operator":null,"charge":null}},{"type":"Feature","id":12,"geometry":{"type":"Point","coordinates":[23.682515400000057,40.709599400000059]},"properties":{"OBJECTID":12,"name":"Πλευρικά Ασπροβάλτας 0,35\u20AC","name_en":null,"operator":null,"charge":null}},{"type":"Feature","id":13,"geometry":{"type":"Point","coordinates":[22.446442400000024,37.600784500000032]},"properties":{"OBJECTID":13,"name":"Διόδια Νεστάνης","name_en":"Toll Station Nestani","operator":null,"charge":null}},{"type":"Feature","id":14,"geometry":{"type":"Point","coordinates":[24.946655100000044,41.096219800000028]},"properties":{"OBJECTID":14,"name":"Πλευρικά Βαφέικων 0,35\u20AC","name_en":null,"operator":null,"charge":null}},{"type":"Feature","id":15,"geometry":{"type":"Point","coordinates":[23.805422500000077,38.041201500000057]},"properties":{"OBJECTID":15,"name":"ΚΗΦΙΣΙΑΣ ΑΝ.","name_en":null,"operator":"Νέα Αττική Οδός","charge":null}},{"type":"Feature","id":16,"geometry":{"type":"Point","coordinates":[23.834825900000055,38.023990800000036]},"properties":{"OBJECTID":16,"name":"ΠΛΑΚΕΝΤΙΑΣ ΑΝ.","name_en":null,"operator":"Νέα Αττική Οδός","charge":null}},{"type":"Feature","id":17,"geometry":{"type":"Point","coordinates":[23.833838300000025,38.025219700000036]},"properties":{"OBJECTID":17,"name":"ΠΛΑΚΕΝΤΙΑΣ ΔΥΤ.","name_en":null,"operator":"Νέα Αττική Οδός","charge":null}},{"type":"Feature","id":18,"geometry":{"type":"Point","coordinates":[23.829304200000024,38.027096200000074]},"properties":{"OBJECTID":18,"name":"ΠΕΝΤΕΛΗΣ ΑΝ.","name_en":null,"operator":"Νέα Αττική Οδός","charge":null}},{"type":"Feature","id":19,"geometry":{"type":"Point","coordinates":[23.849351200000058,37.997482600000069]},"properties":{"OBJECTID":19,"name":"ΓΛΥΚΑ ΝΕΡΑ ΝΟΤ.","name_en":null,"operator":null,"charge":null}},{"type":"Feature","id":20,"geometry":{"type":"Point","coordinates":[23.851279700000077,37.997130100000049]},"properties":{"OBJECTID":20,"name":null,"name_en":null,"operator":null,"charge":null}},{"type":"Feature","id":21,"geometry":{"type":"Point","coordinates":[23.885780900000043,37.953299700000059]},"properties":{"OBJECTID":21,"name":"ΠΑΙΑΝΙΑΣ ΑΝ.","name_en":null,"operator":"Νέα Αττική Οδός","charge":null}},{"type":"Feature","id":22,"geometry":{"type":"Point","coordinates":[23.886734400000023,37.957403600000077]},"properties":{"OBJECTID":22,"name":"ΠΑΙΑΝΙΑΣ ΔΥΤ.","name_en":null,"operator":"Νέα Αττική Οδός","charge":null}},{"type":"Feature","id":23,"geometry":{"type":"Point","coordinates":[23.870445400000051,37.982378400000073]},"properties":{"OBJECTID":23,"name":"ΚΑΝΤΖΑ ΔΥΤ.","name_en":null,"operator":"Νέα Αττική Οδός","charge":null}},{"type":"Feature","id":24,"geometry":{"type":"Point","coordinates":[23.869954500000063,37.979967600000066]},"properties":{"OBJECTID":24,"name":"ΚΑΝΤΖΑ ΑΝ.","name_en":null,"operator":"Νέα Αττική Οδός","charge":null}},{"type":"Feature","id":26,"geometry":{"type":"Point","coordinates":[23.887108600000033,37.994060600000068]},"properties":{"OBJECTID":26,"name":"ΠΑΛΛΗΝΗΣ ΝΟΤ.","name_en":null,"operator":null,"charge":null}},{"type":"Feature","id":27,"geometry":{"type":"Point","coordinates":[23.869153800000049,38.008178900000075]},"properties":{"OBJECTID":27,"name":"ΜΑΡΑΘΩΝΟΣ ΔΥΤ.","name_en":null,"operator":"Νέα Αττική Οδός","charge":null}},{"type":"Feature","id":28,"geometry":{"type":"Point","coordinates":[23.591121500000042,38.093957900000078]},"properties":{"OBJECTID":28,"name":"ΡΟΥΠΑΚΙΟΥ ΑΝ.","name_en":null,"operator":"Νέα Αττική Οδός","charge":null}},{"type":"Feature","id":29,"geometry":{"type":"Point","coordinates":[23.731463200000064,38.067457200000035]},"properties":{"OBJECTID":29,"name":"ΔΗΜΟΚΡΑΤΙΑΣ ΔΥΤ.","name_en":null,"operator":"Νέα Αττική Οδός","charge":null}},{"type":"Feature","id":30,"geometry":{"type":"Point","coordinates":[23.768802900000026,38.058608600000071]},"properties":{"OBJECTID":30,"name":"ΗΡΑΚΛΕΙΟΥ ΔΥΤ.","name_en":null,"operator":"Νέα Αττική Οδός","charge":null}},{"type":"Feature","id":31,"geometry":{"type":"Point","coordinates":[23.711566800000071,38.070171600000037]},"properties":{"OBJECTID":31,"name":"ΦΥΛΗΣ ΑΝ.","name_en":null,"operator":"Νέα Αττική Οδός","charge":null}},{"type":"Feature","id":32,"geometry":{"type":"Point","coordinates":[23.708297900000048,38.071411100000034]},"properties":{"OBJECTID":32,"name":"ΦΥΛΗΣ ΔΥΤ.","name_en":null,"operator":"Νέα Αττική Οδός","charge":null}},{"type":"Feature","id":33,"geometry":{"type":"Point","coordinates":[23.676301100000046,38.075751100000048]},"properties":{"OBJECTID":33,"name":"ΑΙΓΑΛΕΩ ΑΝ.","name_en":null,"operator":"Νέα Αττική Οδός","charge":null}},{"type":"Feature","id":34,"geometry":{"type":"Point","coordinates":[23.678481600000055,38.080010400000049]},"properties":{"OBJECTID":34,"name":"ΑΙΓΑΛΕΩ ΔΥΤ.","name_en":null,"operator":"Νέα Αττική Οδός","charge":null}},{"type":"Feature","id":35,"geometry":{"type":"Point","coordinates":[23.821572700000047,38.034370600000045]},"properties":{"OBJECTID":35,"name":"ΠΕΝΤΕΛΗΣ ΔΥΤ.","name_en":null,"operator":"Νέα Αττική Οδός","charge":null}},{"type":"Feature","id":36,"geometry":{"type":"Point","coordinates":[23.842245500000047,38.00903530000005]},"properties":{"OBJECTID":36,"name":"ΑΓ. ΠΑΡΑΣΚΕΥΗΣ ΒΟΡ.","name_en":null,"operator":null,"charge":null}},{"type":"Feature","id":37,"geometry":{"type":"Point","coordinates":[23.81251270000007,37.985741500000074]},"properties":{"OBJECTID":37,"name":"ΠΑΠΑΓΟΥ ΒΟΡ.","name_en":null,"operator":null,"charge":null}},{"type":"Feature","id":38,"geometry":{"type":"Point","coordinates":[23.80998610000006,37.985723200000052]},"properties":{"OBJECTID":38,"name":"ΠΑΠΑΓΟΥ ΝΟΤ.","name_en":null,"operator":null,"charge":null}},{"type":"Feature","id":39,"geometry":{"type":"Point","coordinates":[23.800145500000042,37.97727320000007]},"properties":{"OBJECTID":39,"name":"KATEXAKH BΟΡ.","name_en":null,"operator":null,"charge":null}},{"type":"Feature","id":40,"geometry":{"type":"Point","coordinates":[23.837723500000038,38.01929030000008]},"properties":{"OBJECTID":40,"name":null,"name_en":null,"operator":null,"charge":null}},{"type":"Feature","id":41,"geometry":{"type":"Point","coordinates":[23.866004500000031,38.016996100000028]},"properties":{"OBJECTID":41,"name":"ΑΝΘΟΥΣΑΣ ΔΥΤ.","name_en":null,"operator":"Νέα Αττική Οδός","charge":null}},{"type":"Feature","id":42,"geometry":{"type":"Point","coordinates":[23.12370240000007,38.622548900000027]},"properties":{"OBJECTID":42,"name":"Πλευρικά Διόδια Τραγάνας","name_en":null,"operator":null,"charge":null}},{"type":"Feature","id":43,"geometry":{"type":"Point","coordinates":[23.622272000000066,38.089206300000058]},"properties":{"OBJECTID":43,"name":"ΑΣΠΡΟΠΥΡΓΟΥ ΑΝ.","name_en":null,"operator":"Νέα Αττική Οδός","charge":null}},{"type":"Feature","id":44,"geometry":{"type":"Point","coordinates":[23.619797700000049,38.090440400000034]},"properties":{"OBJECTID":44,"name":"ΑΣΠΡΟΠΥΡΓΟΥ ΔΥΤ.","name_en":null,"operator":"Νέα Αττική Οδός","charge":null}},{"type":"Feature","id":45,"geometry":{"type":"Point","coordinates":[23.836673000000076,38.008041500000047]},"properties":{"OBJECTID":45,"name":"ΑΓ. ΠΑΡΑΣΚΕΥΗΣ ΝΟΤ.","name_en":null,"operator":null,"charge":null}},{"type":"Feature","id":46,"geometry":{"type":"Point","coordinates":[23.426681500000029,38.019648400000051]},"properties":{"OBJECTID":46,"name":"Διόδια Νέας Περάμου 1.60\u20AC","name_en":"Toll station Neas Peramou","operator":null,"charge":"1.60\u20AC"}},{"type":"Feature","id":47,"geometry":{"type":"Point","coordinates":[23.869715500000041,38.004247700000064]},"properties":{"OBJECTID":47,"name":"ΜΑΡΑΘΩΝΟΣ ΑΝ.","name_en":null,"operator":"Νέα Αττική Οδός","charge":null}},{"type":"Feature","id":48,"geometry":{"type":"Point","coordinates":[23.734473900000069,38.066044400000067]},"properties":{"OBJECTID":48,"name":"ΔΗΜΟΚΡΑΤΙΑΣ ΑΝ.","name_en":null,"operator":"Νέα Αττική Οδός","charge":null}},{"type":"Feature","id":49,"geometry":{"type":"Point","coordinates":[21.632962000000077,40.256557100000066]},"properties":{"OBJECTID":49,"name":"Μετωπικός Σιατίστων 1,90\u20AC","name_en":null,"operator":null,"charge":null}},{"type":"Feature","id":50,"geometry":{"type":"Point","coordinates":[22.563973800000042,40.04500100000007]},"properties":{"OBJECTID":50,"name":"Διόδια πλευρικά (Α) Λεπτοκαρυάς","name_en":null,"operator":null,"charge":null}},{"type":"Feature","id":51,"geometry":{"type":"Point","coordinates":[22.060226100000023,40.367224000000078]},"properties":{"OBJECTID":51,"name":"Μετωπικός Πολυμύλου 1,90\u20AC","name_en":"Toll station Polymylos","operator":"Egnatia Odos A.E.","charge":"1.40\u20AC"}},{"type":"Feature","id":52,"geometry":{"type":"Point","coordinates":[22.307739000000026,37.412353100000075]},"properties":{"OBJECTID":52,"name":"Μετωπικά Διόδια Γέφυρας Μάναρη","name_en":"Toll station Manari Bridge","operator":"Μορέας","charge":null}},{"type":"Feature","id":53,"geometry":{"type":"Point","coordinates":[22.475956000000053,39.743568400000072]},"properties":{"OBJECTID":53,"name":"Διόδια πλευρικά (Θ) Γυρτώνης","name_en":null,"operator":null,"charge":null}},{"type":"Feature","id":54,"geometry":{"type":"Point","coordinates":[25.643405800000039,40.961833700000057]},"properties":{"OBJECTID":54,"name":"Πλευρικά Μέστης 1\u20AC","name_en":null,"operator":null,"charge":null}},{"type":"Feature","id":55,"geometry":{"type":"Point","coordinates":[25.184075200000052,41.117369600000075]},"properties":{"OBJECTID":55,"name":"Πλευρικά Ίασμου 0,60\u20AC","name_en":null,"operator":null,"charge":null}},{"type":"Feature","id":56,"geometry":{"type":"Point","coordinates":[24.296248900000023,40.87297360000008]},"properties":{"OBJECTID":56,"name":"Πλευρικά Αγίου Ανδρέα 0,45\u20AC","name_en":null,"operator":null,"charge":null}},{"type":"Feature","id":57,"geometry":{"type":"Point","coordinates":[22.511310600000058,39.829321300000061]},"properties":{"OBJECTID":57,"name":"Πλευρικά Διόδια Ευαγγελισμού","name_en":null,"operator":null,"charge":null}},{"type":"Feature","id":58,"geometry":{"type":"Point","coordinates":[22.499128700000028,39.796873900000037]},"properties":{"OBJECTID":58,"name":"Διόδια πλευρικά Μακρυχωρίου","name_en":null,"operator":null,"charge":null}},{"type":"Feature","id":59,"geometry":{"type":"Point","coordinates":[22.239686200000051,38.17472070000008]},"properties":{"OBJECTID":59,"name":"Πλευρικά Διόδια Καλαβρύτων","name_en":"Kalavryta Ramp Toll Station","operator":null,"charge":null}},{"type":"Feature","id":60,"geometry":{"type":"Point","coordinates":[22.76460620000006,39.388984300000061]},"properties":{"OBJECTID":60,"name":"Πλευρικά διόδια Βελεστίνου","name_en":null,"operator":"Αυτοκινητόδρομος Αιγαίου","charge":null}},{"type":"Feature","id":64,"geometry":{"type":"Point","coordinates":[20.948018000000047,39.618752100000052]},"properties":{"OBJECTID":64,"name":"Μετωπικά Παμβώτιδας 1,55\u20AC","name_en":null,"operator":null,"charge":"1.10\u20AC/KAT1;1.55\u20AC/KAT2;3.95\u20AC/KAT3;5.55\u20AC/KAT4"}},{"type":"Feature","id":65,"geometry":{"type":"Point","coordinates":[24.93719260000006,41.094806300000073]},"properties":{"OBJECTID":65,"name":"Πλευρικά Βαφέικων 0,35\u20AC","name_en":null,"operator":null,"charge":null}},{"type":"Feature","id":66,"geometry":{"type":"Point","coordinates":[22.84639530000004,38.920310700000073]},"properties":{"OBJECTID":66,"name":"Μετοπικά Διόδια Πελασγίας","name_en":"Pelasgia Tolls","operator":null,"charge":"3,50\u20AC"}},{"type":"Feature","id":67,"geometry":{"type":"Point","coordinates":[22.509362600000031,38.799269700000025]},"properties":{"OBJECTID":67,"name":"Πλευρικά Διόδια Μπράλου","name_en":null,"operator":"Κεντρική Οδός","charge":null}},{"type":"Feature","id":68,"geometry":{"type":"Point","coordinates":[22.698234900000045,40.602373000000057]},"properties":{"OBJECTID":68,"name":"Μετωπικός Μαλγάρων 0,9\u20AC","name_en":"Malgara Toll Station","operator":"Εγνατία Οδός Α.Ε.","charge":"0,90\u20AC"}},{"type":"Feature","id":69,"geometry":{"type":"Point","coordinates":[22.572693300000026,40.51957660000005]},"properties":{"OBJECTID":69,"name":"Μετωπικά Κλειδιού 2,20\u20AC","name_en":null,"operator":null,"charge":"2,20\u20AC"}},{"type":"Feature","id":70,"geometry":{"type":"Point","coordinates":[22.569831300000033,40.035715100000061]},"properties":{"OBJECTID":70,"name":"Σταθμός Διοδίων Λεπτοκαρυάς","name_en":"Leptokarya Toll Station","operator":"Αυτοκινητόδρομος Αιγαίου","charge":"3,20\u20AC"}},{"type":"Feature","id":71,"geometry":{"type":"Point","coordinates":[24.464911800000039,40.95474390000004]},"properties":{"OBJECTID":71,"name":"Πλευρικά Άσπρα Χώματα 0,4\u20AC","name_en":null,"operator":null,"charge":null}},{"type":"Feature","id":72,"geometry":{"type":"Point","coordinates":[23.680083600000046,40.709545800000058]},"properties":{"OBJECTID":72,"name":"Πλευρικά Ασπροβάλτας 0,35\u20AC","name_en":null,"operator":null,"charge":null}},{"type":"Feature","id":73,"geometry":{"type":"Point","coordinates":[23.260232500000029,40.682786100000044]},"properties":{"OBJECTID":73,"name":"Πλευρικά Προφήτη 1,15\u20AC","name_en":null,"operator":null,"charge":null}},{"type":"Feature","id":74,"geometry":{"type":"Point","coordinates":[22.348956000000044,38.914962400000036]},"properties":{"OBJECTID":74,"name":"Μετωπικά Διόδια Λιανοκλαδίου 1,85\u20AC","name_en":null,"operator":null,"charge":"1,85\u20AC"}},{"type":"Feature","id":75,"geometry":{"type":"Point","coordinates":[23.854083500000058,38.176365800000042]},"properties":{"OBJECTID":75,"name":"Μετωπικά Διόδια Αφιδνών 3,75\u20AC","name_en":null,"operator":null,"charge":"3.75\u20AC"}},{"type":"Feature","id":76,"geometry":{"type":"Point","coordinates":[23.750543400000026,38.060916100000043]},"properties":{"OBJECTID":76,"name":"Διόδια ΜΕΤΑΜΟΡΦΩΣΗΣ ΑΝ.","name_en":null,"operator":"Νέα Αττική Οδός","charge":null}},{"type":"Feature","id":77,"geometry":{"type":"Point","coordinates":[23.750574400000062,38.061207700000068]},"properties":{"OBJECTID":77,"name":"Διόδια ΜΕΤΑΜΟΡΦΩΣΗΣ ΑΝ. 2.80\u20AC","name_en":null,"operator":"Νέα Αττική Οδός","charge":"2.80\u20AC"}},{"type":"Feature","id":78,"geometry":{"type":"Point","coordinates":[23.781454000000053,38.052332700000079]},"properties":{"OBJECTID":78,"name":"ΚΥΜΗΣ ΔΥΤ.","name_en":null,"operator":"Νέα Αττική Οδός","charge":null}},{"type":"Feature","id":79,"geometry":{"type":"Point","coordinates":[23.772411300000044,38.056346700000063]},"properties":{"OBJECTID":79,"name":"ΗΡΑΚΛΕΙΟΥ ΑΝ.","name_en":null,"operator":"Νέα Αττική Οδός","charge":null}},{"type":"Feature","id":80,"geometry":{"type":"Point","coordinates":[22.02548900000005,37.153608100000042]},"properties":{"OBJECTID":80,"name":"Διόδια Αρφαρών","name_en":"Toll station Arfara","operator":null,"charge":"0.70 EUR"}},{"type":"Feature","id":81,"geometry":{"type":"Point","coordinates":[22.026263000000029,37.152386700000079]},"properties":{"OBJECTID":81,"name":"Διόδια Αρφαρών","name_en":"Toll station Arfara","operator":null,"charge":"0.70 EUR"}},{"type":"Feature","id":82,"geometry":{"type":"Point","coordinates":[22.077680600000065,37.331655900000044]},"properties":{"OBJECTID":82,"name":null,"name_en":null,"operator":null,"charge":"0.70 EUR"}},{"type":"Feature","id":83,"geometry":{"type":"Point","coordinates":[22.657877700000029,38.913573500000041]},"properties":{"OBJECTID":83,"name":"Πλευρικά Διόδια Στυλίδας","name_en":null,"operator":null,"charge":null}},{"type":"Feature","id":84,"geometry":{"type":"Point","coordinates":[22.658899800000029,38.913691400000062]},"properties":{"OBJECTID":84,"name":"Πλευρικά Διόδια Στυλίδας","name_en":null,"operator":null,"charge":null}},{"type":"Feature","id":85,"geometry":{"type":"Point","coordinates":[23.322059500000023,38.364148300000068]},"properties":{"OBJECTID":85,"name":"Πλευρικά Διόδια Θήβας","name_en":null,"operator":null,"charge":null}},{"type":"Feature","id":86,"geometry":{"type":"Point","coordinates":[23.324592600000074,38.366351900000041]},"properties":{"OBJECTID":86,"name":"Πλευρικά Διόδια Θήβας","name_en":null,"operator":null,"charge":"1,50\u20AC"}},{"type":"Feature","id":87,"geometry":{"type":"Point","coordinates":[21.272429000000045,38.549427800000046]},"properties":{"OBJECTID":87,"name":"Διόδια Αγγελοκάστρου","name_en":null,"operator":null,"charge":null}},{"type":"Feature","id":88,"geometry":{"type":"Point","coordinates":[23.799256600000035,38.043734800000038]},"properties":{"OBJECTID":88,"name":"ΚΗΦΙΣΙΑΣ ΔΥΤ.","name_en":null,"operator":"Νέα Αττική Οδός","charge":null}},{"type":"Feature","id":89,"geometry":{"type":"Point","coordinates":[23.785892600000068,38.236383600000067]},"properties":{"OBJECTID":89,"name":"Πλευρικά Διόδια Μαλακάσας 1,60\u20AC","name_en":null,"operator":null,"charge":"1.60\u20AC"}},{"type":"Feature","id":90,"geometry":{"type":"Point","coordinates":[22.210251500000027,37.298727800000052]},"properties":{"OBJECTID":90,"name":"Μετωπικά Διόδια Πετρίνας","name_en":null,"operator":null,"charge":null}},{"type":"Feature","id":91,"geometry":{"type":"Point","coordinates":[24.114963600000067,40.838263200000029]},"properties":{"OBJECTID":91,"name":"Πλευρικά Μουσθένης 1\u20AC","name_en":null,"operator":null,"charge":null}},{"type":"Feature","id":92,"geometry":{"type":"Point","coordinates":[24.116689200000053,40.841370100000063]},"properties":{"OBJECTID":92,"name":"Πλευρικά Μουσθένης 1\u20AC","name_en":null,"operator":null,"charge":null}},{"type":"Feature","id":93,"geometry":{"type":"Point","coordinates":[22.570507200000065,38.903724800000077]},"properties":{"OBJECTID":93,"name":"Διόδια Αγίας Μαρίνας","name_en":null,"operator":null,"charge":null}},{"type":"Feature","id":94,"geometry":{"type":"Point","coordinates":[23.348980600000061,37.985807600000044]},"properties":{"OBJECTID":94,"name":"Πλευρικά Διόδια Πάχης 1\u20AC","name_en":"Toll station Pachis","operator":null,"charge":null}},{"type":"Feature","id":95,"geometry":{"type":"Point","coordinates":[23.42846430000003,38.019887900000072]},"properties":{"OBJECTID":95,"name":"Διόδια Νέας Περάμου 1.60\u20AC","name_en":"Toll station Neas Peramou","operator":null,"charge":null}},{"type":"Feature","id":96,"geometry":{"type":"Point","coordinates":[23.821374700000035,37.99958950000007]},"properties":{"OBJECTID":96,"name":"ΔΗΜΟΚΡΙΤΟΥ ΒΟΡ.","name_en":null,"operator":null,"charge":null}},{"type":"Feature","id":99,"geometry":{"type":"Point","coordinates":[21.215713400000027,38.700404500000047]},"properties":{"OBJECTID":99,"name":"Διόδια Κουβαρά","name_en":null,"operator":null,"charge":null}},{"type":"Feature","id":100,"geometry":{"type":"Point","coordinates":[22.876599100000078,38.94792730000006]},"properties":{"OBJECTID":100,"name":"Πλευρικά διόδια Γλύφας","name_en":null,"operator":"Αυτοκινητόδρομος Αιγαίου","charge":null}},{"type":"Feature","id":101,"geometry":{"type":"Point","coordinates":[23.853885900000023,38.202550500000029]},"properties":{"OBJECTID":101,"name":"Πλευρικά Διόδια Καπανδριτίου","name_en":null,"operator":null,"charge":null}},{"type":"Feature","id":102,"geometry":{"type":"Point","coordinates":[20.766191900000024,38.94008720000005]},"properties":{"OBJECTID":102,"name":"Σταθμός Διοδίων Υποθαλάσσια σήραγγα Πρέβεζας - Ακτίου","name_en":"Toll Station Undersea Tunnel Preveza - Aktio","operator":null,"charge":"0.70\u20AC/KAT1;3.00\u20AC/KAT2;7.50\u20AC/KAT3;10.50\u20AC/KAT4"}},{"type":"Feature","id":103,"geometry":{"type":"Point","coordinates":[22.475326900000027,39.744885600000032]},"properties":{"OBJECTID":103,"name":"Διόδια πλευρικά (Α) Γυρτώνης","name_en":null,"operator":null,"charge":null}},{"type":"Feature","id":104,"geometry":{"type":"Point","coordinates":[25.080072500000028,41.120363000000054]},"properties":{"OBJECTID":104,"name":"Μετωπικά Ιάσμου 1,80\u20AC","name_en":null,"operator":null,"charge":"1.80\u20AC/car"}},{"type":"Feature","id":105,"geometry":{"type":"Point","coordinates":[22.649426500000061,38.802891600000066]},"properties":{"OBJECTID":105,"name":"Διόδια εισόδου Μώλου 0,35\u20AC","name_en":null,"operator":null,"charge":null}},{"type":"Feature","id":106,"geometry":{"type":"Point","coordinates":[22.875677000000053,38.949408500000061]},"properties":{"OBJECTID":106,"name":"Πλευρικά διόδια Γλύφας","name_en":null,"operator":"Αυτοκινητόδρομος Αιγαίου","charge":null}},{"type":"Feature","id":107,"geometry":{"type":"Point","coordinates":[22.649556600000039,38.802639900000031]},"properties":{"OBJECTID":107,"name":"Διόδια εξόδου Μώλου","name_en":null,"operator":null,"charge":null}},{"type":"Feature","id":108,"geometry":{"type":"Point","coordinates":[24.162356000000045,40.858194100000048]},"properties":{"OBJECTID":108,"name":"Μετωπικά Μουσθένης 2,15\u20AC","name_en":"Moustheni Toll Station","operator":"ΕΓΝΑΤΙΑ ΟΔΟΣ ΑΕ","charge":null}},{"type":"Feature","id":109,"geometry":{"type":"Point","coordinates":[22.556841700000064,39.522951100000057]},"properties":{"OBJECTID":109,"name":"Μετωπικά Διόδια Μοσχοχωρίου","name_en":null,"operator":null,"charge":"4,00\u20AC"}},{"type":"Feature","id":110,"geometry":{"type":"Point","coordinates":[22.602654100000052,38.808547300000043]},"properties":{"OBJECTID":110,"name":"Διόδια Αγία Τριάδα 2\u20AC","name_en":null,"operator":"Κεντρική Οδός","charge":"2\u20AC"}},{"type":"Feature","id":111,"geometry":{"type":"Point","coordinates":[23.286923900000033,38.370851400000049]},"properties":{"OBJECTID":111,"name":"Μετωπικά Διόδια Θηβών","name_en":null,"operator":null,"charge":"3,85\u20AC"}},{"type":"Feature","id":112,"geometry":{"type":"Point","coordinates":[22.565341000000046,40.045066100000042]},"properties":{"OBJECTID":112,"name":"Διόδια πλευρικά (Θ) Λεπτοκαρυάς","name_en":null,"operator":null,"charge":null}},{"type":"Feature","id":113,"geometry":{"type":"Point","coordinates":[22.73545740000003,37.996699900000067]},"properties":{"OBJECTID":113,"name":"Μετωπικά Διόδια Κιάτου","name_en":null,"operator":null,"charge":null}},{"type":"Feature","id":114,"geometry":{"type":"Point","coordinates":[22.527701300000047,38.90410630000008]},"properties":{"OBJECTID":114,"name":"Μετωπικά Διόδια Μαυρομαντήλας (1,90 Euros)","name_en":null,"operator":null,"charge":null}},{"type":"Feature","id":115,"geometry":{"type":"Point","coordinates":[22.511019100000055,38.799603800000057]},"properties":{"OBJECTID":115,"name":"Πλευρικά Διόδια Μπράλου","name_en":null,"operator":"Κεντρική Οδός","charge":null}},{"type":"Feature","id":116,"geometry":{"type":"Point","coordinates":[23.674629000000039,38.292176500000039]},"properties":{"OBJECTID":116,"name":"Πλευρικά Διόδια Οινοφύτων 0,7\u20AC","name_en":null,"operator":null,"charge":"0.70\u20AC"}},{"type":"Feature","id":117,"geometry":{"type":"Point","coordinates":[23.675920000000076,38.289170400000046]},"properties":{"OBJECTID":117,"name":"Πλευρικά Διόδια Οινοφύτων","name_en":null,"operator":null,"charge":"0.70\u20AC"}},{"type":"Feature","id":118,"geometry":{"type":"Point","coordinates":[23.780597400000033,38.237453600000038]},"properties":{"OBJECTID":118,"name":"Πλευρικά Διόδια Μαλακάσας 1,60\u20AC","name_en":null,"operator":null,"charge":"1.60\u20AC"}},{"type":"Feature","id":120,"geometry":{"type":"Point","coordinates":[22.110272200000054,37.345002100000045]},"properties":{"OBJECTID":120,"name":"Μετωπικά Διόδια Βελιγοστής","name_en":"Toll station Veligosti","operator":"Μορέας","charge":"1.20 EUR"}},{"type":"Feature","id":121,"geometry":{"type":"Point","coordinates":[22.037936300000069,37.136832800000036]},"properties":{"OBJECTID":121,"name":"Μετωπικά Διόδια Καλαμάτας","name_en":"Toll station Kalamata","operator":null,"charge":null}},{"type":"Feature","id":122,"geometry":{"type":"Point","coordinates":[22.513559600000065,39.829344800000058]},"properties":{"OBJECTID":122,"name":"Πλευρικά Διόδια Ευαγγελισμού","name_en":null,"operator":null,"charge":null}},{"type":"Feature","id":123,"geometry":{"type":"Point","coordinates":[21.857979000000057,38.325150300000075]},"properties":{"OBJECTID":123,"name":null,"name_en":null,"operator":null,"charge":null}},{"type":"Feature","id":124,"geometry":{"type":"Point","coordinates":[23.785652700000071,38.048343800000055]},"properties":{"OBJECTID":124,"name":"ΚΥΜΗΣ ΑΝ.","name_en":null,"operator":"Νέα Αττική Οδός","charge":null}},{"type":"Feature","id":125,"geometry":{"type":"Point","coordinates":[22.787995900000055,37.931258300000025]},"properties":{"OBJECTID":125,"name":null,"name_en":null,"operator":null,"charge":null}},{"type":"Feature","id":126,"geometry":{"type":"Point","coordinates":[22.787936800000068,37.931465700000047]},"properties":{"OBJECTID":126,"name":null,"name_en":null,"operator":null,"charge":null}},{"type":"Feature","id":127,"geometry":{"type":"Point","coordinates":[23.957562100000075,40.782803600000079]},"properties":{"OBJECTID":127,"name":"Πλευρικά Γαληψού-Ορφανίου 0,35\u20AC","name_en":null,"operator":null,"charge":null}},{"type":"Feature","id":128,"geometry":{"type":"Point","coordinates":[22.405088400000068,38.132016100000044]},"properties":{"OBJECTID":128,"name":"Πλευρικά Διόδια Δερβενίου","name_en":"Derveni Ramp Toll Station","operator":null,"charge":null}},{"type":"Feature","id":129,"geometry":{"type":"Point","coordinates":[22.048017700000059,37.072077100000058]},"properties":{"OBJECTID":129,"name":"Πλευρικά Διόδια Θουρίας","name_en":"Thourias Toll Station","operator":null,"charge":null}},{"type":"Feature","id":130,"geometry":{"type":"Point","coordinates":[22.04739150000006,37.071567000000073]},"properties":{"OBJECTID":130,"name":"Πλευρικά Διόδια Θουρίας","name_en":"Thourias Toll Station","operator":null,"charge":null}},{"type":"Feature","id":131,"geometry":{"type":"Point","coordinates":[22.569243800000038,38.903055800000061]},"properties":{"OBJECTID":131,"name":"Διόδια Αγίας Μαρίνας","name_en":null,"operator":null,"charge":null}},{"type":"Feature","id":132,"geometry":{"type":"Point","coordinates":[21.495097200000032,38.379379200000074]},"properties":{"OBJECTID":132,"name":"Πλευρικά Διόδια Μεσολογγίου","name_en":null,"operator":"Νέα Οδός","charge":null}},{"type":"Feature","id":133,"geometry":{"type":"Point","coordinates":[21.495144900000071,38.379543400000045]},"properties":{"OBJECTID":133,"name":"Πλευρικά Διόδια Μεσολογγίου","name_en":null,"operator":"Νέα Οδός","charge":null}},{"type":"Feature","id":134,"geometry":{"type":"Point","coordinates":[21.830325500000072,38.316350400000033]},"properties":{"OBJECTID":134,"name":"Μετωπικά Διόδια Ρίου","name_en":"Toll Booth Rio","operator":null,"charge":null}},{"type":"Feature","id":135,"geometry":{"type":"Point","coordinates":[25.476643100000047,41.061433100000045]},"properties":{"OBJECTID":135,"name":"Πλευρικά ΒΙ.ΠΕ. Κομοτηνής 0,45\u20AC","name_en":null,"operator":null,"charge":null}},{"type":"Feature","id":136,"geometry":{"type":"Point","coordinates":[25.475378500000033,41.059590700000058]},"properties":{"OBJECTID":136,"name":"Πλευρικά ΒΙ.ΠΕ. Κομοτηνής 0,45\u20AC","name_en":null,"operator":null,"charge":null}},{"type":"Feature","id":137,"geometry":{"type":"Point","coordinates":[22.165377000000035,38.190549700000076]},"properties":{"OBJECTID":137,"name":"Μετωπικά Διόδια Ελαιώνα","name_en":"Eleonas Toll Station","operator":null,"charge":null}},{"type":"Feature","id":138,"geometry":{"type":"Point","coordinates":[21.010856400000023,39.160389300000077]},"properties":{"OBJECTID":138,"name":"Διόδια Άρτας","name_en":"Toll Arta","operator":null,"charge":"0.50\u20AC/KAT1;0.75\u20AC/KAT2;1.90\u20AC/KAT3;2.70\u20AC/KAT4"}},{"type":"Feature","id":139,"geometry":{"type":"Point","coordinates":[22.624389600000029,39.909077700000068]},"properties":{"OBJECTID":139,"name":"Διόδια Πυργετού","name_en":null,"operator":null,"charge":null}},{"type":"Feature","id":140,"geometry":{"type":"Point","coordinates":[23.123618300000032,38.621954800000026]},"properties":{"OBJECTID":140,"name":"Πλευρικά Διόδια Τραγάνας","name_en":null,"operator":null,"charge":null}},{"type":"Feature","id":141,"geometry":{"type":"Point","coordinates":[22.069246600000042,39.210249500000032]},"properties":{"OBJECTID":141,"name":"Πλευρικά Διόδια Ανάβρας","name_en":null,"operator":null,"charge":null}},{"type":"Feature","id":142,"geometry":{"type":"Point","coordinates":[21.818103500000063,39.568984500000056]},"properties":{"OBJECTID":142,"name":null,"name_en":null,"operator":null,"charge":null}},{"type":"Feature","id":143,"geometry":{"type":"Point","coordinates":[21.818383100000062,39.568782300000066]},"properties":{"OBJECTID":143,"name":null,"name_en":null,"operator":null,"charge":null}},{"type":"Feature","id":144,"geometry":{"type":"Point","coordinates":[21.832344500000033,39.520260900000039]},"properties":{"OBJECTID":144,"name":null,"name_en":null,"operator":null,"charge":null}},{"type":"Feature","id":145,"geometry":{"type":"Point","coordinates":[21.903324800000064,39.474649000000056]},"properties":{"OBJECTID":145,"name":null,"name_en":null,"operator":null,"charge":null}},{"type":"Feature","id":146,"geometry":{"type":"Point","coordinates":[21.903038500000036,39.474536200000045]},"properties":{"OBJECTID":146,"name":null,"name_en":null,"operator":null,"charge":null}},{"type":"Feature","id":147,"geometry":{"type":"Point","coordinates":[22.342240500000059,38.15718830000003]},"properties":{"OBJECTID":147,"name":"Πλευρικά Διόδια Ακράτας","name_en":"Akrata Ramp Toll Station","operator":null,"charge":null}},{"type":"Feature","id":148,"geometry":{"type":"Point","coordinates":[21.214125300000035,38.699492600000042]},"properties":{"OBJECTID":148,"name":"Διόδια Κουβαρά","name_en":null,"operator":null,"charge":null}},{"type":"Feature","id":149,"geometry":{"type":"Point","coordinates":[22.558588900000075,41.108696300000076]},"properties":{"OBJECTID":149,"name":"Εύζωνοι","name_en":"Evzoni","operator":null,"charge":null}},{"type":"Feature","id":150,"geometry":{"type":"Point","coordinates":[22.733339000000058,38.007734800000037]},"properties":{"OBJECTID":150,"name":"Πλευρικά διόδια Κιάτου","name_en":"Kiato Ramp Toll Station","operator":"Ολυμπία Οδός","charge":null}},{"type":"Feature","id":151,"geometry":{"type":"Point","coordinates":[22.733526700000027,38.007890300000042]},"properties":{"OBJECTID":151,"name":"Πλευρικά διόδια Κιάτου","name_en":"Kiato Ramp Toll Station","operator":"Ολυμπία Οδός","charge":null}},{"type":"Feature","id":152,"geometry":{"type":"Point","coordinates":[22.404906100000062,38.13186010000004]},"properties":{"OBJECTID":152,"name":"Πλευρικά Διόδια Δερβενίου","name_en":"Derveni Ramp Toll Station","operator":null,"charge":null}},{"type":"Feature","id":153,"geometry":{"type":"Point","coordinates":[21.26615780000003,39.789808200000039]},"properties":{"OBJECTID":153,"name":"Μετωπικά Μαλακασίου 1,90\u20AC","name_en":"Toll Malakasi","operator":null,"charge":"1.30\u20AC/KAT1;1.90\u20AC/KAT2;4.80\u20AC/KAT3;6.70\u20AC/KAT4"}},{"type":"Feature","id":154,"geometry":{"type":"Point","coordinates":[21.266910900000028,39.789419900000041]},"properties":{"OBJECTID":154,"name":"Μετωπικά Μαλακασίου 1,90\u20AC","name_en":null,"operator":null,"charge":"1.30\u20AC/KAT1;1.90\u20AC/KAT2;4.80\u20AC/KAT3;6.70\u20AC/KAT4"}},{"type":"Feature","id":155,"geometry":{"type":"Point","coordinates":[21.170801100000062,38.989852700000029]},"properties":{"OBJECTID":155,"name":"Διόδια Μενιδίου","name_en":"Toll Menidi","operator":null,"charge":"0.50\u20AC/KAT1;0.75\u20AC/KAT2;1.95\u20AC/KAT3;2.70\u20AC/KAT4"}},{"type":"Feature","id":156,"geometry":{"type":"Point","coordinates":[21.012041000000067,39.160624800000051]},"properties":{"OBJECTID":156,"name":"Διόδια Άρτας","name_en":"Toll Arta","operator":null,"charge":"0.50\u20AC/KAT1;0.75\u20AC/KAT2;1.90\u20AC/KAT3;2.70\u20AC/KAT4"}},{"type":"Feature","id":157,"geometry":{"type":"Point","coordinates":[20.915648400000066,39.331768900000043]},"properties":{"OBJECTID":157,"name":"Διόδια Γοργόμυλου","name_en":"Toll Gorgomylos","operator":null,"charge":"0.70\u20AC/KAT1;1.00\u20AC/KAT2;2.55\u20AC/KAT3;3.60\u20AC/KAT4"}},{"type":"Feature","id":158,"geometry":{"type":"Point","coordinates":[20.914227600000061,39.331876100000045]},"properties":{"OBJECTID":158,"name":"Διόδια Γοργόμυλου","name_en":"Toll Gorgomylos","operator":null,"charge":"0.70\u20AC/KAT1;1.00\u20AC/KAT2;2.55\u20AC/KAT3;3.60\u20AC/KAT4"}},{"type":"Feature","id":159,"geometry":{"type":"Point","coordinates":[20.90511870000006,39.425472900000045]},"properties":{"OBJECTID":159,"name":"Μετωπικά Διόδια Τερόβου","name_en":"Toll Terovo","operator":null,"charge":"2.20\u20AC/KAT1;3.10\u20AC/KAT2;7.85\u20AC/KAT3;11.00\u20AC/KAT4"}},{"type":"Feature","id":160,"geometry":{"type":"Point","coordinates":[21.061430600000051,40.574512500000026]},"properties":{"OBJECTID":160,"name":"Μετωπικά Διόδια Ιεροπηγής","name_en":null,"operator":null,"charge":null}},{"type":"Feature","id":161,"geometry":{"type":"Point","coordinates":[22.239292000000034,38.174698700000079]},"properties":{"OBJECTID":161,"name":"Πλευρικά Διόδια Καλαβρύτων","name_en":"Kalavryta Ramp Toll Station","operator":null,"charge":null}},{"type":"Feature","id":162,"geometry":{"type":"Point","coordinates":[22.342785000000049,38.156774900000073]},"properties":{"OBJECTID":162,"name":"Πλευρικά Διόδια Ακράτας","name_en":"Akrata Ramp Toll Station","operator":null,"charge":null}},{"type":"Feature","id":163,"geometry":{"type":"Point","coordinates":[21.858062100000041,38.324961100000053]},"properties":{"OBJECTID":163,"name":null,"name_en":null,"operator":null,"charge":null}},{"type":"Feature","id":164,"geometry":{"type":"Point","coordinates":[22.807744400000047,37.835943000000043]},"properties":{"OBJECTID":164,"name":"Μετωπικά Διόδια Σπαθοβουνίου","name_en":null,"operator":null,"charge":null}},{"type":"Feature","id":165,"geometry":{"type":"Point","coordinates":[22.808268300000066,37.835709000000065]},"properties":{"OBJECTID":165,"name":"Μετωπικά Διόδια Σπαθοβουνίου","name_en":null,"operator":null,"charge":null}},{"type":"Feature","id":166,"geometry":{"type":"Point","coordinates":[22.62612850000005,39.49460270000003]},"properties":{"OBJECTID":166,"name":"Πλευρικά διόδια Κιλελέρ","name_en":null,"operator":"Αυτοκινητόδρομος Αιγαίου","charge":null}},{"type":"Feature","id":167,"geometry":{"type":"Point","coordinates":[22.08310670000003,39.257055100000059]},"properties":{"OBJECTID":167,"name":"Μετωπικά Διόδια Σοφάδων","name_en":null,"operator":null,"charge":null}},{"type":"Feature","id":168,"geometry":{"type":"Point","coordinates":[21.624921200000074,38.373359900000025]},"properties":{"OBJECTID":168,"name":null,"name_en":null,"operator":null,"charge":null}},{"type":"Feature","id":169,"geometry":{"type":"Point","coordinates":[21.62492560000004,38.374208600000031]},"properties":{"OBJECTID":169,"name":null,"name_en":null,"operator":null,"charge":null}},{"type":"Feature","id":170,"geometry":{"type":"Point","coordinates":[23.007863800000052,40.737315000000081]},"properties":{"OBJECTID":170,"name":"Πλευρικά Λαγκαδά 0,3\u20AC","name_en":null,"operator":null,"charge":null}},{"type":"Feature","id":171,"geometry":{"type":"Point","coordinates":[22.618927800000051,39.493443900000045]},"properties":{"OBJECTID":171,"name":"Πλευρικά διόδια Κιλελέρ","name_en":null,"operator":"Αυτοκινητόδρομος Αιγαίου","charge":null}},{"type":"Feature","id":172,"geometry":{"type":"Point","coordinates":[24.236020900000028,40.884116100000028]},"properties":{"OBJECTID":172,"name":"Πλευρικά Ελευθερούπολης 0,70\u20AC","name_en":null,"operator":null,"charge":null}},{"type":"Feature","id":173,"geometry":{"type":"Point","coordinates":[23.191517100000056,40.706850800000041]},"properties":{"OBJECTID":173,"name":"Μετωπικά Ανάληψης 2,35\u20AC","name_en":"Analipsi Toll Station","operator":null,"charge":"2.35\u20AC/car"}},{"type":"Feature","id":174,"geometry":{"type":"Point","coordinates":[23.295176800000036,41.043713400000058]},"properties":{"OBJECTID":174,"name":"Μετωπικά Διόδια Στρυμονικού","name_en":null,"operator":null,"charge":null}},{"type":"Feature","id":175,"geometry":{"type":"Point","coordinates":[23.69374780000004,40.72646050000003]},"properties":{"OBJECTID":175,"name":"Μετωπικά Ασπροβάλτας 1,10\u20AC","name_en":null,"operator":null,"charge":"1,10\u20AC"}},{"type":"Feature","id":176,"geometry":{"type":"Point","coordinates":[22.76499750000005,39.390665800000079]},"properties":{"OBJECTID":176,"name":"Πλευρικά διόδια Βελεστίνου","name_en":null,"operator":"Αυτοκινητόδρομος Αιγαίου","charge":null}},{"type":"Feature","id":177,"geometry":{"type":"Point","coordinates":[22.895848400000034,40.696124400000031]},"properties":{"OBJECTID":177,"name":"Μετωπικά Θεσσαλονίκης 0,55\u20AC","name_en":null,"operator":null,"charge":null}},{"type":"Feature","id":178,"geometry":{"type":"Point","coordinates":[22.686601300000063,39.441195700000037]},"properties":{"OBJECTID":178,"name":"Πλευρικά διόδια Μ. Μοναστηρίου","name_en":null,"operator":"Αυτοκινητόδρομος Αιγαίου","charge":null}},{"type":"Feature","id":179,"geometry":{"type":"Point","coordinates":[22.689439200000038,39.442328600000053]},"properties":{"OBJECTID":179,"name":"Πλευρικά διόδια Μ. Μοναστηρίου","name_en":null,"operator":"Αυτοκινητόδρομος Αιγαίου","charge":null}},{"type":"Feature","id":180,"geometry":{"type":"Point","coordinates":[20.674395000000061,39.540179300000034]},"properties":{"OBJECTID":180,"name":"Μετωπικά Τύριας 2,7\u20AC","name_en":"Toll Tyria","operator":null,"charge":"1.50\u20AC/KAT1;2.10\u20AC/KAT2;5.30\u20AC/KAT3;7.40\u20AC/KAT4"}},{"type":"Feature","id":181,"geometry":{"type":"Point","coordinates":[22.625102300000037,39.981708900000058]},"properties":{"OBJECTID":181,"name":null,"name_en":null,"operator":null,"charge":null}},{"type":"Feature","id":184,"geometry":{"type":"Point","coordinates":[21.374762600000054,37.799423800000056]},"properties":{"OBJECTID":184,"name":"Πλευρικά Διόδια Αμαλιάδας (Προς Αμαλιάδα)","name_en":null,"operator":null,"charge":null}},{"type":"Feature","id":186,"geometry":{"type":"Point","coordinates":[24.944977000000051,41.09820620000005]},"properties":{"OBJECTID":186,"name":"Πλευρικά Βαφέικων 0,35\u20AC","name_en":null,"operator":null,"charge":null}},{"type":"Feature","id":187,"geometry":{"type":"Point","coordinates":[25.184516400000064,41.115676300000075]},"properties":{"OBJECTID":187,"name":"Πλευρικά Ίασμου 0,60\u20AC","name_en":null,"operator":null,"charge":null}},{"type":"Feature","id":188,"geometry":{"type":"Point","coordinates":[25.642771100000061,40.96113930000007]},"properties":{"OBJECTID":188,"name":"Πλευρικά Μέστης 1\u20AC","name_en":null,"operator":null,"charge":null}},{"type":"Feature","id":189,"geometry":{"type":"Point","coordinates":[24.234765400000072,40.88657980000005]},"properties":{"OBJECTID":189,"name":"Πλευρικά Ελευθερούπολης 0,70\u20AC","name_en":"Moustheni Ramp PlazaToll Station (0.80 \u20AC)","operator":null,"charge":"0.80\u20AC"}},{"type":"Feature","id":190,"geometry":{"type":"Point","coordinates":[23.370974200000035,40.701419200000032]},"properties":{"OBJECTID":190,"name":"Πλευρικά Βαγιοχωρίου 0,75\u20AC","name_en":null,"operator":null,"charge":null}},{"type":"Feature","id":191,"geometry":{"type":"Point","coordinates":[23.370618300000046,40.70008260000003]},"properties":{"OBJECTID":191,"name":"Πλευρικά Βαγιοχωρίου 0,75\u20AC","name_en":null,"operator":null,"charge":null}},{"type":"Feature","id":192,"geometry":{"type":"Point","coordinates":[22.603787700000055,40.988984300000027]},"properties":{"OBJECTID":192,"name":null,"name_en":null,"operator":null,"charge":null}},{"type":"Feature","id":194,"geometry":{"type":"Point","coordinates":[21.610719200000062,39.699845800000048]},"properties":{"OBJECTID":194,"name":"Πλευρικά Διόδια Καλαμπάκας","name_en":null,"operator":null,"charge":null}},{"type":"Feature","id":195,"geometry":{"type":"Point","coordinates":[22.60491410000003,40.98903480000007]},"properties":{"OBJECTID":195,"name":null,"name_en":null,"operator":null,"charge":null}},{"type":"Feature","id":196,"geometry":{"type":"Point","coordinates":[21.294943800000055,39.785774700000047]},"properties":{"OBJECTID":196,"name":"Πλευρικά Παναγίας 1,40\u20AC","name_en":null,"operator":null,"charge":null}},{"type":"Feature","id":197,"geometry":{"type":"Point","coordinates":[26.205186000000026,40.944508800000051]},"properties":{"OBJECTID":197,"name":"Μετωπικά Αρδανίου 1,60\u20AC","name_en":null,"operator":"ΕΓΝΑΤΙΑ ΟΔΟΣ ΑΕ","charge":null}},{"type":"Feature","id":198,"geometry":{"type":"Point","coordinates":[24.944740200000069,41.09521060000003]},"properties":{"OBJECTID":198,"name":"Πλευρικά Βαφέικων 0,35\u20AC","name_en":null,"operator":null,"charge":null}},{"type":"Feature","id":199,"geometry":{"type":"Point","coordinates":[21.608671300000026,39.700191600000039]},"properties":{"OBJECTID":199,"name":"Πλευρικά Διόδια Καλαμπάκας","name_en":null,"operator":null,"charge":null}},{"type":"Feature","id":200,"geometry":{"type":"Point","coordinates":[23.119517500000029,37.921943400000032]},"properties":{"OBJECTID":200,"name":"Πλευρικά Διόδια Αγ. Θεοδώρων 0.60\u20AC","name_en":"Toll station Agioi Theodoroi","operator":null,"charge":null}},{"type":"Feature","id":201,"geometry":{"type":"Point","coordinates":[23.119518200000073,37.921789300000057]},"properties":{"OBJECTID":201,"name":"Πλευρικά Διόδια Αγ. Θεοδώρων 0.60\u20AC","name_en":"Toll station Agioi Theodoroi","operator":null,"charge":null}},{"type":"Feature","id":202,"geometry":{"type":"Point","coordinates":[22.078350400000033,37.330716900000027]},"properties":{"OBJECTID":202,"name":null,"name_en":null,"operator":null,"charge":null}},{"type":"Feature","id":203,"geometry":{"type":"Point","coordinates":[23.350114800000028,37.984997700000065]},"properties":{"OBJECTID":203,"name":"Πλευρικά Διόδια Πάχης 1\u20AC","name_en":"Toll station Pachis","operator":null,"charge":null}},{"type":"Feature","id":204,"geometry":{"type":"Point","coordinates":[23.032463200000052,37.925161900000035]},"properties":{"OBJECTID":204,"name":"Μετωπικά Διόδια Ισθμού","name_en":"Toll Station Isthmos","operator":null,"charge":null}},{"type":"Feature","id":205,"geometry":{"type":"Point","coordinates":[21.579916200000071,40.236234400000058]},"properties":{"OBJECTID":205,"name":"Πλευρικά Σιατίστων 0,95\u20AC","name_en":null,"operator":null,"charge":null}},{"type":"Feature","id":206,"geometry":{"type":"Point","coordinates":[21.579759300000035,40.236933400000055]},"properties":{"OBJECTID":206,"name":"Πλευρικά Σιατίστων 0,95\u20AC","name_en":null,"operator":null,"charge":null}},{"type":"Feature","id":207,"geometry":{"type":"Point","coordinates":[23.257269500000064,40.685040700000059]},"properties":{"OBJECTID":207,"name":"Πλευρικά Προφήτη 1,15\u20AC","name_en":null,"operator":null,"charge":null}},{"type":"Feature","id":208,"geometry":{"type":"Point","coordinates":[23.011086300000045,40.74030010000007]},"properties":{"OBJECTID":208,"name":"Πλευρικά Λαγκαδά 0,3\u20AC","name_en":null,"operator":null,"charge":null}},{"type":"Feature","id":209,"geometry":{"type":"Point","coordinates":[23.00887350000005,40.739806800000053]},"properties":{"OBJECTID":209,"name":"Πλευρικά Λαγκαδά 0,3\u20AC","name_en":null,"operator":null,"charge":null}},{"type":"Feature","id":210,"geometry":{"type":"Point","coordinates":[24.298972100000071,40.874300800000071]},"properties":{"OBJECTID":210,"name":"Πλευρικά Αγίου Ανδρέα 0,45\u20AC","name_en":null,"operator":null,"charge":null}},{"type":"Feature","id":211,"geometry":{"type":"Point","coordinates":[23.956318800000076,40.787418800000069]},"properties":{"OBJECTID":211,"name":"Πλευρικά Γαληψού-Ορφανίου 0,35\u20AC","name_en":null,"operator":null,"charge":null}},{"type":"Feature","id":212,"geometry":{"type":"Point","coordinates":[21.680617500000039,40.297846100000072]},"properties":{"OBJECTID":212,"name":"Πλευρικά Καλαμιά 0,45\u20AC","name_en":null,"operator":null,"charge":null}},{"type":"Feature","id":213,"geometry":{"type":"Point","coordinates":[21.69025060000007,40.302306900000076]},"properties":{"OBJECTID":213,"name":"Πλευρικά Καλαμιά 0,45\u20AC","name_en":null,"operator":null,"charge":null}},{"type":"Feature","id":214,"geometry":{"type":"Point","coordinates":[22.069105800000045,39.210485800000072]},"properties":{"OBJECTID":214,"name":"Πλευρικά Διόδια Ανάβρας","name_en":null,"operator":null,"charge":"2\u20AC"}},{"type":"Feature","id":215,"geometry":{"type":"Point","coordinates":[21.272189400000059,38.549350400000037]},"properties":{"OBJECTID":215,"name":"Διόδια Αγγελοκάστρου","name_en":null,"operator":null,"charge":null}},{"type":"Feature","id":216,"geometry":{"type":"Point","coordinates":[21.765806200000043,38.33379240000005]},"properties":{"OBJECTID":216,"name":null,"name_en":null,"operator":null,"charge":null}},{"type":"Feature","id":217,"geometry":{"type":"Point","coordinates":[21.656746100000078,38.359352200000046]},"properties":{"OBJECTID":217,"name":"Σταθμός Διοδίων Κλόκοβας","name_en":null,"operator":null,"charge":null}},{"type":"Feature","id":218,"geometry":{"type":"Point","coordinates":[21.65648120000003,38.359146800000076]},"properties":{"OBJECTID":218,"name":"Σταθμός Διοδίων Κλόκοβας","name_en":null,"operator":null,"charge":null}},{"type":"Feature","id":219,"geometry":{"type":"Point","coordinates":[21.171099300000037,38.989886700000056]},"properties":{"OBJECTID":219,"name":"Διόδια Μενιδίου","name_en":"Toll Menidi","operator":null,"charge":"0.50\u20AC/KAT1;0.75\u20AC/KAT2;1.95\u20AC/KAT3;2.70\u20AC/KAT4"}},{"type":"Feature","id":220,"geometry":{"type":"Point","coordinates":[20.905400800000052,39.425485700000024]},"properties":{"OBJECTID":220,"name":"Μετωπικά Διόδια Τερόβου","name_en":"Toll Terovo","operator":null,"charge":"2.20\u20AC/KAT1;3.10\u20AC/KAT2;7.85\u20AC/KAT3;11.00\u20AC/KAT4"}},{"type":"Feature","id":221,"geometry":{"type":"Point","coordinates":[21.829991700000051,38.316530300000068]},"properties":{"OBJECTID":221,"name":"Μετωπικά Διόδια Ρίου","name_en":"Toll Booth Rio","operator":null,"charge":null}},{"type":"Feature","id":222,"geometry":{"type":"Point","coordinates":[22.16541170000005,38.19090680000005]},"properties":{"OBJECTID":222,"name":"Μετωπικά Διόδια Ελαιώνα","name_en":"Eleonas Toll Station","operator":null,"charge":null}},{"type":"Feature","id":223,"geometry":{"type":"Point","coordinates":[24.472309500000051,40.959803100000045]},"properties":{"OBJECTID":223,"name":"Μετωπικά Καβάλας 1,85\u20AC","name_en":null,"operator":null,"charge":null}},{"type":"Feature","id":224,"geometry":{"type":"Point","coordinates":[24.47239460000003,40.959688500000027]},"properties":{"OBJECTID":224,"name":"Μετωπικά Καβάλας 1,85\u20AC","name_en":null,"operator":null,"charge":null}},{"type":"Feature","id":225,"geometry":{"type":"Point","coordinates":[24.463519400000052,40.95619750000003]},"properties":{"OBJECTID":225,"name":"Πλευρικά Άσπρα Χώματα 0,4\u20AC","name_en":null,"operator":null,"charge":null}},{"type":"Feature","id":226,"geometry":{"type":"Point","coordinates":[23.356704700000023,41.364287700000034]},"properties":{"OBJECTID":226,"name":"Σταθμός Διοδίων Προμαχώνα","name_en":"Promachonas Toll Station","operator":null,"charge":"2.40\u20AC"}},{"type":"Feature","id":227,"geometry":{"type":"Point","coordinates":[23.356865200000072,41.364229900000055]},"properties":{"OBJECTID":227,"name":"Σταθμός Διοδίων Προμαχώνα","name_en":"Promachonas Toll Station","operator":null,"charge":"2.40\u20AC"}},{"type":"Feature","id":228,"geometry":{"type":"Point","coordinates":[21.375140400000078,37.800650500000074]},"properties":{"OBJECTID":228,"name":"Πλευρικά Διόδια Αμαλιάδας (Προς Πάτρα)","name_en":null,"operator":null,"charge":null}},{"type":"Feature","id":229,"geometry":{"type":"Point","coordinates":[21.527962700000046,38.114812500000028]},"properties":{"OBJECTID":229,"name":"Πλευρικά Διόδια Κάτω Αχαΐας (Προς Κάτω Αχαΐα)","name_en":null,"operator":null,"charge":null}},{"type":"Feature","id":230,"geometry":{"type":"Point","coordinates":[21.526824300000044,38.114529700000048]},"properties":{"OBJECTID":230,"name":"Πλευρικά Διόδια Κάτω Αχαΐας (Προς Πύργο)","name_en":null,"operator":null,"charge":null}},{"type":"Feature","id":231,"geometry":{"type":"Point","coordinates":[26.205090300000052,40.944616200000041]},"properties":{"OBJECTID":231,"name":"Μετωπικά Αρδανίου 1,60\u20AC","name_en":null,"operator":"ΕΓΝΑΤΙΑ ΟΔΟΣ ΑΕ","charge":null}},{"type":"Feature","id":232,"geometry":{"type":"Point","coordinates":[21.619140800000025,38.145199300000058]},"properties":{"OBJECTID":232,"name":null,"name_en":null,"operator":null,"charge":null}},{"type":"Feature","id":233,"geometry":{"type":"Point","coordinates":[21.618789900000024,38.144971400000031]},"properties":{"OBJECTID":233,"name":null,"name_en":null,"operator":null,"charge":null}},{"type":"Feature","id":234,"geometry":{"type":"Point","coordinates":[21.358769500000051,37.752806700000065]},"properties":{"OBJECTID":234,"name":null,"name_en":null,"operator":null,"charge":null}},{"type":"Feature","id":235,"geometry":{"type":"Point","coordinates":[21.358830900000044,37.752384100000029]},"properties":{"OBJECTID":235,"name":null,"name_en":null,"operator":null,"charge":null}}]}