{"type":"FeatureCollection","features":[{"type":"Feature","id":18,"geometry":{"type":"Polygon","coordinates":[[[23.687705200000039,37.940936600000043],[23.687690400000065,37.940919700000052],[23.687676000000067,37.940903400000025],[23.688372600000037,37.94052350000004],[23.688401600000077,37.940556600000036],[23.687705200000039,37.940936600000043]]]},"properties":{"OBJECTID":18,"length":157.64986631850496}},{"type":"Feature","id":19,"geometry":{"type":"Polygon","coordinates":[[[23.691806500000041,37.937548400000026],[23.692779800000039,37.937290200000064],[23.692795200000035,37.937326400000074],[23.691821900000036,37.937584600000037],[23.691814200000067,37.937566500000059],[23.691806500000041,37.937548400000026]]]},"properties":{"OBJECTID":19,"length":188.94415664842114}},{"type":"Feature","id":20,"geometry":{"type":"Polygon","coordinates":[[[23.684488900000076,37.942586800000072],[23.684496600000045,37.942598900000064],[23.684504300000071,37.942610900000034],[23.684473700000069,37.942623100000048],[23.684375700000032,37.942662100000064],[23.684196900000074,37.942729500000041],[23.684025600000041,37.942788700000051],[23.683870700000057,37.942838400000028],[23.683685000000025,37.942896200000064],[23.683659900000066,37.942903400000034],[23.683648100000028,37.942878200000052],[23.683672800000068,37.942871000000025],[23.683858000000043,37.942813400000034],[23.684012300000063,37.942763900000045],[23.684182600000042,37.942705000000046],[23.684360600000048,37.942637900000079],[23.68445840000004,37.942598900000064],[23.684488900000076,37.942586800000072]]]},"properties":{"OBJECTID":20,"length":167.76829197450556}},{"type":"Feature","id":21,"geometry":{"type":"Polygon","coordinates":[[[23.684458100000029,37.942538700000057],[23.684427500000027,37.942550900000072],[23.684330500000044,37.942589500000054],[23.684154200000023,37.942656000000056],[23.683985700000051,37.942714200000069],[23.683832600000073,37.942763300000024],[23.683648400000038,37.942820600000061],[23.683623300000079,37.942827900000054],[23.683616800000038,37.942814000000055],[23.68361150000004,37.94280260000005],[23.683636200000024,37.94279540000008],[23.68381990000006,37.94273830000003],[23.683972400000073,37.942689400000063],[23.684139900000048,37.942631500000061],[23.68431540000006,37.942565300000069],[23.684411800000078,37.942527000000041],[23.684442700000034,37.942514700000061],[23.684450200000072,37.942526400000077],[23.684458100000029,37.942538700000057]]]},"properties":{"OBJECTID":21,"length":165.91881733865387}},{"type":"Feature","id":32,"geometry":{"type":"Polygon","coordinates":[[[23.709813600000075,37.929772400000047],[23.710009100000036,37.930427000000066],[23.709981500000026,37.930432100000075],[23.709785900000043,37.929777500000057],[23.709813600000075,37.929772400000047]]]},"properties":{"OBJECTID":32,"length":154.31917163770217}},{"type":"Feature","id":33,"geometry":{"type":"Polygon","coordinates":[[[23.710997600000042,37.933645800000079],[23.710973000000024,37.933650700000044],[23.710751500000072,37.932954500000051],[23.710776100000032,37.932949600000029],[23.71093140000005,37.933437600000047],[23.710997600000042,37.933645800000079]]]},"properties":{"OBJECTID":33,"length":163.84104654655832}},{"type":"Feature","id":34,"geometry":{"type":"Polygon","coordinates":[[[23.713165900000035,37.940534600000035],[23.712958800000024,37.939879200000064],[23.712983700000052,37.939874300000042],[23.713190700000041,37.94052970000007],[23.713165900000035,37.940534600000035]]]},"properties":{"OBJECTID":34,"length":154.47937201353238}},{"type":"Feature","id":35,"geometry":{"type":"Polygon","coordinates":[[[23.711982000000035,37.936791800000037],[23.712207000000035,37.93749390000005],[23.712180900000078,37.937499100000025],[23.711955900000078,37.936797100000035],[23.711982000000035,37.936791800000037]]]},"properties":{"OBJECTID":35,"length":165.52504349081028}},{"type":"Feature","id":36,"geometry":{"type":"Polygon","coordinates":[[[23.724188800000036,37.954911300000049],[23.723633100000029,37.954392000000041],[23.723651700000062,37.954379700000061],[23.724207300000046,37.954899000000069],[23.724188800000036,37.954911300000049]]]},"properties":{"OBJECTID":36,"length":155.34420698887354}},{"type":"Feature","id":37,"geometry":{"type":"Polygon","coordinates":[[[23.719236400000057,37.95036360000006],[23.719217800000024,37.950378400000034],[23.718610300000023,37.949903200000051],[23.718629000000078,37.949888400000077],[23.719236400000057,37.95036360000006]]]},"properties":{"OBJECTID":37,"length":154.74168647822066}},{"type":"Feature","id":38,"geometry":{"type":"Polygon","coordinates":[[[23.713940900000068,37.94304690000007],[23.713917500000036,37.943051500000024],[23.71369720000007,37.942347200000029],[23.713720600000045,37.942342600000075],[23.713940900000068,37.94304690000007]]]},"properties":{"OBJECTID":38,"length":165.31210336828687}},{"type":"Feature","id":39,"geometry":{"type":"Polygon","coordinates":[[[23.715200100000061,37.947056000000032],[23.715174800000057,37.94706160000004],[23.714942300000075,37.946407000000079],[23.714967500000057,37.946401500000036],[23.715200100000061,37.947056000000032]]]},"properties":{"OBJECTID":39,"length":155.55195436031289}},{"type":"Feature","id":40,"geometry":{"type":"Polygon","coordinates":[[[23.732050500000071,37.966916900000058],[23.731474100000071,37.966474900000037],[23.731491300000073,37.966461000000038],[23.73206760000005,37.966903000000059],[23.732050500000071,37.966916900000058]]]},"properties":{"OBJECTID":40,"length":145.33583371253962}},{"type":"Feature","id":56,"geometry":{"type":"Polygon","coordinates":[[[23.72737950000004,37.957889800000032],[23.727374600000076,37.957867500000077],[23.727860300000032,37.957802800000024],[23.727899200000024,37.957794400000068],[23.727936400000033,37.957783500000062],[23.727948300000037,37.957804300000078],[23.727909600000032,37.95781640000007],[23.72786670000005,37.957824500000072],[23.72737950000004,37.957889800000032]]]},"properties":{"OBJECTID":56,"length":106.31900021011501}},{"type":"Feature","id":57,"geometry":{"type":"Polygon","coordinates":[[[23.727075200000058,37.957109600000024],[23.727045000000032,37.957001700000035],[23.727071800000033,37.956997100000081],[23.727101900000036,37.957104700000059],[23.727243200000032,37.957609800000057],[23.727216300000066,37.957614500000034],[23.727075200000058,37.957109600000024]]]},"properties":{"OBJECTID":57,"length":144.15042421441962}},{"type":"Feature","id":58,"geometry":{"type":"Polygon","coordinates":[[[23.752532300000041,37.850009000000057],[23.752725100000077,37.849333500000057],[23.75274440000004,37.849336900000026],[23.752551600000061,37.850012400000026],[23.752532300000041,37.850009000000057]]]},"properties":{"OBJECTID":58,"length":157.22485119693994}},{"type":"Feature","id":59,"geometry":{"type":"Polygon","coordinates":[[[23.75241630000005,37.849988400000029],[23.752609000000064,37.849312800000064],[23.752628400000049,37.849316300000055],[23.752435600000069,37.849991800000055],[23.75241630000005,37.849988400000029]]]},"properties":{"OBJECTID":59,"length":157.2447589944108}},{"type":"Feature","id":70,"geometry":{"type":"Polygon","coordinates":[[[23.669044500000041,37.94455030000006],[23.669044500000041,37.944561000000078],[23.669044500000041,37.944571800000062],[23.668944300000078,37.94457170000004],[23.668779100000052,37.944569600000079],[23.668630900000039,37.944566100000031],[23.668152300000031,37.944550400000026],[23.668152900000052,37.944539600000041],[23.668153500000074,37.94452890000008],[23.668631900000037,37.944544600000029],[23.668779700000073,37.944548000000054],[23.668944500000066,37.944550100000072],[23.669044500000041,37.94455030000006]]]},"properties":{"OBJECTID":70,"length":161.60305268901931}},{"type":"Feature","id":71,"geometry":{"type":"Polygon","coordinates":[[[23.668149500000027,37.944604300000037],[23.668628500000068,37.944620000000043],[23.668777500000033,37.944623500000034],[23.668943700000057,37.944625600000052],[23.669044400000075,37.944625700000074],[23.669044300000053,37.944636500000058],[23.669044300000053,37.944647300000042],[23.668943400000046,37.944647100000054],[23.668776900000069,37.944645000000037],[23.668627500000071,37.944641500000046],[23.668148300000041,37.94462580000004],[23.668148900000062,37.944615000000056],[23.668149500000027,37.944604300000037]]]},"properties":{"OBJECTID":71,"length":162.29095531833812}},{"type":"Feature","id":72,"geometry":{"type":"Polygon","coordinates":[[[23.663454400000035,37.943902500000036],[23.664215900000045,37.94384180000003],[23.664299200000073,37.943836700000077],[23.664302100000043,37.943855600000063],[23.664304100000038,37.943871800000068],[23.664220700000044,37.943879000000038],[23.663459200000034,37.943939800000066],[23.663454400000035,37.943902500000036]]]},"properties":{"OBJECTID":72,"length":157.34788042003913}},{"type":"Feature","id":73,"geometry":{"type":"Polygon","coordinates":[[[23.663419400000066,37.94377680000008],[23.664286400000037,37.943737500000054],[23.664288100000078,37.943760000000054],[23.66428970000004,37.943782100000078],[23.663422600000047,37.943821600000035],[23.663419400000066,37.94377680000008]]]},"properties":{"OBJECTID":73,"length":162.61664537910821}},{"type":"Feature","id":74,"geometry":{"type":"Polygon","coordinates":[[[23.677534100000059,37.944246500000077],[23.677959400000077,37.944221600000049],[23.678176900000039,37.944208100000026],[23.678378300000077,37.944192600000065],[23.678380200000049,37.944205600000032],[23.678382400000032,37.944219800000042],[23.678180100000077,37.944235000000049],[23.677962100000059,37.944249200000058],[23.677537000000029,37.944273400000043],[23.677535600000056,37.944260500000041],[23.677534100000059,37.944246500000077]]]},"properties":{"OBJECTID":74,"length":155.03624918453372}},{"type":"Feature","id":75,"geometry":{"type":"Polygon","coordinates":[[[23.678392200000076,37.944274500000063],[23.678392900000063,37.944283600000063],[23.678394400000059,37.944297300000073],[23.67797360000003,37.944328400000074],[23.67754560000003,37.944354000000033],[23.677544200000057,37.944341100000031],[23.67754270000006,37.944327100000066],[23.677970000000073,37.944303800000057],[23.678392200000076,37.944274500000063]]]},"properties":{"OBJECTID":75,"length":155.31254972536689}},{"type":"Feature","id":76,"geometry":{"type":"Polygon","coordinates":[[[23.694256300000063,37.934250700000064],[23.694245700000067,37.934256600000026],[23.694237000000044,37.934261800000058],[23.693692000000055,37.933712200000059],[23.693701100000055,37.93370660000005],[23.693711900000039,37.933700000000044],[23.694256300000063,37.934250700000064]]]},"properties":{"OBJECTID":76,"length":159.51006970118712}},{"type":"Feature","id":77,"geometry":{"type":"Polygon","coordinates":[[[23.693636400000059,37.933748000000037],[23.694187800000066,37.934289900000067],[23.694175100000052,37.934297700000059],[23.694163800000069,37.934304300000065],[23.69361200000003,37.933763500000055],[23.693623000000059,37.933756500000072],[23.693636400000059,37.933748000000037]]]},"properties":{"OBJECTID":77,"length":159.823953541224}},{"type":"Feature","id":81,"geometry":{"type":"Polygon","coordinates":[[[23.736786500000051,37.969162800000049],[23.736032300000034,37.96941570000007],[23.736021700000038,37.969398000000069],[23.736777700000061,37.969145900000058],[23.736786500000051,37.969162800000049]]]},"properties":{"OBJECTID":81,"length":148.25600137438062}},{"type":"Feature","id":92,"geometry":{"type":"Polygon","coordinates":[[[23.735296800000071,37.974087900000029],[23.735454200000049,37.974775400000055],[23.735433100000023,37.974774000000025],[23.735278900000026,37.97409040000008],[23.735296800000071,37.974087900000029]]]},"properties":{"OBJECTID":92,"length":158.08720806412592}},{"type":"Feature","id":93,"geometry":{"type":"Polygon","coordinates":[[[23.735314800000026,37.974085400000035],[23.735468900000058,37.974768900000072],[23.735454200000049,37.974775400000055],[23.735296800000071,37.974087900000029],[23.735314800000026,37.974085400000035]]]},"properties":{"OBJECTID":93,"length":157.70241617003637}},{"type":"Feature","id":114,"geometry":{"type":"Polygon","coordinates":[[[23.738059600000042,37.968855500000075],[23.737699200000066,37.968515900000057],[23.737719000000027,37.968502900000033],[23.738079400000061,37.968842400000028],[23.738059600000042,37.968855500000075]]]},"properties":{"OBJECTID":114,"length":102.98209592076054}},{"type":"Feature","id":115,"geometry":{"type":"Polygon","coordinates":[[[23.718647600000054,37.949873600000046],[23.719255100000055,37.950348800000029],[23.719236400000057,37.95036360000006],[23.718629000000078,37.949888400000077],[23.718647600000054,37.949873600000046]]]},"properties":{"OBJECTID":115,"length":154.74170193140972}},{"type":"Feature","id":116,"geometry":{"type":"Polygon","coordinates":[[[23.724188800000036,37.954911300000049],[23.72417020000006,37.954923700000052],[23.723614500000053,37.954404400000044],[23.723633100000029,37.954392000000041],[23.724188800000036,37.954911300000049]]]},"properties":{"OBJECTID":116,"length":155.37087932918939}},{"type":"Feature","id":117,"geometry":{"type":"Polygon","coordinates":[[[23.712008200000071,37.936786600000062],[23.712233100000049,37.937488700000074],[23.712207000000035,37.93749390000005],[23.711982000000035,37.936791800000037],[23.712008200000071,37.936786600000062]]]},"properties":{"OBJECTID":117,"length":165.5394344673004}},{"type":"Feature","id":118,"geometry":{"type":"Polygon","coordinates":[[[23.713165900000035,37.940534600000035],[23.71314110000003,37.940539500000057],[23.712934000000075,37.939884100000029],[23.712958800000024,37.939879200000064],[23.713165900000035,37.940534600000035]]]},"properties":{"OBJECTID":118,"length":154.47297477137784}},{"type":"Feature","id":119,"geometry":{"type":"Polygon","coordinates":[[[23.711022300000025,37.933640900000057],[23.710997600000042,37.933645800000079],[23.71093140000005,37.933437600000047],[23.710776100000032,37.932949600000029],[23.710800800000072,37.93294480000003],[23.711022300000025,37.933640900000057]]]},"properties":{"OBJECTID":119,"length":163.84466696398962}},{"type":"Feature","id":120,"geometry":{"type":"Polygon","coordinates":[[[23.709841200000028,37.929767200000072],[23.710036800000069,37.930421800000033],[23.710009100000036,37.930427000000066],[23.709813600000075,37.929772400000047],[23.709841200000028,37.929767200000072]]]},"properties":{"OBJECTID":120,"length":154.32425385660088}},{"type":"Feature","id":121,"geometry":{"type":"Polygon","coordinates":[[[23.713940900000068,37.94304690000007],[23.713720600000045,37.942342600000075],[23.713744000000077,37.942338100000029],[23.713964300000043,37.943042400000024],[23.713940900000068,37.94304690000007]]]},"properties":{"OBJECTID":121,"length":165.3068107339252}},{"type":"Feature","id":122,"geometry":{"type":"Polygon","coordinates":[[[23.714992800000061,37.946395900000027],[23.715225300000043,37.94705040000008],[23.715200100000061,37.947056000000032],[23.714967500000057,37.946401500000036],[23.714992800000061,37.946395900000027]]]},"properties":{"OBJECTID":122,"length":155.54424465867987}},{"type":"Feature","id":123,"geometry":{"type":"Polygon","coordinates":[[[23.732050500000071,37.966916900000058],[23.732033400000034,37.966930800000057],[23.731457000000034,37.966488800000036],[23.731474100000071,37.966474900000037],[23.732050500000071,37.966916900000058]]]},"properties":{"OBJECTID":123,"length":145.335991156501}},{"type":"Feature","id":124,"geometry":{"type":"Polygon","coordinates":[[[23.728017600000044,37.964974700000027],[23.727891700000043,37.964913200000069],[23.727770100000043,37.964847100000043],[23.727652900000066,37.96477630000004],[23.727540300000044,37.964700900000025],[23.727432500000077,37.964621200000067],[23.727329700000041,37.964537200000052],[23.727337100000057,37.964531600000043],[23.727354300000059,37.964518500000054],[23.727456600000039,37.964602100000036],[23.727563000000032,37.964680800000053],[23.727674300000047,37.964755300000036],[23.727790200000072,37.96482530000003],[23.727910400000042,37.964890600000047],[23.728035600000055,37.964951700000029],[23.728017600000044,37.964974700000027]]]},"properties":{"OBJECTID":124,"length":160.88632093124264}},{"type":"Feature","id":125,"geometry":{"type":"Polygon","coordinates":[[[23.727248600000053,37.964596400000062],[23.72726700000004,37.964583100000027],[23.727273800000034,37.964578200000062],[23.727361500000029,37.964653600000076],[23.727454300000034,37.964725700000031],[23.727551500000061,37.96479400000004],[23.727652900000066,37.964858400000026],[23.727758300000062,37.964918700000055],[23.727867400000036,37.96497480000005],[23.72797950000006,37.965026300000034],[23.727962300000058,37.965049600000043],[23.727849400000025,37.964997700000026],[23.727738900000077,37.964940900000045],[23.727632100000051,37.964879800000062],[23.727529400000037,37.964814600000068],[23.727430900000059,37.964745300000061],[23.727336900000068,37.964672300000075],[23.727248600000053,37.964596400000062]]]},"properties":{"OBJECTID":125,"length":166.68757670056377}},{"type":"Feature","id":126,"geometry":{"type":"Polygon","coordinates":[[[23.723548700000038,37.960074300000031],[23.723576900000069,37.960074500000076],[23.723568300000068,37.960792900000058],[23.723540100000037,37.96079270000007],[23.723548700000038,37.960074300000031]]]},"properties":{"OBJECTID":126,"length":164.4424350122834}},{"type":"Feature","id":127,"geometry":{"type":"Polygon","coordinates":[[[23.723467700000072,37.960073700000066],[23.723459100000071,37.960788200000025],[23.723435000000052,37.960788000000036],[23.723437000000047,37.960300200000063],[23.723437700000034,37.960118600000044],[23.723438200000032,37.960073400000056],[23.723467700000072,37.960073700000066]]]},"properties":{"OBJECTID":127,"length":163.33884830104222}},{"type":"Feature","id":128,"geometry":{"type":"Polygon","coordinates":[[[23.752725100000077,37.849333500000057],[23.752532300000041,37.850009000000057],[23.752512900000056,37.850005600000031],[23.752705700000035,37.849330100000032],[23.752725100000077,37.849333500000057]]]},"properties":{"OBJECTID":128,"length":157.24203702746874}},{"type":"Feature","id":129,"geometry":{"type":"Polygon","coordinates":[[[23.752609000000064,37.849312800000064],[23.75241630000005,37.849988400000029],[23.752396900000065,37.849984900000038],[23.752589700000044,37.849309400000038],[23.752609000000064,37.849312800000064]]]},"properties":{"OBJECTID":129,"length":157.24475935122621}},{"type":"Feature","id":130,"geometry":{"type":"Polygon","coordinates":[[[23.747939300000041,37.863448900000037],[23.747937600000057,37.863466800000026],[23.747935900000073,37.863484700000072],[23.747830400000055,37.863478500000042],[23.747725400000036,37.86347040000004],[23.747620700000027,37.863460500000031],[23.747516300000029,37.863448700000049],[23.747412300000065,37.863435000000038],[23.747308600000054,37.863419600000043],[23.747205500000064,37.863402300000075],[23.747102400000074,37.863383100000078],[23.747107700000072,37.863365600000066],[23.747112900000047,37.863348100000053],[23.747215400000073,37.863367200000027],[23.747317600000031,37.863384300000064],[23.747420200000079,37.863399700000059],[23.747523300000069,37.863413200000025],[23.747626600000046,37.863424800000075],[23.747730400000023,37.863434700000028],[23.747834300000022,37.863442700000064],[23.747939300000041,37.863448900000037]]]},"properties":{"OBJECTID":130,"length":155.95285663210055}},{"type":"Feature","id":131,"geometry":{"type":"Polygon","coordinates":[[[23.747924600000033,37.863579500000071],[23.747855900000047,37.863575600000047],[23.747817800000064,37.863573200000076],[23.747710300000051,37.863564900000029],[23.747603100000049,37.863554700000066],[23.747496100000035,37.863542700000039],[23.747389600000076,37.863528700000074],[23.747283500000037,37.863512900000046],[23.747177800000031,37.863495200000045],[23.747073500000056,37.86347580000006],[23.747078800000054,37.863458300000048],[23.747084000000029,37.863440800000035],[23.74718770000004,37.863460100000054],[23.747292400000049,37.863477600000067],[23.747397500000034,37.863493300000073],[23.747503100000074,37.863507100000049],[23.747609000000068,37.863519100000076],[23.747715200000073,37.863529200000073],[23.747821700000031,37.863537400000041],[23.747928000000059,37.863543700000037],[23.747926300000074,37.863561600000025],[23.747924600000033,37.863579500000071]]]},"properties":{"OBJECTID":131,"length":159.0868412322159}},{"type":"Feature","id":132,"geometry":{"type":"Polygon","coordinates":[[[23.743568800000048,37.864467300000058],[23.742785200000071,37.864824800000065],[23.742776400000025,37.864814100000046],[23.742766600000039,37.864802300000065],[23.743553200000065,37.864443600000072],[23.743561600000078,37.864456300000029],[23.743568800000048,37.864467300000058]]]},"properties":{"OBJECTID":132,"length":165.35688114393469}},{"type":"Feature","id":133,"geometry":{"type":"Polygon","coordinates":[[[23.742820800000061,37.864866300000074],[23.743601700000056,37.864513000000045],[23.743608800000061,37.864526400000045],[23.743615000000034,37.864538000000039],[23.74283760000003,37.864889400000038],[23.742828000000031,37.864876200000026],[23.742820800000061,37.864866300000074]]]},"properties":{"OBJECTID":133,"length":163.83175289750707}},{"type":"Feature","id":134,"geometry":{"type":"Polygon","coordinates":[[[23.737986900000067,37.867905200000052],[23.738838300000054,37.867637400000035],[23.738848100000041,37.86765790000004],[23.737996000000066,37.867926400000044],[23.737991600000043,37.867916100000059],[23.737986900000067,37.867905200000052]]]},"properties":{"OBJECTID":134,"length":166.19694121756351}},{"type":"Feature","id":135,"geometry":{"type":"Polygon","coordinates":[[[23.738813500000049,37.867586700000061],[23.737962300000049,37.867852300000038],[23.737957700000038,37.867843200000038],[23.737953700000048,37.867835300000024],[23.73880360000004,37.867565300000024],[23.738813500000049,37.867586700000061]]]},"properties":{"OBJECTID":135,"length":165.61696670107992}},{"type":"Feature","id":136,"geometry":{"type":"Polygon","coordinates":[[[23.734895300000062,37.871684500000072],[23.73542800000007,37.871196100000077],[23.735452400000042,37.871211100000039],[23.735255900000027,37.871392300000025],[23.735019000000023,37.871604700000034],[23.734917500000051,37.871698600000059],[23.734905400000059,37.871690900000033],[23.734895300000062,37.871684500000072]]]},"properties":{"OBJECTID":136,"length":148.59711163501362}},{"type":"Feature","id":137,"geometry":{"type":"Polygon","coordinates":[[[23.735536900000056,37.871209600000043],[23.735563600000035,37.871226300000046],[23.735326600000064,37.871445900000026],[23.735183600000028,37.871573600000033],[23.735108400000058,37.87163860000004],[23.734985900000027,37.871746600000051],[23.73497750000007,37.871741100000065],[23.734968300000048,37.87173510000008],[23.735017200000073,37.871688100000028],[23.735256800000059,37.87146910000007],[23.735536900000056,37.871209600000043]]]},"properties":{"OBJECTID":137,"length":158.78397131224693}},{"type":"Feature","id":138,"geometry":{"type":"Polygon","coordinates":[[[23.751034200000049,37.862909800000068],[23.751228500000025,37.862830200000076],[23.751396800000066,37.862757700000031],[23.751526900000044,37.862699500000076],[23.751698900000065,37.862619800000061],[23.751825000000053,37.862554800000055],[23.751839500000074,37.862571500000058],[23.751830700000028,37.862576500000046],[23.751719600000058,37.862630400000057],[23.751535500000045,37.862716200000079],[23.751411300000029,37.862772500000062],[23.751308300000062,37.862817100000029],[23.751160200000072,37.862879600000042],[23.751044300000046,37.86292700000007],[23.751034200000049,37.862909800000068]]]},"properties":{"OBJECTID":138,"length":164.73003544191567}},{"type":"Feature","id":139,"geometry":{"type":"Polygon","coordinates":[[[23.754084100000057,37.860427600000037],[23.754471600000045,37.859773500000074],[23.754495400000053,37.85978190000003],[23.754488000000038,37.859794300000033],[23.754351600000064,37.860023700000056],[23.754266700000073,37.860171900000068],[23.754104900000073,37.860435400000028],[23.754084100000057,37.860427600000037]]]},"properties":{"OBJECTID":139,"length":164.79464847669695}},{"type":"Feature","id":140,"geometry":{"type":"Polygon","coordinates":[[[23.754424500000027,37.856435100000056],[23.754402800000037,37.856440700000064],[23.754366300000072,37.856353200000058],[23.754281200000037,37.856147800000031],[23.754217200000028,37.856008400000064],[23.75409460000003,37.855761800000039],[23.754118400000038,37.855754000000047],[23.754185600000028,37.855885900000033],[23.754240000000038,37.856001400000025],[23.754324600000075,37.85618960000005],[23.754424500000027,37.856435100000056]]]},"properties":{"OBJECTID":140,"length":164.66946278127227}},{"type":"Feature","id":141,"geometry":{"type":"Polygon","coordinates":[[[23.729230200000075,37.881470300000046],[23.729213600000037,37.881463500000052],[23.72920060000007,37.881458100000032],[23.729624000000058,37.880819600000052],[23.72963580000004,37.880824700000062],[23.729653400000075,37.880831800000067],[23.729230200000075,37.881470300000046]]]},"properties":{"OBJECTID":141,"length":165.97109973141619}},{"type":"Feature","id":142,"geometry":{"type":"Polygon","coordinates":[[[23.729293300000052,37.881493500000033],[23.729712300000074,37.880854600000077],[23.729728400000056,37.880861200000027],[23.729742400000077,37.880866900000058],[23.729323600000043,37.881505900000036],[23.729310600000076,37.881500600000038],[23.729293300000052,37.881493500000033]]]},"properties":{"OBJECTID":142,"length":165.82544214616647}},{"type":"Feature","id":143,"geometry":{"type":"Polygon","coordinates":[[[23.731620500000076,37.876169400000038],[23.732002500000078,37.875554600000044],[23.732034200000044,37.875566900000024],[23.731652300000064,37.876181700000075],[23.731620500000076,37.876169400000038]]]},"properties":{"OBJECTID":143,"length":158.34746420482301}},{"type":"Feature","id":144,"geometry":{"type":"Polygon","coordinates":[[[23.731729100000052,37.87620830000003],[23.732102800000064,37.875600100000042],[23.732130700000027,37.875610800000061],[23.731756800000028,37.876218900000026],[23.731729100000052,37.87620830000003]]]},"properties":{"OBJECTID":144,"length":155.60564808893315}},{"type":"Feature","id":145,"geometry":{"type":"Polygon","coordinates":[[[23.726752600000054,37.885283400000048],[23.726743900000031,37.885279800000035],[23.726721800000064,37.88527090000008],[23.727112600000055,37.884671400000059],[23.727143600000034,37.884683900000027],[23.726752600000054,37.885283400000048]]]},"properties":{"OBJECTID":145,"length":155.90630778595991}},{"type":"Feature","id":146,"geometry":{"type":"Polygon","coordinates":[[[23.726826200000062,37.885306400000047],[23.727199100000064,37.884727400000031],[23.727212800000075,37.884732900000074],[23.727227600000049,37.884738800000036],[23.726854500000059,37.88531770000003],[23.726840200000026,37.885312000000056],[23.726826200000062,37.885306400000047]]]},"properties":{"OBJECTID":146,"length":149.90166769441879}},{"type":"Feature","id":147,"geometry":{"type":"Polygon","coordinates":[[[23.723068700000056,37.891072000000065],[23.723506800000052,37.890401500000053],[23.723519400000043,37.890406600000063],[23.723532200000022,37.890411800000038],[23.723093900000038,37.891082300000051],[23.723085300000037,37.891078700000037],[23.723068700000056,37.891072000000065]]]},"properties":{"OBJECTID":147,"length":172.62649139149306}},{"type":"Feature","id":148,"geometry":{"type":"Polygon","coordinates":[[[23.723404400000049,37.890441900000042],[23.723228000000063,37.890713500000061],[23.723212300000057,37.890737700000045],[23.723020200000065,37.891033400000026],[23.723005500000056,37.891027500000064],[23.722990500000037,37.891021400000056],[23.723374900000067,37.890429900000072],[23.723404400000049,37.890441900000042]]]},"properties":{"OBJECTID":148,"length":153.53881336667507}},{"type":"Feature","id":149,"geometry":{"type":"Polygon","coordinates":[[[23.721356800000024,37.893941000000041],[23.721167100000059,37.894592900000077],[23.721152700000061,37.894590300000061],[23.721139100000073,37.894587800000068],[23.72132890000006,37.893936000000053],[23.721356800000024,37.893941000000041]]]},"properties":{"OBJECTID":149,"length":153.54674457217129}},{"type":"Feature","id":150,"geometry":{"type":"Polygon","coordinates":[[[23.72106180000003,37.894596800000045],[23.721050500000047,37.894594700000027],[23.721041000000071,37.894592900000077],[23.721240700000067,37.89391820000003],[23.721261600000048,37.893922000000032],[23.72106180000003,37.894596800000045]]]},"properties":{"OBJECTID":150,"length":157.61976862938371}},{"type":"Feature","id":151,"geometry":{"type":"Polygon","coordinates":[[[23.720272400000056,37.897227300000054],[23.720058600000073,37.897951000000035],[23.720049800000027,37.897949400000073],[23.720041200000026,37.897947800000054],[23.720254800000077,37.897224100000074],[23.720264300000053,37.897225800000058],[23.720272400000056,37.897227300000054]]]},"properties":{"OBJECTID":151,"length":168.15230798533881}},{"type":"Feature","id":152,"geometry":{"type":"Polygon","coordinates":[[[23.720333200000027,37.897244900000032],[23.720346800000073,37.897247500000049],[23.720359400000063,37.897249800000054],[23.720147600000075,37.89794820000003],[23.720134300000041,37.897945700000037],[23.720121100000028,37.897943200000043],[23.720333200000027,37.897244900000032]]]},"properties":{"OBJECTID":152,"length":164.21016159636844}},{"type":"Feature","id":153,"geometry":{"type":"Polygon","coordinates":[[[23.719448600000078,37.902553900000044],[23.719453500000043,37.901884800000062],[23.719509800000026,37.901885100000072],[23.719504700000073,37.902554200000054],[23.719481900000062,37.902554100000032],[23.719448600000078,37.902553900000044]]]},"properties":{"OBJECTID":153,"length":158.42130424001013}},{"type":"Feature","id":154,"geometry":{"type":"Polygon","coordinates":[[[23.719617000000028,37.90193110000007],[23.719623900000045,37.902523300000041],[23.719606000000056,37.902523700000074],[23.719588600000066,37.902524200000073],[23.719589500000041,37.902485800000079],[23.719590400000072,37.902232000000026],[23.719585500000051,37.901930500000049],[23.719601000000068,37.901930800000059],[23.719617000000028,37.90193110000007]]]},"properties":{"OBJECTID":154,"length":137.5123712306675}},{"type":"Feature","id":155,"geometry":{"type":"Polygon","coordinates":[[[23.716739200000063,37.906667200000072],[23.717205900000067,37.906046500000059],[23.717223400000023,37.906054700000027],[23.717240000000061,37.906062500000075],[23.716773100000069,37.906683100000066],[23.716756700000076,37.90667540000004],[23.716739200000063,37.906667200000072]]]},"properties":{"OBJECTID":155,"length":167.3363736195401}},{"type":"Feature","id":156,"geometry":{"type":"Polygon","coordinates":[[[23.716834400000039,37.906709300000045],[23.717304500000068,37.906088300000079],[23.717313100000069,37.906092400000034],[23.717320800000039,37.90609580000006],[23.716936300000043,37.906616400000075],[23.716887800000052,37.906680000000051],[23.71685640000004,37.90672040000004],[23.716845300000045,37.906714800000032],[23.716834400000039,37.906709300000045]]]},"properties":{"OBJECTID":156,"length":164.79187869216443}},{"type":"Feature","id":157,"geometry":{"type":"Polygon","coordinates":[[[23.712506100000041,37.90989280000008],[23.713273800000024,37.909536600000024],[23.713281300000062,37.909547300000042],[23.713287700000024,37.909556400000042],[23.712523800000042,37.909914400000048],[23.712514100000078,37.909902600000066],[23.712506100000041,37.90989280000008]]]},"properties":{"OBJECTID":157,"length":161.65933965602892}},{"type":"Feature","id":158,"geometry":{"type":"Polygon","coordinates":[[[23.712469300000066,37.909848900000043],[23.71245330000005,37.909828300000072],[23.71264160000004,37.909741700000041],[23.713229700000056,37.909471600000074],[23.713244300000042,37.909490700000049],[23.71281700000003,37.909688000000074],[23.712469300000066,37.909848900000043]]]},"properties":{"OBJECTID":158,"length":162.99132782456482}},{"type":"Feature","id":159,"geometry":{"type":"Polygon","coordinates":[[[23.708594600000026,37.913341500000058],[23.708829900000069,37.912893300000064],[23.708952700000054,37.912673400000074],[23.708969100000047,37.912679200000071],[23.708979800000066,37.91268290000005],[23.708749900000043,37.913104600000054],[23.708623500000044,37.913350500000035],[23.70860870000007,37.913345900000024],[23.708594600000026,37.913341500000058]]]},"properties":{"OBJECTID":159,"length":166.3617697661264}},{"type":"Feature","id":160,"geometry":{"type":"Polygon","coordinates":[[[23.70852670000005,37.913320300000066],[23.708509100000072,37.913316400000042],[23.70849190000007,37.913312500000075],[23.708849600000065,37.91264190000004],[23.70886420000005,37.912646700000039],[23.708881500000075,37.91265240000007],[23.70852670000005,37.913320300000066]]]},"properties":{"OBJECTID":160,"length":167.45573679432684}},{"type":"Feature","id":161,"geometry":{"type":"Polygon","coordinates":[[[23.705123400000048,37.91616300000004],[23.705104800000072,37.916148100000044],[23.705787600000065,37.915615700000046],[23.70580620000004,37.915630600000043],[23.705123400000048,37.91616300000004]]]},"properties":{"OBJECTID":161,"length":173.13834556764959}},{"type":"Feature","id":162,"geometry":{"type":"Polygon","coordinates":[[[23.705862400000058,37.915675200000067],[23.705181400000072,37.916207500000041],[23.705162500000029,37.916192800000033],[23.705428700000027,37.915985900000067],[23.705844500000069,37.915660900000034],[23.705862400000058,37.915675200000067]]]},"properties":{"OBJECTID":162,"length":172.84116543309847}},{"type":"Feature","id":163,"geometry":{"type":"Polygon","coordinates":[[[23.700804500000061,37.918398700000068],[23.700817900000061,37.918403000000069],[23.70083070000004,37.918407100000024],[23.700494900000024,37.91906490000008],[23.700482100000045,37.919060800000068],[23.700468900000033,37.919056600000033],[23.700503600000047,37.918988600000034],[23.700804500000061,37.918398700000068]]]},"properties":{"OBJECTID":163,"length":162.46750884407211}},{"type":"Feature","id":164,"geometry":{"type":"Polygon","coordinates":[[[23.700558100000023,37.91909030000005],[23.700581600000078,37.919046900000069],[23.700655500000039,37.918906900000025],[23.70090220000003,37.918425900000045],[23.700919500000055,37.918431700000042],[23.700932300000034,37.918435900000077],[23.700842100000045,37.918608600000027],[23.700585800000056,37.919099500000073],[23.700571500000024,37.919094800000039],[23.700558100000023,37.91909030000005]]]},"properties":{"OBJECTID":164,"length":164.93198377965211}},{"type":"Feature","id":165,"geometry":{"type":"Polygon","coordinates":[[[23.696111700000074,37.921718000000055],[23.69687250000004,37.921376100000032],[23.696888300000069,37.921397200000058],[23.696127200000035,37.921739500000058],[23.696119000000067,37.921728100000053],[23.696111700000074,37.921718000000055]]]},"properties":{"OBJECTID":165,"length":159.3335100665241}},{"type":"Feature","id":166,"geometry":{"type":"Polygon","coordinates":[[[23.696076300000072,37.921669000000065],[23.696068300000036,37.92165760000006],[23.696060800000055,37.92164710000003],[23.696825600000068,37.921311500000058],[23.696840900000041,37.921333200000049],[23.696076300000072,37.921669000000065]]]},"properties":{"OBJECTID":166,"length":159.288266317054}},{"type":"Feature","id":167,"geometry":{"type":"Polygon","coordinates":[[[23.692417600000056,37.923775300000045],[23.692672600000037,37.923547600000063],[23.693027700000073,37.923230600000068],[23.693040600000074,37.923239600000045],[23.693050000000028,37.923246300000073],[23.692440200000078,37.923791200000039],[23.692430000000058,37.923784100000034],[23.692417600000056,37.923775300000045]]]},"properties":{"OBJECTID":167,"length":166.93115784785596}},{"type":"Feature","id":168,"geometry":{"type":"Polygon","coordinates":[[[23.693101600000034,37.923282300000039],[23.693112500000041,37.923289700000055],[23.693122200000062,37.923296500000049],[23.692513800000029,37.923843300000044],[23.692503700000032,37.923836100000074],[23.692491400000051,37.92382740000005],[23.693101600000034,37.923282300000039]]]},"properties":{"OBJECTID":168,"length":166.81134138472214}},{"type":"Feature","id":169,"geometry":{"type":"Polygon","coordinates":[[[23.689026100000035,37.92761310000003],[23.689035700000034,37.927624600000058],[23.689044600000045,37.927635100000032],[23.688964800000065,37.927675300000033],[23.688846900000044,37.92773470000003],[23.688702200000023,37.927803600000061],[23.688579200000049,37.927858100000037],[23.687954800000057,37.928136800000061],[23.687929600000075,37.928148100000044],[23.687915900000064,37.928128500000071],[23.688243200000045,37.927980200000036],[23.688618100000042,37.92781210000004],[23.688842300000033,37.927709900000025],[23.689026100000035,37.92761310000003]]]},"properties":{"OBJECTID":169,"length":231.98644275690734}},{"type":"Feature","id":170,"geometry":{"type":"Polygon","coordinates":[[[23.687862800000062,37.928058400000054],[23.688287100000025,37.927873800000043],[23.688595600000042,37.92773950000003],[23.688717800000063,37.927680200000054],[23.688736000000063,37.927671400000065],[23.68875330000003,37.927661300000068],[23.688971500000036,37.927551700000038],[23.688978500000076,37.927558500000032],[23.688987700000041,37.927567500000066],[23.68875120000007,37.927689800000053],[23.688585100000068,37.927768100000037],[23.688517600000068,37.927798900000028],[23.688310900000033,37.927887100000078],[23.68810110000004,37.927979100000073],[23.687975800000061,37.928034700000069],[23.687875800000029,37.928079000000025],[23.687862800000062,37.928058400000054]]]},"properties":{"OBJECTID":170,"length":230.50459510710206}},{"type":"Feature","id":171,"geometry":{"type":"Polygon","coordinates":[[[23.687449000000072,37.931680500000027],[23.687422900000058,37.931633400000067],[23.68738600000006,37.93156700000003],[23.687097100000074,37.931045900000072],[23.687109600000042,37.931041600000071],[23.687122100000067,37.931037300000071],[23.687304900000072,37.93136700000008],[23.687318300000072,37.931391200000064],[23.687411200000042,37.931558900000027],[23.687473900000043,37.931671900000026],[23.687449000000072,37.931680500000027]]]},"properties":{"OBJECTID":171,"length":158.64498610808658}},{"type":"Feature","id":172,"geometry":{"type":"Polygon","coordinates":[[[23.687034200000028,37.93106720000003],[23.687098300000059,37.931182900000067],[23.687386900000035,37.931703700000071],[23.687361300000077,37.93171250000006],[23.687071700000047,37.93119020000006],[23.687008500000047,37.931076000000076],[23.687020800000028,37.931071300000042],[23.687034200000028,37.93106720000003]]]},"properties":{"OBJECTID":172,"length":159.22737873886805}},{"type":"Feature","id":177,"geometry":{"type":"Polygon","coordinates":[[[23.699994000000061,37.922330000000045],[23.699969800000076,37.922339500000078],[23.699535600000047,37.921653500000048],[23.699558900000056,37.921642800000029],[23.699994000000061,37.922330000000045]]]},"properties":{"OBJECTID":177,"length":175.25211073614639}},{"type":"Feature","id":178,"geometry":{"type":"Polygon","coordinates":[[[23.702106800000024,37.925565600000027],[23.702084900000045,37.925574100000063],[23.701679800000022,37.924951700000065],[23.701670300000046,37.924935900000037],[23.701692000000037,37.924927100000048],[23.702106800000024,37.925565600000027]]]},"properties":{"OBJECTID":178,"length":163.65798547779514}},{"type":"Feature","id":179,"geometry":{"type":"Polygon","coordinates":[[[23.704620800000043,37.927994200000057],[23.705437500000073,37.928200000000061],[23.70543280000004,37.928213400000061],[23.705428900000072,37.928224600000078],[23.704611500000055,37.928020400000037],[23.704620800000043,37.927994200000057]]]},"properties":{"OBJECTID":179,"length":156.55650797089166}},{"type":"Feature","id":180,"geometry":{"type":"Polygon","coordinates":[[[23.705588900000066,37.928237000000024],[23.70640910000003,37.928438300000039],[23.706400000000031,37.928461300000038],[23.705580300000065,37.928261900000052],[23.705583800000056,37.928251600000067],[23.705588900000066,37.928237000000024]]]},"properties":{"OBJECTID":180,"length":156.42136745556752}},{"type":"Feature","id":181,"geometry":{"type":"Polygon","coordinates":[[[23.665583200000071,37.944514800000036],[23.66554990000003,37.944509900000071],[23.66484360000004,37.944406500000071],[23.664850200000046,37.94437860000005],[23.665589800000078,37.94448680000005],[23.665583200000071,37.944514800000036]]]},"properties":{"OBJECTID":181,"length":138.53395886279469}},{"type":"Feature","id":182,"geometry":{"type":"Polygon","coordinates":[[[23.660909400000037,37.945026300000052],[23.660327600000073,37.945409700000027],[23.660309500000039,37.94539270000007],[23.66089130000006,37.945009300000038],[23.660909400000037,37.945026300000052]]]},"properties":{"OBJECTID":182,"length":137.995209141271}},{"type":"Feature","id":183,"geometry":{"type":"Polygon","coordinates":[[[23.656042800000023,37.947822300000041],[23.655680600000039,37.947926500000051],[23.655672500000037,37.947908900000073],[23.656034700000077,37.947804700000063],[23.656042800000023,37.947822300000041]]]},"properties":{"OBJECTID":183,"length":71.900884992233145}},{"type":"Feature","id":184,"geometry":{"type":"Polygon","coordinates":[[[23.651421500000026,37.948452300000042],[23.651427700000056,37.948428700000079],[23.651497400000039,37.948438300000078],[23.651567700000044,37.948445500000048],[23.651638300000059,37.948450300000047],[23.651833800000077,37.948456000000078],[23.651942100000042,37.948461300000076],[23.652050200000076,37.948469900000077],[23.652157700000032,37.948481600000036],[23.652264700000046,37.948496400000067],[23.652257300000031,37.948524700000064],[23.652152000000058,37.948508100000026],[23.652045900000076,37.948495300000047],[23.651939200000072,37.94848630000007],[23.65183200000007,37.948481100000038],[23.651637400000027,37.948474700000077],[23.651565000000062,37.948469900000077],[23.651493000000073,37.948462400000039],[23.651421500000026,37.948452300000042]]]},"properties":{"OBJECTID":184,"length":153.93807203049082}},{"type":"Feature","id":185,"geometry":{"type":"Polygon","coordinates":[[[23.647051600000054,37.947068000000058],[23.647088900000028,37.947111100000029],[23.647129600000028,37.947152300000027],[23.647173500000065,37.947191400000065],[23.647220400000037,37.94722820000004],[23.647270100000071,37.947262700000067],[23.647348100000045,37.94731100000007],[23.647429000000045,37.947356400000047],[23.647512400000039,37.947398700000065],[23.647598300000027,37.947437900000068],[23.647587100000067,37.947455600000069],[23.647500400000069,37.947415800000044],[23.647415900000055,37.947373300000038],[23.647333600000024,37.947328200000072],[23.647253500000033,37.947280500000033],[23.64720230000006,37.947245000000066],[23.647154000000057,37.947207100000071],[23.647108800000069,37.947166800000048],[23.647066900000027,37.947124400000064],[23.647028500000033,37.947079900000062],[23.647051600000054,37.947068000000058]]]},"properties":{"OBJECTID":185,"length":133.59453738950978}},{"type":"Feature","id":186,"geometry":{"type":"Polygon","coordinates":[[[23.644881700000042,37.94451360000005],[23.645044600000062,37.944704400000035],[23.645101000000068,37.944771600000024],[23.645319700000073,37.945028900000068],[23.645299100000045,37.945039800000075],[23.645080600000028,37.944782700000076],[23.644861100000071,37.944524400000034],[23.644881700000042,37.94451360000005]]]},"properties":{"OBJECTID":186,"length":142.2511513450163}},{"type":"Feature","id":187,"geometry":{"type":"Polygon","coordinates":[[[23.701692000000037,37.924927100000048],[23.70171380000005,37.924918300000058],[23.701727000000062,37.924938700000041],[23.70212870000006,37.925557100000049],[23.702106800000024,37.925565600000027],[23.701692000000037,37.924927100000048]]]},"properties":{"OBJECTID":187,"length":163.73616640363372}},{"type":"Feature","id":188,"geometry":{"type":"Polygon","coordinates":[[[23.70580620000004,37.915630600000043],[23.705824900000039,37.915645400000074],[23.705141900000058,37.916177800000071],[23.705123400000048,37.91616300000004],[23.70580620000004,37.915630600000043]]]},"properties":{"OBJECTID":188,"length":173.13512208972307}},{"type":"Feature","id":189,"geometry":{"type":"Polygon","coordinates":[[[23.705862400000058,37.915675200000067],[23.705880300000047,37.915689400000076],[23.705199300000061,37.916221800000073],[23.705181400000072,37.916207500000041],[23.705862400000058,37.915675200000067]]]},"properties":{"OBJECTID":189,"length":172.71588374777136}},{"type":"Feature","id":190,"geometry":{"type":"Polygon","coordinates":[[[23.699994000000061,37.922330000000045],[23.699558900000056,37.921642800000029],[23.699582200000066,37.921632100000068],[23.700018100000023,37.922320500000069],[23.699994000000061,37.922330000000045]]]},"properties":{"OBJECTID":190,"length":175.54936903790701}},{"type":"Feature","id":191,"geometry":{"type":"Polygon","coordinates":[[[23.754118400000038,37.855754000000047],[23.75414040000004,37.855746000000067],[23.754215400000078,37.855888700000037],[23.754314700000066,37.856111000000055],[23.754446200000075,37.85642990000008],[23.754424500000027,37.856435100000056],[23.754324600000075,37.85618960000005],[23.754240000000038,37.856001400000025],[23.754185600000028,37.855885900000033],[23.754118400000038,37.855754000000047]]]},"properties":{"OBJECTID":191,"length":164.98158489551489}},{"type":"Feature","id":192,"geometry":{"type":"Polygon","coordinates":[[[23.754471600000045,37.859773500000074],[23.754084100000057,37.860427600000037],[23.754058200000031,37.860417900000073],[23.754111900000055,37.860325600000067],[23.75420900000006,37.860165000000052],[23.754446300000041,37.859765300000049],[23.754471600000045,37.859773500000074]]]},"properties":{"OBJECTID":192,"length":165.2192483859327}},{"type":"Feature","id":193,"geometry":{"type":"Polygon","coordinates":[[[23.751034200000049,37.862909800000068],[23.751024700000073,37.862893500000041],[23.751386000000025,37.862740400000064],[23.751512300000059,37.862682900000038],[23.751679100000047,37.862607400000059],[23.751803100000075,37.862544200000059],[23.751811900000064,37.86253970000007],[23.751825000000053,37.862554800000055],[23.751698900000065,37.862619800000061],[23.751526900000044,37.862699500000076],[23.751396800000066,37.862757700000031],[23.751228500000025,37.862830200000076],[23.751034200000049,37.862909800000068]]]},"properties":{"OBJECTID":193,"length":163.69900941468572}},{"type":"Feature","id":197,"geometry":{"type":"Polygon","coordinates":[[[23.64748940000004,37.942620100000056],[23.647473900000023,37.942602500000078],[23.647687200000064,37.942486200000076],[23.648081900000022,37.942271000000062],[23.648097300000074,37.94228860000004],[23.647702700000025,37.942503800000054],[23.64748940000004,37.942620100000056]]]},"properties":{"OBJECTID":197,"length":134.52195622743162}},{"type":"Feature","id":198,"geometry":{"type":"Polygon","coordinates":[[[23.65038050000004,37.94135140000003],[23.65076890000006,37.941818000000069],[23.650739700000031,37.941833000000031],[23.650351400000034,37.941366500000072],[23.65038050000004,37.94135140000003]]]},"properties":{"OBJECTID":198,"length":130.16585353379625}},{"type":"Feature","id":199,"geometry":{"type":"Polygon","coordinates":[[[23.653231100000028,37.944626700000072],[23.653671400000064,37.945149700000059],[23.653648000000032,37.945161900000073],[23.653207700000053,37.944638900000029],[23.653231100000028,37.944626700000072]]]},"properties":{"OBJECTID":199,"length":144.46269554801384}},{"type":"Feature","id":200,"geometry":{"type":"Polygon","coordinates":[[[23.656096200000036,37.947921300000075],[23.656200400000046,37.948038200000042],[23.656307300000037,37.948153500000046],[23.656416800000045,37.948267200000032],[23.656529100000057,37.948379300000056],[23.656507500000032,37.948393300000077],[23.656393900000069,37.948281500000064],[23.656283600000052,37.948167600000033],[23.656176600000038,37.94805180000003],[23.656073000000049,37.947934100000055],[23.656096200000036,37.947921300000075]]]},"properties":{"OBJECTID":200,"length":132.1610892776562}},{"type":"Feature","id":201,"geometry":{"type":"Polygon","coordinates":[[[23.660055700000044,37.94592810000006],[23.660634200000061,37.945554800000025],[23.660660200000052,37.945579800000075],[23.660081700000035,37.945953100000054],[23.660055700000044,37.94592810000006]]]},"properties":{"OBJECTID":201,"length":138.37491471228446}}]}